Exporter Name,Address,State,pin,2015,2016,2017,2018,2019,2020,2021,2022,2023,Taluk,District,Latitude,Longitude,Cluster,2024,2025,2026,2027,2028
A.A.NUTS,"WJMW+7F7, Chandanathope, Mamoodu, Kerala 14, India",Kerala,686012,1346288,0,0,0,0,0,0,0,0,Kottayam,Kottayam,9.54856711111111,76.52230786666667,0,0.0,0.0,0.0,0.0,4.455677493666506e-11
AARGEE ASSOCIATES,"MINI INDUSTRIAL ESTATE, PLOT NO .5, near POLICE STATION, Manarcadu, Kerala 686019, India",Kerala,686019,793,0,0,0,0,0,0,0,0,Kottayam,Kottayam,9.592533289090907,76.58230555090908,0,0.0,8.654405480745659e-11,0.0,0.0,0.0
ADORN GLASS ART,"Near Pampady Gramapanchayth, NH- 220, Pampady Road, Pampady, Kottayam, Pampady, Kerala 686502, India",Kerala,686502,4500,0,0,0,0,0,0,0,0,Kottayam,Kottayam,9.581621149411763,76.63691744941177,0,0.0,8.295655501162569e-11,0.0,0.0,0.0
ANCHUTHENGIL AGRI SUPPLY,"Anchuthengu, Kerala, India",Kerala,686012,14663,6341,20036,18192,39140,36685,21334,33294,25039,Kottayam,Kottayam,9.54856711111111,76.52230786666667,0,25038.99999999905,25038.99999999955,25038.999999999283,25038.99999999805,25038.99999999949
ARBEE AGENCIES,"Thattaveli Palam, Velloor, Kerala 686605, India",Kerala,686605,93440,60160,226843,5742,0,0,0,0,0,Vaikom,Kottayam,9.795920142424242,76.44080179242424,0,0.0,5.895796478240546e-10,0.0,0.0,0.0
B.S.RUBBERS,"IX/45-N INDUSTRIAL DEVELOPMENT PLOT, Poovanthuruthu, Kerala 686012, India",Kerala,686012,153709,259888,289433,554904,652883,567040,770860,688116,400656,Kottayam,Kottayam,9.54856711111111,76.52230786666667,0,400656.000000002,400655.9999999991,400656.0000000002,400656.0000000033,400656.0000000001
C.R.I.RUBBERS,"XI /799, VIJAYAPURAM, Vadavathoor, Kottayam, Kerala 686010, India",Kerala,686010,146350,66155,156710,145122,146010,124182,58764,0,0,Kottayam,Kottayam,9.590680228,76.56449500800001,0,0.0,0.0,0.0,0.0,0.0
CEAKAY INDUSTRIES,"Ponpuzha, Ithithanam Post, Changanacherry Near Saintgits college, Pathamuttom, Kottayam, Ithithanam, Kerala 686535, India",Kerala,686535,1977574,1545564,1535023,2036325,2587584,2278346,3361076,1726492,2138720,Changanassery,Kottayam,9.479609457894735,76.52609346315789,0,2138720.000000013,2138719.999999998,2138720.0000000065,2138720.000000024,2138720.000000004
CONSOLIDATED WOOD INDUSTRIES,"Chingavanam, Kerala 686007, India",Kerala,686007,68000,117245,116525,105785,184253,506236,859227,85850,209002,Kottayam,Kottayam,9.531553366666667,76.5150448,0,209002.0000000001,209001.9999999988,209001.9999999998,209002.00000000096,209001.9999999999
DOLPHIN RUBBER INDUSTRIES,"Industrial Development Plot, Poovanthuruthu, Kottayam, Kerala 686012, India",Kerala,686012,761554,968567,1314232,2035202,1769972,1954678,2126792,1586599,1508514,Kottayam,Kottayam,9.54856711111111,76.52230786666667,0,1508514.0000000102,1508513.999999999,1508514.0000000035,1508514.0000000168,1508514.000000002
DUSTAN WOOD,"Kurichy, Thuruthy, Kerala 686532, India",Kerala,686532,94264,383521,254299,180245,197350,0,14000,0,0,Changanassery,Kottayam,9.502805928070176,76.51869062982456,0,0.0,4.5223989138627065e-11,0.0,0.0,1.6700478216694834e-12
GENERAL RUBBERS,"MGHX+HMC, Industrial Estate Rd, Ettumanoor, Kerala 686631, India",Kerala,686631,162391,223085,2277826,1274609,5940,630418,2075433,2374803,2633256,Kottayam,Kottayam,9.673597835897436,76.55975298397436,0,2633256.000000014,2633256.0000000093,2633256.00000001,2633256.000000018,2633256.000000002
GLENROCK RUBBER PRODUCTS P. LTD.,"Mallikassery, Kerala 686577, India",Kerala,686577,3255796,3770304,3643845,4089577,3886740,3383469,5380919,2875188,3718903,Meenachil,Kottayam,9.640891316,76.737008176,0,3718903.0000000233,3718903.0,3718903.0000000144,3718903.000000044,3718903.000000007
ILLICKAL EXPORTS,"Illikkal Kallu, Illikkal Kallu Rd, Moonnilavu, Poonjar Vadakkekara, Kerala 686586, India",Kerala,686586,378,0,0,0,0,0,0,0,0,Meenachil,Kottayam,9.7493429375,76.78570731875,0,0.0,8.694567671608078e-11,0.0,0.0,0.0
JOSH RUBBERS,"Industrial development Plot, Poovanthuruthu, Kottayam, Kerala 686012, India",Kerala,686012,24320,44800,0,0,0,0,0,0,0,Kottayam,Kottayam,9.54856711111111,76.52230786666667,0,0.0,5.88016806108683e-11,0.0,0.0,0.0
KANNAN DEVAN HILLS PLANTATIONS,"Kannan Devan Hills, Kerala, India",Kerala,686012,2567669,2264190,2337803,2349653,2534903,1987961,2005218,1681742,1811474,Kottayam,Kottayam,9.54856711111111,76.52230786666667,0,1811474.000000014,1811474.0000000007,1811474.000000008,1811474.000000022,1811474.0000000035
KERAL DINESH BEEDI WORKERS,"Kerala, India",Kerala,686012,4373,499,0,0,0,0,0,0,563,Kottayam,Kottayam,9.54856711111111,76.52230786666667,0,562.9999999988371,562.9999999995017,562.9999999991787,562.9999999977698,562.9999999994621
MIDAS TREADS (INDIA)P.LTD.,"HP9G+9W5, NH183, Vazhoor, Kerala 686504, India",Kerala,686504,2431232,1411987,518652,241084,157317,218239,0,0,0,Changanassery,Kottayam,9.565303158928572,76.70881164821428,0,0.0,0.0,1.957885366267136e-09,7.558277907230232e-10,1.0813493357779088e-09
MORE COMPUTERS(KERALA)P.LTD.,"Kerala, India",Kerala,686012,100,0,0,0,0,0,0,0,0,Kottayam,Kottayam,9.54856711111111,76.52230786666667,0,0.0,8.721471500667721e-11,0.0,0.0,0.0
MOUNT SAHIYA,"kallungakadavu, channanicadu, GGWW+Q2V P.O, Kottayam, Kerala 686533, India",Kerala,686533,275039,282807,227749,120834,93037,79919,95473,60009,73974,Kottayam,Kottayam,9.527813314285716,76.54438353571427,0,73973.99999999965,73973.99999999977,73974.00000000009,73973.99999999917,73973.99999999972
NOCHUMANNIL RUBBER INDUSTRIES,"Pongamthanam, Vakathanam, Kerala 686538, India",Kerala,686538,601540,624380,689950,731240,623309,577058,198755,184640,262550,Changanassery,Kottayam,9.508244727272729,76.56852196363636,0,262550.00000000274,262549.9999999999,262550.00000000093,262550.00000000285,262550.00000000023
ORIENT SPICE COMPANY,"Industrial Development Plot, Nethaji Road, HG2H+43R, Poovanthuruthu, Kottayam, Kerala 686012, India",Kerala,686012,134400,54000,0,0,0,0,0,0,0,Kottayam,Kottayam,9.54856711111111,76.52230786666667,0,0.0,0.0,0.0,0.0,1.2783387237962146e-11
PARAYIL EXPORTS,"Plassanal Pravithanam Rd, Nariyanganam, Kerala 686579, India",Kerala,686579,2997177,2531381,2904314,2641552,3421523,2792016,2210220,1999789,471009,Meenachil,Kottayam,9.712446453333332,76.75880779333333,0,471009.000000016,471009.0000000006,471009.00000000594,471009.00000001886,471009.0000000021
PEPPER INDIA CORPORATION,"HGQG+4R8, Vellapally Ln, Eerayil Kadavu, Kottayam, Kerala 686004, India",Kerala,686004,62075,74570,20914,1516,0,0,0,0,0,Kottayam,Kottayam,9.58203488,76.54092101,0,0.0,7.199288502569672e-11,0.0,0.0,7.679357805109602e-12
PLANTRICH AGRI TECH P.LTD.,"Mini Industrial Estate, Manarcad, Kottayam, Manarcadu, Kerala 686019, India",Kerala,686019,435261,729372,947744,975120,1061881,809927,667858,1136246,1776791,Kottayam,Kottayam,9.592533289090907,76.58230555090908,0,1776791.000000007,1776791.000000002,1776791.0000000056,1776791.0000000123,1776791.0000000016
SANTHIGIRI ASHRAM,"Ettumanoor, Kerala 686631, India",Kerala,686631,386654,420914,512892,257194,214168,91778,8200,0,0,Kottayam,Kottayam,9.673597835897436,76.55975298397436,0,7.07043351320525e-10,5.542013450162304e-10,4.738489872970881e-10,0.0,0.0
SREE SANKARA AYURVEDA VAIDYASALA,"Mannam Rd, Changanassery, Kerala 686102, India",Kerala,686102,2488,2433,3176,400,2216,788,0,1477,478,Changanassery,Kottayam,9.43689048275862,76.53501334137931,0,477.9999999988496,477.9999999995154,477.99999999918936,477.99999999777776,477.9999999994627
T.J.P. RUBBER INDUSTRIES,"Industrial Development Plot, PO, Poovanthuruthu, Kottayam, Kerala 686012, India",Kerala,686012,253906,383388,552797,365326,600016,417102,556372,341077,791383,Kottayam,Kottayam,9.54856711111111,76.52230786666667,0,791383.000000003,791383.0000000009,791383.0000000027,791383.0000000049,791383.0000000006
T.J.P.EXPORTS,"ID Plot, Poovanthuruthu, Kottayam, Kerala 686012, India",Kerala,686012,25312,0,128097,154659,252144,232215,128067,209894,170752,Kottayam,Kottayam,9.54856711111111,76.52230786666667,0,170752.0000000003,170751.99999999985,170751.99999999974,170751.9999999996,170751.99999999965
TAURUS RUBBER INDUSTRIES,"HG2G+QPW, Unnamed Road, Poovanthuruthu, Kerala 686012, India",Kerala,686012,280,280,0,0,0,220,430,1395,1435,Kottayam,Kottayam,9.54856711111111,76.52230786666667,0,1434.999999998838,1434.999999999506,1434.9999999991812,1434.999999997774,1434.9999999994616
TUFCKO INTERNATI0NAL,"HQCR+3V5, Kanjirappally, Kerala 686507, India",Kerala,686507,1689760,1792415,1794385,1508383,1813848,1513204,2412491,2131882,3705082,Kanjirappally,Kottayam,9.558497567123288,76.79145172602739,0,3705082.000000014,3705082.0000000033,3705082.0000000135,3705082.000000029,3705082.0000000047
TUSCANY KERALA GARMENTS P.LTD.,"Kerala, India",Kerala,686012,6279,0,0,0,0,0,0,0,0,Kottayam,Kottayam,9.54856711111111,76.52230786666667,0,0.0,8.123490350453553e-11,0.0,0.0,0.0
VIKAS RUBBERS,"Manarcadu Thengana Road, Thalappady, Kottayam, Kerala 686019, India",Kerala,686019,960682,460386,808130,754738,1116756,1678297,1826594,2098881,1334068,Kottayam,Kottayam,9.592533289090907,76.58230555090908,0,1334068.0000000077,1334068.0000000007,1334068.000000005,1334068.0000000126,1334068.0000000007
ZALLKAR EXPORTS,"23/575, Kattakayam Rd, Pala, Kerala 686575, India",Kerala,686575,21505,21000,0,0,0,0,0,0,0,Meenachil,Kottayam,9.719589849206349,76.68607506666666,0,0.0,6.416826604267393e-11,0.0,0.0,0.0
DEVON FOODS LTD.,"Ettumanoor, Kerala 686631, India",Kerala,686631,0,47137,4624,0,0,0,0,26017,0,Kottayam,Kottayam,9.673597835897436,76.55975298397436,0,0.0,1.0880144399868138e-10,0.0,0.0,0.0
KARUR SREE RAMA,"Karur, Tamil Nadu, India",Tamil Nadu,686012,0,6928,9199,0,0,3858,2923,0,0,Kottayam,Kottayam,9.54856711111111,76.52230786666667,0,0.0,1.0540634636035783e-10,0.0,0.0,0.0
KATTILPARAMBIL TRADERS,"PC59+3FV, Vaikom - Vechoor Rd, Thalayazham, Kerala 686607, India",Kerala,686607,0,156,0,0,0,0,0,0,0,Vaikom,Kottayam,9.71175730952381,76.41841635714286,0,0.0,8.729417189101696e-11,0.0,0.0,0.0
KEDISON EXPELLERS,"Kanjirappalli Elikkulam Rd, Kanjirapally P.O, Kokkappally, Kanjirappally, Kerala 686507, India",Kerala,686507,0,162521,47246,0,0,0,0,18000,20250,Kanjirappally,Kottayam,9.558497567123288,76.79145172602739,0,20249.999999998712,20249.999999999567,20249.999999999567,20249.99999999809,20249.99999999956
KERALA HANDICRATS,"Kerala, India",Kerala,686012,0,5850,2680,4510,7000,0,9000,420,750,Kottayam,Kottayam,9.54856711111111,76.52230786666667,0,749.999999998847,749.9999999994924,749.9999999991792,749.9999999978021,749.9999999994687
MEENACHIL RUBBERWOOD (P) LTD.,"Meenachil, Kerala 686575, India",Kerala,686575,0,14732,14545,15000,0,0,0,0,0,Meenachil,Kottayam,9.719589849206349,76.68607506666666,0,0.0,9.109958856049754e-11,0.0,0.0,0.0
MULLASSERY CASHEW,"Mullassery, Kerala, India",Kerala,686012,0,2000,0,0,0,0,0,0,0,Kottayam,Kottayam,9.54856711111111,76.52230786666667,0,0.0,8.708944676527608e-11,0.0,0.0,0.0
PERUMACHERIL CASTING INDUSTRIES,"Market Landing Rd, Market, Kottayam, Kerala 686001, India",Kerala,686001,0,78400,0,0,0,0,1775,2850,16720,Kottayam,Kottayam,9.590939220930233,76.52573586744185,0,16719.99999999869,16719.99999999943,16719.999999999323,16719.999999997934,16719.999999999516
SAMSON CHEMICAL INDUSTRIES,"HGQM+9J9, near Lourde Church, Collectorate, Kottayam, Kerala 686002, India",Kerala,686002,0,96000,0,46000,72760,0,0,0,0,Kottayam,Kottayam,9.58903118,76.53411470333333,0,0.0,0.0,0.0,0.0,5.3597572735038814e-11
THARAKAN AND COMPANY,"Parambil Buildings, Olassa P. O, Olassa, Kerala 686014, India",Kerala,686014,0,125,2373,2856,9398,0,0,4977,8465,Kottayam,Kottayam,9.617703522727274,76.47939103181818,0,8464.999999998874,8464.99999999952,8464.999999999205,8464.999999997823,8464.999999999472
THOMSON RUBBERS,"IX/18 C, Kurisungal JN, Kanjirappally, Kottayam, Kanjirappally, Kerala 686507, India",Kerala,686507,0,784000,4589200,0,1214400,2006960,1080720,42200,160300,Kanjirappally,Kottayam,9.558497567123288,76.79145172602739,0,160300.00000001976,160300.00000001857,160300.00000001298,160300.00000000806,160300.0000000005
VADAKKEDATH INDUSTRIES P.LTD.,"XII/1429, Market Rd, Nadackal, Erattupetta, Kerala 686121, India",Kerala,686121,0,8000,0,0,0,0,445595,461850,204540,Meenachil,Kottayam,9.692869868421052,76.77764492631579,0,204539.99999999927,204539.9999999996,204539.99999999985,204539.9999999996,204539.99999999956
AGRO BIO TECH RESEARCH CENTRE LTD.,"Poovanthuruthu, Kerala Industrial Development Plot, Poovanthuruthu, Kerala 686012, India",Kerala,686012,0,0,16894,0,0,24600,0,0,0,Kottayam,Kottayam,9.54856711111111,76.52230786666667,0,0.0,1.1340187158653854e-10,0.0,0.0,0.0
ARACKATHARA RECLAIMATIONS,"Kurichy - Eara - Kavalam Rd, Kurichy, Chingavanam, Kerala 686532, India",Kerala,686532,0,0,23450,294297,1681999,1496583,2039930,2183923,3842112,Changanassery,Kottayam,9.502805928070176,76.51869062982456,0,3842112.000000009,3842112.000000001,3842112.00000001,3842112.000000024,3842112.000000003
K.P GROUP INDUSTRIES,"12, Kollad-Puthuppally Rd, Poovanthuruthu, Kerala 686012, India",Kerala,686012,0,0,40120,22000,14298,28726,0,0,0,Kottayam,Kottayam,9.54856711111111,76.52230786666667,0,0.0,1.10574798716354e-10,0.0,0.0,0.0
K.P.GROUP INDUSTRIES,"12, Kollad-Puthuppally Rd, Poovanthuruthu, Kerala 686012, India",Kerala,686012,0,0,22486,65047,103482,105245,160271,67325,38000,Kottayam,Kottayam,9.54856711111111,76.52230786666667,0,37999.99999999926,37999.99999999934,37999.99999999918,37999.99999999848,37999.99999999953
KELACHANDRA IRON & STEEL WORKS,"Chingavanam, Kerala 686531, India",Kerala,686531,0,0,3400,0,0,0,0,0,0,Changanacherry,Kottayam,9.5105107,76.52202866666666,0,0.0,9.648927779722012e-11,0.0,0.0,0.0
KERALA STATE ELECTRONIC DEV. CORPN. LTD.,"Kerala, India",Kerala,686012,0,0,320,0,0,0,0,110,0,Kottayam,Kottayam,9.54856711111111,76.52230786666667,0,0.0,8.823549583130226e-11,0.0,0.0,0.0
NEOTECH POLYMERS,"Mooledom, HG3H+89V, Kollad-Puthuppally Rd, Poovanthuruthu, Kerala 686004, India",Kerala,686004,0,0,10300,0,0,0,0,0,0,Kottayam,Kottayam,9.58203488,76.54092101,0,0.0,1.1511478554617047e-10,0.0,0.0,0.0
POLYKOT INDUSTRIES,"12/2, Kaveekunnu, Anthiyalam, Pala, Kerala 686574, India",Kerala,686574,0,0,3,0,0,0,0,0,0,Meenachil,Kottayam,9.722305693333334,76.66728714,0,0.0,8.731958941704848e-11,0.0,0.0,0.0
RIOTECH INDUSTRIES,"MIE Mini Industrial Estate, Valavoor, Vallichira, Kerala 686635, India",Kerala,686635,0,0,1296,0,0,0,0,18394,31432,Meenachil,Kottayam,9.750672510714285,76.62233675714285,0,31431.99999999889,31431.99999999956,31431.99999999928,31431.999999997923,31431.99999999949
SPECIFIED RUBBERS (P)LTD.,"Kanjikuzhi, Kottayam, Kerala 686002, India",Kerala,686002,0,0,120000,0,0,0,0,0,0,Kottayam,Kottayam,9.58903118,76.53411470333333,0,0.0,4.112333652649901e-10,0.0,0.0,0.0
THAIMADAM MACHINES,"CHX3+3RC, Changanassery Bypass, Kunnakkad, Fathimapuram, Changanassery, Kerala 686101, India",Kerala,686101,0,0,4415,0,0,0,0,0,0,Changanassery,Kottayam,9.447470443010753,76.5399100483871,0,0.0,9.922911698058022e-11,0.0,0.0,0.0
VENUS PHOTO WORLD,"Palace Rd, near UCO BANK, Changanassery, Aramanapady, Kottayam, Changanassery, Kerala 686101, India",Kerala,686101,0,0,110,0,0,0,0,0,0,Changanassery,Kottayam,9.447470443010753,76.5399100483871,0,0.0,8.760841975460467e-11,0.0,0.0,0.0
HANANI RUBBERS,"I D Plot No.90, P.O, Poovanthuruthu, Kottayam, Kerala 686012, India",Kerala,686012,0,0,0,18210,10152,0,0,0,0,Kottayam,Kottayam,9.54856711111111,76.52230786666667,0,0.0,3.727124954419079e-11,0.0,0.0,0.0
PALANI VIJAY COTTSPIN PVT LTD,"Palani, Tamil Nadu, India",Tamil Nadu,686012,0,0,0,6956,0,0,0,0,0,Kottayam,Kottayam,9.54856711111111,76.52230786666667,0,0.0,7.161951927124703e-11,0.0,0.0,0.0
SANTHIGIRI KOOTTUKUDUMB COIR,"Ettumanoor, Kerala 686631, India",Kerala,686631,0,0,0,83200,14000,0,0,0,0,Kottayam,Kottayam,9.673597835897436,76.55975298397436,0,0.0,0.0,0.0,0.0,0.0
VADAKKUMCHERRY EXPORTS,"Vadakkencherry, Kerala, India",Kerala,686012,0,0,0,1060,0,0,0,0,28400,Kottayam,Kottayam,9.54856711111111,76.52230786666667,0,28399.99999999888,28399.999999999527,28399.99999999925,28399.999999997905,28399.99999999949
CLOUDS INTERNATIONAL EXPORTS,"Kanjirappally, Kerala 686507, India",Kerala,686507,0,0,0,0,1667,0,0,0,0,Kanjirappally,Kottayam,9.558497567123288,76.79145172602739,0,0.0,8.584014356902223e-11,0.0,0.0,0.0
ESTEEM RUBBER PRODUCTS,"Perumpanachy Thottakkad Road Thottackad, Perumpanachy, Kerala 686536, India",Kerala,686536,0,0,0,0,17345,0,0,0,0,Changanassery,Kottayam,9.4773755375,76.58214364166666,0,0.0,7.200223665427565e-11,0.0,0.0,0.0
KERALA SANGHEETHA NATAK ACCADEMY,"Kerala, India",Kerala,686012,0,0,0,0,1300,0,0,0,0,Kottayam,Kottayam,9.54856711111111,76.52230786666667,0,0.0,8.61640695696417e-11,0.0,0.0,0.0
NELLIMALAYIL TRADERS,"Anithottam near Bsnl tower, Kanjirappally, Kerala 686507, India",Kerala,686507,0,0,0,0,55935,116882,81518,74476,38495,Kanjirappally,Kottayam,9.558497567123288,76.79145172602739,0,38494.99999999908,38494.999999999454,38494.99999999931,38494.99999999825,38494.99999999949
ST.THOMAS ENGINEERING WORKS,"Opp.South Indian Bank, St.John's Dayara Complex, SH 1, Chingavanam, Kottayam, Chingavanam, Kerala 686531, India",Kerala,686531,0,0,0,0,1420,0,0,0,0,Changanacherry,Kottayam,9.5105107,76.52202866666666,0,0.0,8.605815371112849e-11,0.0,0.0,0.0
TPJ RUBBER INDUSTRIES,"Industrial Development Plot, PO, Poovanthuruthu, Kottayam, Kerala 686012, India",Kerala,686012,0,0,0,0,25722,0,0,0,0,Kottayam,Kottayam,9.54856711111111,76.52230786666667,0,0.0,6.460842709790162e-11,0.0,0.0,0.0
ARYAS FOODS,"near Aarattukadavu Road, Kumaranalloor, Kottayam, Kerala 686016, India",Kerala,686016,0,0,0,0,0,14500,11204,0,0,Kottayam,Kottayam,9.616360489285714,76.53554135357143,0,0.0,6.466692646646883e-11,0.0,0.0,0.0
COCHIN PACKERS,"Kochi, Kerala, India",Kerala,686012,0,0,0,0,0,891,865,0,0,Kottayam,Kottayam,9.54856711111111,76.52230786666667,0,0.0,8.57444441401016e-11,0.0,0.0,0.0
FOUR G TECHNOLOGIES,"Building no 12/123, Kuzhimattom, Kerala 686533, India",Kerala,686533,0,0,0,0,0,2170,0,0,0,Kottayam,Kottayam,9.527813314285716,76.54438353571427,0,0.0,8.559027375156587e-11,0.0,0.0,0.0
HOSTIA INDUSTRIES,"Neerakkal Building, Muttuchira, Kottayam, Muttuchira, Kerala 686613, India",Kerala,686613,0,0,0,0,0,830,347,0,1000,Vaikom,Kottayam,9.7491363125,76.4823580125,0,999.999999998838,999.9999999995056,999.999999999179,999.9999999977714,999.999999999462
KAYAL EXPORTS,"GGJ8+7R5, Chingavanam, Kerala 686007, India",Kerala,686007,0,0,0,0,0,13406,107116,29662,109916,Kottayam,Kottayam,9.531553366666667,76.5150448,0,109915.99999999904,109915.99999999952,109915.99999999948,109915.99999999849,109915.9999999996
KERALA TIMBERS,"Appanchira, Kaduthuruthy, Kerala 686604, India",Kerala,686604,0,0,0,0,0,4520,0,0,0,Vaikom,Kottayam,9.758229066666669,76.49950541111112,0,0.0,8.372628232124661e-11,0.0,0.0,0.0
MACHINGAL ENTERPRISES,"Machingal, Down Hill, Malappuram, Kerala, India",Kerala,686012,0,0,0,0,0,11326,0,0,0,Kottayam,Kottayam,9.54856711111111,76.52230786666667,0,0.0,7.832784586390493e-11,0.0,0.0,0.0
MALAVIKA ENGINEERING WORKS,"Sh 1, Kodimatha, Kodimatha, Kottayam, Kerala 686001, India",Kerala,686001,0,0,0,0,0,302,0,0,0,Kottayam,Kottayam,9.590939220930233,76.52573586744185,0,0.0,8.707194864170902e-11,0.0,0.0,0.0
MOMO RUBBER PRDUCTS,"Kalamabattuchira,Ithithanam P. O, Changanassery, Ithithanam, Kerala 686535, India",Kerala,686535,0,0,0,0,0,1840,0,0,0,Changanassery,Kottayam,9.479609457894735,76.52609346315789,0,0.0,8.585202573965325e-11,0.0,0.0,0.0
PERINCHERRIL RUBBERS,"DC Road, Poovanthuruthu, Kerala 686012, India",Kerala,686012,0,0,0,0,0,81000,217915,142866,161290,Kottayam,Kottayam,9.54856711111111,76.52230786666667,0,161289.9999999992,161289.9999999995,161289.99999999965,161289.99999999898,161289.9999999996
REGIONAL AGRO INDSTL.DEVELOPMENT CO.OP.OF KERALA L,"Kerala, India",Kerala,686012,0,0,0,0,0,1250,0,0,0,Kottayam,Kottayam,9.54856711111111,76.52230786666667,0,0.0,8.632000656683978e-11,0.0,0.0,0.0
SEVENS ENTERPRISES,"Athirampuzha Junction, MG9P+C3M, near Juma Masjid, Athirampuzha, Kottayam, Athirampuzha, Kerala 686562, India",Kerala,686562,0,0,0,0,0,78874,28400,0,0,Kottayam,Kottayam,9.6723036,76.54058719333332,0,0.0,0.0,0.0,0.0,0.0
VISWAS FOODS,"Viswas Foods, Ramapuram - Aimcombu Rd, Marangadu, Vellilappally, Kerala 686574, India",Kerala,686574,0,0,0,0,0,111920,0,0,0,Meenachil,Kottayam,9.722305693333334,76.66728714,0,0.0,0.0,0.0,0.0,0.0
ACUMEN EXPORTERS,"Aruvithura Crossway Rd, Aruvithura, Erattupetta, Kerala 686121, India",Kerala,686121,0,0,0,0,0,0,605,0,0,Meenachil,Kottayam,9.692869868421052,76.77764492631579,0,0.0,8.670976685960057e-11,0.0,0.0,0.0
COIMBATORE COTS & COATINGS LTD.,"Coimbatore, Tamil Nadu, India",Tamil Nadu,686012,0,0,0,0,0,0,240,66,1602,Kottayam,Kottayam,9.54856711111111,76.52230786666667,0,1601.9999999988383,1601.9999999995064,1601.9999999991808,1601.9999999977736,1601.9999999994627
COIMBATORE POLYTEX,"Coimbatore, Tamil Nadu, India",Tamil Nadu,686012,0,0,0,0,0,0,47195,6383,0,Kottayam,Kottayam,9.54856711111111,76.52230786666667,0,0.0,4.3865991028860886e-11,0.0,0.0,0.0
GREENKERA,"8/253A, MNF BUILDING , KAPPUMTHALA P.O, Muttuchira, Kerala 686613, India",Kerala,686613,0,0,0,0,0,0,303,1862,17065,Vaikom,Kottayam,9.7491363125,76.4823580125,0,17064.99999999886,17064.99999999952,17064.999999999225,17064.99999999785,17064.99999999948
KERALA STATE CO-OPERATIVE FEDERATION FOR FISHERIES,"Kerala, India",Kerala,686012,0,0,0,0,0,0,101800,0,228600,Kottayam,Kottayam,9.54856711111111,76.52230786666667,0,228599.9999999992,228599.99999999965,228599.99999999985,228599.99999999904,228599.9999999997
SIYA RUBBERS,"HG3H+27F, Poovanthuruthu, Kerala 686012, India",Kerala,686012,0,0,0,0,0,0,92160,0,0,Kottayam,Kottayam,9.54856711111111,76.52230786666667,0,0.0,0.0,0.0,0.0,0.0
ST.JUDE FOODS,"Anjilippa, Kanjirappally, Kerala 686518, India",Kerala,686518,0,0,0,0,0,0,43907,204832,0,Kanjirapally,Kottayam,9.531795412962962,76.82251328518518,0,0.0,1.5576500266964956e-10,0.0,0.0,0.0
BLUE MOUNT RUBBERS,"44 C1 I.D PLOT, P.O, Poovanthuruthu, KOTTAYAM, Kerala 686012, India",Kerala,686012,0,0,0,0,0,0,0,78166,123730,Kottayam,Kottayam,9.54856711111111,76.52230786666667,0,123729.99999999904,123729.99999999968,123729.99999999958,123729.9999999984,123729.99999999956
ERNAKULAM ENGINEERS,"Ernakulam, Kerala, India",Kerala,686012,0,0,0,0,0,0,0,740,290,Kottayam,Kottayam,9.54856711111111,76.52230786666667,0,289.99999999883653,289.99999999950603,289.99999999917725,289.99999999776696,289.99999999946056
JOHNS TRADERS LLP,"Unnamed Road, Kerala 686104, India",Kerala,686104,0,0,0,0,0,0,0,5146,0,Changanacherry,Kottayam,9.458240202083331,76.55193638958333,0,0.0,9.012835550953119e-11,0.0,0.0,0.0
PERUMCHERIL RUBBERS,"DC Road, Poovanthuruthu, Kerala 686012, India",Kerala,686012,0,0,0,0,0,0,0,11730,0,Kottayam,Kottayam,9.54856711111111,76.52230786666667,0,0.0,9.373236512736044e-11,0.0,0.0,0.0
PLANTONORGANIC,"Mini Industrial Estate, Manarcadu, Kerala 686019, India",Kerala,686019,0,0,0,0,0,0,0,27284,0,Kottayam,Kottayam,9.592533289090907,76.58230555090908,0,0.0,1.0224645467713503e-10,0.0,0.0,0.0
RICHU GARMENTS,"VG6C+J4P, Illikkamukkada, Kerala 686610, India",Kerala,686610,0,0,0,0,0,0,0,273,0,Vaikom,Kottayam,9.827377122222222,76.49235217777778,0,0.0,8.746092858552119e-11,0.0,0.0,0.0
TAKE OFF SPORTS,"Pala - Marangattupilly - Kozha Road, [no name], Vellappadu, Pala, Kerala 686575, India",Kerala,686575,0,0,0,0,0,0,0,54,0,Meenachil,Kottayam,9.719589849206349,76.68607506666666,0,0.0,8.734105037982485e-11,0.0,0.0,0.0
VINGINISSERY SERVICE,"Venginissery, Paralam, Kerala, India",Kerala,686012,0,0,0,0,0,0,0,5304,0,Kottayam,Kottayam,9.5485678,76.52231162222222,0,0.0,9.021484298213404e-11,0.0,0.0,0.0
AGASTHYA AYURVEDIC HOSPITAL,"HQ82+425, Ponkunnam, Kerala 686506, India",Kerala,686506,0,0,0,0,0,0,0,0,11455,Kanjirapally,Kottayam,9.550696192125985,76.70441742047244,0,11454.999999998854,11454.999999999516,11454.999999999209,11454.99999999782,11454.999999999474
CAPITEVO TRADING LLP,"12 /347 C, Chempu, Maravanthuruthu, Kerala 686608, India",Kerala,686608,0,0,0,0,0,0,0,0,1725,Vaikom,Kottayam,9.80238914861111,76.40246834027778,0,1724.9999999988386,1724.9999999995068,1724.999999999181,1724.9999999977738,1724.9999999994625
DELTA RUBBER FACTORY,"Paika Pinnakkanadu Road, Mallikassery, Kerala 686577, India",Kerala,686577,0,0,0,0,0,0,0,0,26000,Meenachil,Kottayam,9.640891316,76.737008176,0,25999.99999999888,25999.99999999953,25999.99999999925,25999.999999997894,25999.99999999949
EMAD EXPORTS,"21/ 433-A, First Floor, Aruvithura Crossway Road, Muhiyadheen, Ninar Juma Masjid, Complex, Causeway Junction, Thekkekara, Erattupetta, Kerala 686122, India",Kerala,686122,0,0,0,0,0,0,0,0,2148,Meenachil,Kottayam,9.686214525,76.777240075,0,2147.999999998839,2147.999999999507,2147.9999999991824,2147.999999997776,2147.999999999463
HI CARE GLOVES,"Ayyankanal Road Marangattupilly P.O, Elackad, Kerala 686635, India",Kerala,686635,0,0,0,0,0,0,0,0,14621,Meenachil,Kottayam,9.750672510714285,76.62233675714285,0,14620.999999998858,14620.999999999518,14620.999999999218,14620.999999997835,14620.99999999948
J.K.TRADING INTERNATIONAL,"Vadavathoor, Kerala 686010, India",Kerala,686010,0,0,0,0,0,0,0,0,1362,Kottayam,Kottayam,9.590680228,76.56449500800001,0,1361.999999998838,1361.9999999995066,1361.99999999918,1361.999999997772,1361.9999999994625
KERAL DHARA,"Kerala, India",Kerala,686012,0,0,0,0,0,0,0,0,4676,Kottayam,Kottayam,9.5485678,76.52231162222222,0,4675.999999998843,4675.99999999951,4675.99999999919,4675.999999997788,4675.999999999465
KUMARAKAM LAKE,"Kumarakom, Kerala, India",Kerala,686012,0,0,0,0,0,0,0,0,210,Kottayam,Kottayam,9.5485678,76.52231162222222,0,209.99999999883616,209.99999999950543,209.9999999991767,209.9999999977664,209.99999999946087
KUMARAKOM TREASURE,"Kumarakom, Kerala, India",Kerala,686012,0,0,0,0,0,0,0,0,1215,Kottayam,Kottayam,9.5485678,76.52231162222222,0,1214.9999999988377,1214.9999999995064,1214.9999999991794,1214.9999999977713,1214.999999999462
PLEASANT COFFEE WORKS,"MQMH+H43, Aruvithura, Erattupetta, Kerala 686122, India",Kerala,686122,0,0,0,0,0,0,0,0,19200,Meenachil,Kottayam,9.686214525,76.777240075,0,19199.999999998865,19199.999999999523,19199.999999999232,19199.999999997857,19199.99999999948
RADX FASHION,"PGQ8+XRM, Kuruppanthara, Kerala 686603, India",Kerala,686603,0,0,0,0,0,0,0,0,876,Vaikom,Kottayam,9.73685573,76.51328257200001,0,875.9999999988372,875.999999999506,875.9999999991786,875.9999999977697,875.9999999994617
SANTHOM ON LINE,"Santhome, Chennai, Tamil Nadu, India",Tamil Nadu,686012,0,0,0,0,0,0,0,0,2390,Kottayam,Kottayam,9.5485678,76.52231162222222,0,2389.9999999988395,2389.9999999995075,2389.999999999183,2389.999999997777,2389.999999999463
TRAVANCORE TRADES AND SERVICES,"FGP9+XXM, Thuruthy, Kerala 686535, India",Kerala,686535,0,0,0,0,0,0,0,0,4782,Changanassery,Kottayam,9.479609457894735,76.52609346315789,0,4781.999999998843,4781.99999999951,4781.999999999191,4781.999999997789,4781.999999999465
V. PUBLISHERS,"V Publishers, Sreenivasa Iyer Rd, Puthiya Thrikovil Residents Association, Kottayam, Kerala 686001, India",Kerala,686001,0,0,0,0,0,0,0,0,795,Kottayam,Kottayam,9.590939220930233,76.52573586744185,0,794.9999999988371,794.999999999506,794.9999999991784,794.9999999977692,794.9999999994615
WAYANAD ORGANIC RESEARCH P LTD,"Wayanad, Kerala, India",Kerala,686012,0,0,0,0,0,0,0,0,401,Kottayam,Kottayam,9.54856711111111,76.52230786666667,0,400.9999999988365,400.9999999995056,400.9999999991772,400.9999999977673,400.9999999994611
