Exporter Name,Address,State,pin,2015,2016,2017,2018,2019,2020,2021,2022,2023,Taluk,District,Latitude,Longitude,Cluster,2024,2025,2026,2027,2028
ABAD FISHERIES,"Kochangadi, Chullickal, Kochi, Kerala 682002, India",Kerala,682002,5109702,5314820,5244604,6075897,6054924,3769618,4065985,4882866,5722081,Kochi,Ernakulam,9.957255233,76.25402237,0,5722081,5722081,5722081,5722081,5722081
ABM MARINE PRODUCTS,"19/2084-E, Nambiapuram Rd, Palluruthy, Kochi, Kerala 682006, India",Kerala,682006,461980,352496,549490,1256905,1789051,1459668,2476123,2617996,2059244,Kochi,Ernakulam,9.917652552,76.27326456,0,2059244,2059244,2059244,2059244,2059244
ACTIVE CHAR PRODUCTS P.LTD.,"Binanipuram, Edayar, Kochi, Kerala 683502, India",Kerala,683502,2458952,2065846,1618043,1164078,2760015,3556055,3526565,4538145,4504002,Paravur,Ernakulam,10.08769256,76.30506273,0,4504002,4504002,4504002,4504002,4504002
AGAPPE DIAGNOSTICS LTD.,"Agappe Hills, Pattimattom PO, Kochi, Kerala 683562, India",Kerala,683562,1185,8412,9937,20185,72695,107682,139982,92458,167822,Aluva,Ernakulam,10.03416477,76.42900358,0,167822,167822,167822,167822,167822
AKAY FLAVOURS & AROMATICS LTD.,"Akanadu, Mudakuzha P.O, Kurichilakodu, Akanad, Kochi, Vengoor West, Kerala 683546, India",Kerala,683546,1386051,1350224,1173974,1052759,1091409,746178,0,0,0,Kunnathunad,Ernakulam,10.1428569,76.52744881,0,3.90E-09,0,1.63E-09,3.61E-09,7.31E-10
ALAN TECH INDISTRIAL SOLUTIONS,"Mookkannoor Ezhattumugham Rd, Mookkannoor, Kerala 683577, India",Kerala,683577,29970,36866,4083,15260,23660,15818,9775,18465,34075,Aluva,Ernakulam,10.23616054,76.41592248,0,34075,34075,34075,34075,34075
ALBERTS ARTS COLLECTIONS,"X746+P3V, Jew Town Rd, Jew Town, Kappalandimukku, Mattancherry, Kochi, Kerala 682002, India",Kerala,682002,75,300,90,0,100,0,0,0,0,Kochi,Ernakulam,9.957255233,76.25402237,0,0,8.74E-11,0,0,0
ALLEPPEY BALERS P.LTD.,"Alappuzha, Kerala, India",Kerala,682002,5312,0,0,0,27758,0,0,0,0,Kochi,Ernakulam,9.957255233,76.25402237,0,0,5.77E-11,0,0,0
ANASWARA OFFSET P.LTD,"Edappally Raghavan Pillai Road, Junction, Perandoor, Elamakkara, Kochi, Kerala 682026, India",Kerala,682026,5240,1787,3065,1023,6944,5589,2133,124,8580,Ernakulam,Ernakulam,10.01621267,76.28882021,0,8580,8580,8580,8580,8580
ANJIPARAMBIL ASSOCIATES,"Parambithara Rd, Panampilly Nagar, Kochi, Kerala 682036, India",Kerala,682036,844,0,0,0,0,0,0,0,0,Ernakulam,Ernakulam,9.959980296,76.29498357,0,0,8.65E-11,0,0,0
AQUA SEAFOOD(INDIA)P.LTD.,"22/1177, Aroor - Thoppumpady Rd, N.H. 47, Edakochi, Kochi, Kerala 682010, India",Kerala,682010,1648460,1512526,110000,0,0,28000,0,67159,26000,Kochi,Ernakulam,9.9107678,76.29057866,0,26000,26000,26000,26000,26000
ARANI EXPORTS,"Arani, Tamil Nadu, India",Tamil Nadu,682024,915,0,0,0,570,0,0,0,1394,Ernakulam,Ernakulam,10.01888763,76.3025345,0,1394,1394,1394,1394,1394
ASMA RUBBER PRODUCTS P. LTD.,"Plot No. 39-B, CSEZ, Kakkanad, Kochi, Kakkanad, Kerala 682037, India",Kerala,682037,3425,0,24994,45713,128215,243965,280246,393150,346467,Ernakulam,Ernakulam,9.997384706,76.34072476,0,346467,346467,346467,346467,346467
ASWIN ASSOCIATES,"XIII/831, Vikas Rd, Karuvelipady, Thoppumpady, Kochi, Kerala 682005, India",Kerala,682005,544968,926562,1789010,2492715,1925280,1535311,2346347,2176675,1451891,Kochi,Ernakulam,9.940253061,76.25960161,0,1451891,1451891,1451891,1451891,1451891
AYUR PANCHAKARMA EQUIPMENTS,"Velichappat, 3/217 B, Poickattussery, Chengamanad PO Ernakulam District Nedumbassery kurumaseri Road 589P+397, Aluva - Mala Rd, Kerala 683578, Aluva, Kerala 683585, India",Kerala,683578,1870,755,0,550,2460,500,5454,0,0,Paravur,Ernakulam,10.15519784,76.30713588,0,0,7.62E-11,0,0,0
BABY MARINE INTERNATIONAL,"Thoppumpady, W7M8+59J, Thoppumpady, Kochi, Kerala 682005, India",Kerala,682005,1327811,1285102,1793083,1438568,867302,579247,436163,384500,1422596,Kochi,Ernakulam,9.940253061,76.25960161,0,1422596,1422596,1422596,1422596,1422596
BAFNA ENTERPRISES,"V798+RQR, puthenthode, Kannamaly, Kochi, Kerala 682008, India",Kerala,682008,2015672,1150357,1137553,624548,1190291,1361656,1774016,1375171,1138612,Kochi,Ernakulam,9.869597658,76.26596289,0,1138612,1138612,1138612,1138612,1138612
BAKKHUS MERLOT INDUSTRIES,"D-47&48, Municipal Shopping Complex, AM Rd, Perumbavoor, Kerala 683542, India",Kerala,683542,20300,0,0,0,0,0,0,0,0,Kunnathunad,Ernakulam,10.11493741,76.47808056,0,0,6.77E-11,0,0,0
BASCO FOODS (INDIA )PVT. LTD ,"29Q2+WHJ, Edappally - Pukkattupady Rd, Kollamkudimugal, Kangarappady, Kochi, Kerala 682021, India",Kerala,682021,175252,242810,306980,92699,123910,114447,89410,244400,41550,Ernakulam,Ernakulam,10.02923377,76.33530454,0,41550,41550,41550,41550,41550
BASH-P INTERNATIONAL,"2947+MW7, Infopark Campus, Infopark, Kakkanad, Kerala 682030, India",Kerala,682030,56259,55934,0,0,16337,0,0,16064,30329,Ernakulam,Ernakulam,10.01507889,76.34669742,0,30329,30329,30329,30329,30329
BELL FOODS,"Pallichal Rd, Valummel, Kochi, Kerala 682005, India",Kerala,682005,1051564,2527796,2419963,2496982,793479,614300,1164049,1270138,1186474,Kochi,Ernakulam,9.940253061,76.25960161,0,1186474,1186474,1186474,1186474,1186474
BISMI TRADING COMPANY,"EEC Market, Market P.O, Vazhappily, Muvattupuzha, Kerala 686673, India",Kerala,686673,1117994,747151,341385,174100,142352,269231,402661,1435275,2254230,Muvattupuzha,Ernakulam,9.985828574,76.58100003,0,2254230,2254230,2254230,2254230,2254230
BLASTLINE  INDIA,"48/2510D4, 2nd Floor, Blastline Corporate Chamber,Pottakuzhi Elamakkakara (PO, Perandoor Rd, Mamangalam, Kaloor, Ernakulam, Kochi, Kerala 682026, India",Kerala,682026,41117,72252,102370,91046,85858,56970,97175,112473,148588,Ernakulam,Ernakulam,10.01621267,76.28882021,0,148588,148588,148588,148588,148588
BLUEMOUNTAIN EXPORTERS,"14/486, East, Pandikudy, Chullickal, Kochi, Kerala 682001, India",Kerala,682001,25219,22563,9274,14074,25750,20622,22977,0,0,Kochi,Ernakulam,9.961975513,76.24336774,0,0,0,0,0,0
CARRIS PIPES,"P.B. No.2, Koovappady P.O, Akanad, Kerala 683544, India",Kerala,683544,5188,3600,2400,2500,15041,2280,0,880,3800,Kunnathunad,Ernakulam,10.16667257,76.50774668,0,3800,3800,3800,3800,3800
CATHOLIC ART CENTRE,"Broadway, Church St, Marine Drive, Ernakulam, Kochi, Kerala 682031, India",Kerala,682031,400,0,0,0,0,0,0,0,0,Ernakulam,Ernakulam,9.99692354,76.27468644,0,0,8.69E-11,0,0,0
CHEMMEENS (REGD),"Chemmeens Junction,Karuvekipady, Kochi-682005, Karuvelipady, Kazhuthumuttu, Thoppumpady, Kochi, Kerala 682005, India",Kerala,682005,219608,185660,118000,0,0,0,0,0,0,Kochi,Ernakulam,9.940253061,76.25960161,0,0,1.73E-10,0,0,2.60E-11
CII GUARDIAN INTERNATIONAL LTD.,"16B, CSEZ, Kakkanad, Kerala 682037, India",Kerala,682037,171,0,0,0,0,0,0,0,0,Ernakulam,Ernakulam,9.997384706,76.34072476,0,0,8.71E-11,0,0,0
CLAIRON FILTERS,"Plot. No.41, 37, CSEZ, Kakkanad, Kochi, Kakkanad, Kerala 682037, India",Kerala,682037,65762,56866,108746,197692,205880,154556,212749,128149,90882,Ernakulam,Ernakulam,9.997384706,76.34072476,0,90882,90882,90882,90882,90882
COCHIN CADALAS P.LTD.,"Kochi, Kerala, India",Kerala,682024,11000,0,0,0,0,0,0,0,0,Ernakulam,Ernakulam,10.01888763,76.3025345,0,0,7.67E-11,0,0,0
COCHIN CONDIMENTS P.LTD.,"Kochi, Kerala, India",Kerala,682002,10892,0,0,0,0,0,0,0,0,Kochi,Ernakulam,9.957255233,76.25402237,0,0,7.68E-11,0,0,0
COCHIN DIES AND MOULDS,"Kochi, Kerala, India",Kerala,682002,11855,0,0,0,0,0,0,0,0,Kochi,Ernakulam,9.957255233,76.25402237,0,0,7.58E-11,0,0,0
COCHIN EXPORTS,"Federal Park, Vennala, Ernakulam, Kochi, Kerala 682028, India",Kerala,682028,11561,0,0,0,165,0,4501,5545,9218,Ernakulam,Ernakulam,9.99670085,76.32102778,0,9218,9218,9218,9218,9218
COCHIN EXPORTS  ,"Federal Park, Vennala, Ernakulam, Kochi, Kerala 682028, India",Kerala,682028,2469,0,0,0,0,0,0,0,0,Ernakulam,Ernakulam,9.99670085,76.32102778,0,0,8.49E-11,0,0,0
COCHIN MINERALS AND RUTILE LTD.,"Poorna Nagar Park,, 4952+GWW, Periyar Nagar, Aluva, Kerala 683101, India",Kerala,683101,42222680,41453954,43104694,37195286,41561818,42376693,36377472,42237733,32178282,Aluva,Ernakulam,10.09568078,76.36233782,0,32178282,32178282,32178282,32178282,32178282
COCHIN RECLAIM & RUBBER,"Kochi, Kerala, India",Kerala,682002,60000,57620,0,0,0,0,0,0,0,Kochi,Ernakulam,9.957255233,76.25402237,0,0,2.28E-11,0,0,1.46E-11
COCHIN RUBBER INDUSTRIES,"Kochi, Kerala, India",Kerala,682002,41466,38699,0,0,55744,0,0,125560,22502,Kochi,Ernakulam,9.957255233,76.25402237,0,22502,22502,22502,22502,22502
COCHIN SURFACTANTS P.LTD.,"PLOT no 63, Edayar, Kerala 683502, India",Kerala,683502,271800,265772,924712,818520,0,0,0,0,0,Paravur,Ernakulam,10.08769256,76.30506273,0,2.77E-09,1.83E-09,0,0,0
COCHIN TRADERS COCHIN,"20/46B, Near I.O.C Petrol Pump, Palluruthy Veli, Aroor - Thoppumpady Rd, Palluruthy, Kochi, Kerala 682006, India",Kerala,682006,64699,8000,8000,9000,45690,0,9072,0,0,Kochi,Ernakulam,9.917652552,76.27326456,0,0,0,0,0,0
COIMBATORE POTTERIES & REFRACTORIES,"Coimbatore, Tamil Nadu, India",Tamil Nadu,682024,77520,158245,99390,138945,144470,285928,262443,101606,137480,Ernakulam,Ernakulam,10.01888763,76.3025345,0,137480,137480,137480,137480,137480
COONOOR TEA ESTATES CO. LTD.,"Coonoor, Tamil Nadu, India",Tamil Nadu,682002,514266,507220,880344,126280,0,0,0,0,0,Kochi,Ernakulam,9.957255233,76.25402237,0,1.69E-09,2.47E-09,1.87E-09,0,0
COVEMA FILAMENTS LTD.,"14-B, CSEZ, Kakkanad, Kerala 682037, India",Kerala,682037,26463,16475,13328,18765,10894,30676,30586,0,0,Ernakulam,Ernakulam,9.997466838,76.34100994,0,0,0,0,0,0
CRAFT INDIA FOOTWEAR CALICUT,"Kozhikode, Kerala, India",Kerala,682024,3279,2852,0,6997,15458,0,0,6060,12439,Ernakulam,Ernakulam,10.01888763,76.3025345,0,12439,12439,12439,12439,12439
CRESCENT INTERNATIONAL TYRE TREADS,"9/22 HA IDA, Nalam Mile, ALUVA, Kerala 683112, India",Kerala,683112,4043,16713,0,0,12206,38434,11902,56260,15000,Kunnathunad,Ernakulam,10.08974094,76.39621829,0,15000,15000,15000,15000,15000
CROSSINGS INTERNATIONAL DISTRIBUTION,"682037, CSEZ, Kochi, Kakkanad, Kerala 682037, India",Kerala,682037,11290,25199,14925,36061,34054,24295,16140,9568,1143,Ernakulam,Ernakulam,9.997466838,76.34100994,0,1143,1143,1143,1143,1143
DEEPA AGENCIES,"39/1384 Four Star Buildings Chittoor Road Valanjambalam, Ernakulam South, Kochi, Kerala 682016, India",Kerala,682016,1479,1425,3353,14860,3074,8750,4154,0,11957,Ernakulam,Ernakulam,9.965396735,76.28713605,0,11957,11957,11957,11957,11957
DELSEA EXPORTS P.LTD.,"Nambiapuram, Palluruthy, Kochi, Kerala 682006, India",Kerala,682006,524217,405226,509137,512450,157724,0,258296,927125,1638148,Kochi,Ernakulam,9.917652552,76.27326456,0,1638148,1638148,1638148,1638148,1638148
DELTA PLYWOODS AND BOARDS,"Iringole Rd, PO, Perumbavoor, Kerala 683548, India",Kerala,683548,138000,168300,322200,89700,0,0,625160,3717350,745350,Perumbavoor,Ernakulam,10.1143171,76.49678308,0,745350,745350,745350,745350,745350
DYNAMIC TECHNO MEDICALS PVT. LTD.,"Kodikuthimala, Ashokapuram, Edathala, Aluva, Kerala 683101, India",Kerala,683101,253694,156720,181943,253151,270034,238205,297257,298590,398062,Aluva,Ernakulam,10.09568078,76.36233782,0,398062,398062,398062,398062,398062
EGATE INTERNATIONAL,"Lane 1, VRWA, near State Bank of India, Vyttila, Ernakulam, Kochi, Kerala 682019, India",Kerala,682019,305,0,0,0,0,0,0,0,0,Ernakulam,Ernakulam,9.96996996,76.31541059,0,0,8.70E-11,0,0,0
ENGINEERED  ELASTOMER SOLUTIONS CO.,"SDF 16A, IVth Floor, CSEZ, Kakkanad, Kochi, Kakkanad, Kerala 682037, India",Kerala,682037,19202,27920,45004,43823,20401,23206,56187,51285,16078,Ernakulam,Ernakulam,9.997466838,76.34100994,0,16078,16078,16078,16078,16078
ESCON CHEMICAL COMPANY,"423 A South vellarapilly, po, Kochi, Thekkumbhagom, Kerala 683580, India",Kerala,683580,7150,6850,0,0,0,0,0,0,0,Aluva,Ernakulam,10.13932176,76.40794164,0,0,7.96E-11,0,0,0
EVEREST WOOD INDUSTRIES,"Xix/318 Kanjirakkadu, Rayonpuram P.O, Perumbavoor Kochi- 683543, Kerala, Ernakulam, Perumbavoor, Kerala 683543, India",Kerala,683543,209148,1969098,2345382,891400,459250,182542,177286,514000,2318325,Kunnathunad,Ernakulam,10.12285941,76.48358803,0,2318325,2318325,2318325,2318325,2318325
EVERGREEN EXPORTS,"Willingdon Island, Kochi, Kerala 682003, India",Kerala,682003,380800,1116785,2735846,1901060,3155069,2089040,4144846,5595181,1209471,Kochi,Ernakulam,9.960447846,76.27093469,0,1209471,1209471,1209471,1209471,1209471
EXCEL LEATHERS,"Near KSEB, 68/1637A, Mariakutty John Rd, near Power House Road, Power House Junction, Kacheripady, Kochi, Kerala 682018, India",Kerala,682018,673,937,0,0,0,0,0,0,0,Ernakulam,Ernakulam,9.991596464,76.28133009,0,0,8.66E-11,0,0,0
F.G.TRADING COMPANY,"Room No:40/5476, First Floor,Ruquia Chamber, TD Rd, Padma Junction, Pullepady, Kochi, Kerala 682035, India",Kerala,682035,2100,0,0,0,0,0,0,0,0,Ernakulam,Ernakulam,9.979283159,76.28271734,0,0,8.53E-11,0,0,0
FAVOUR-ITA INTERNATIONAL,"Door No. XI/408, NH-66, Cheriakadavu, Kannamaly, Cheriakadavu, Kannamaly, Kochi, Kerala 682008, India",Kerala,682008,58345,36025,50676,68447,123635,187772,107659,64693,59190,Kochi,Ernakulam,9.869597658,76.26596289,0,59190,59190,59190,59190,59190
FCI OEN CONNECTORS LTD.,"29/2089 State Highway 15 Tripunithura, Road, Thykoodam, Vyttila, Kochi, Kerala 682019, India",Kerala,682019,200782,323444,242920,289828,224462,484592,1046776,892011,494142,Ernakulam,Ernakulam,9.96996996,76.31541059,0,494142,494142,494142,494142,494142
FILTROWIN INDUSTRIES,"1150c, Subhash Chandra Bose Rd, Jawahar Nagar, Elamkulam, Kochi, Kerala 682020, India",Kerala,682020,472618,658630,624573,837696,838857,622638,792204,780444,739328,Ernakulam,Ernakulam,9.968617363,76.30114695,0,739328,739328,739328,739328,739328
FINE ART EMPORIUM,"6/140, Synagogue Ln, Jew Town, Kappalandimukku, Mattancherry, Kochi, Kerala 682002, India",Kerala,682002,48,0,0,0,0,225,0,0,0,Kochi,Ernakulam,9.957255233,76.25402237,0,0,8.71E-11,0,0,0
FIVE STAR OFFSET PRINTERS,"Press Kottadayil Building, Near North,, Lakeshore Hospital, Nettoor, Maradu, Kochi, Kerala 682040, India",Kerala,682040,925,950,1192,0,0,3000,0,0,0,Kanayannur,Ernakulam,9.923889512,76.31571828,0,0,8.71E-11,0,0,0
GEO SEAFOODS,"Pallichal Road, Valummel, Pallichal, Kochi, Kerala 682005, India",Kerala,682005,4423302,2951520,3717165,4108617,3337145,3093427,3093498,3323084,2923359,Kochi,Ernakulam,9.940253061,76.25960161,0,2923359,2923359,2923359,2923359,2923359
GLOBAL EXPORTERS,"2nd Floor,307/C6,KSIE Building Cochin InternationalContainer Freight Staton, Old Anavathil Jn ICTT Road, P.O, Udyogamandal, Kalamassery, Kochi, Kerala 683501, India",Kerala,683501,1188834,1496717,1106699,1132793,1400630,1781684,2283208,1598362,2379745,Ernakulam,Ernakulam,10.06539608,76.305478,0,2379745,2379745,2379745,2379745,2379745
GLOBEX GLOVES,"3F3J+62X, Vengola, Kerala 683556, India",Kerala,683556,5512,0,0,0,0,0,0,0,0,Kunnathunad,Ernakulam,10.08312596,76.47373216,0,0,8.20E-11,0,0,0
GOOD EARTH ORGANIC,"5CFP+MQ4, Enchackal Kavala, Kalady, Kerala 683574, India",Kerala,683574,49600,71150,143500,266012,124144,165696,183617,130362,96000,Aluva,Ernakulam,10.18281716,76.45845345,0,96000,96000,96000,96000,96000
GRANDMAS FOOD PRODUCTS,"Peringuzha, XJ52+MH5, Perumpalloor P.O., Peringuzha, Ernakulam, Muvattupuzha, Kerala 686673, India",Kerala,686673,818592,773251,1014785,850994,944196,1323558,806152,719376,1238894,Muvattupuzha,Ernakulam,9.985828574,76.58100003,0,1238894,1238894,1238894,1238894,1238894
GREEN METHOD ENGINEERING P.LTD.,"ATC Building, Moolepadam Nagar Road HMT Junction, Kalamassery, HMT Junction, Moolepadam Nagar, South Kalamassery, Kalamassery, Kochi, Kerala 683104, India",Kerala,683104,13750,3400,10295,7000,3900,2500,0,7750,1250,Kanayannur,Ernakulam,10.05754296,76.31917809,0,1250,1250,1250,1250,1250
GREEN VALLEY CONDIMENTS,"Aluva - Mala Rd, Ayroor, Attupuram, Kerala 683579, India",Kerala,683579,32590,0,0,11857,6854,17524,30094,109227,45093,Paravur,Ernakulam,10.18044539,76.31635012,0,45093,45093,45093,45093,45093
GREEN WORLD COIR EXPORTS,"1/335, Rose St, Fort Nagar, Fort Kochi, Kochi, Kerala 682001, India",Kerala,682001,1402100,1718000,988000,675330,676000,338000,259000,182000,0,Kochi,Ernakulam,9.961975513,76.24336774,0,1.27E-09,0,2.44E-09,2.93E-09,7.87E-10
GREENLEAF EXTRACTIONS PVT LTD,"Plot No: 15, KINFRA HI-TECH Park, Opp Co-operative Medical College, P.O, HMT Colony, North Kalamassery, Kalamassery, Kochi, Kerala 683503, India",Kerala,683503,73243,129849,145582,187943,235841,271274,248924,201267,319738,Kanayannur,Ernakulam,10.05828796,76.33715315,0,319738,319738,319738,319738,319738
HANDICRAFTS DEVE. CORPN. OF KERALA LTD.,"Kerala, India",Kerala,682002,255,107,90,343,450,411,0,0,355,Kochi,Ernakulam,9.957255233,76.25402237,0,355,355,355,355,355
HERBAL ISOLATES P. LTD.,"XCVM+QPG, Aikaranad North, Kerala 682310, India",Kerala,682310,1362951,1440981,1693404,1331492,1435757,1467381,1663826,1537188,1815017,Kunnathunad,Ernakulam,9.98790642,76.43015296,0,1815017,1815017,1815017,1815017,1815017
HOLMARC OPTO-MECHATRONICS PVT LTD,"B.7, HMT Rd, Industrial Estate, P.O, Kalamassery, Kochi, Kerala 683503, India",Kerala,683503,2808,3167,1348,3043,1140,0,3167,2732,2388,Kanayannur,Ernakulam,10.05828796,76.33715315,0,2388,2388,2388,2388,2388
INDIAN MARINE INDUSTRIES,"W779+J78, Nambiapuram Rd, Palluruthy, Kochi, Kerala 682006, India",Kerala,682006,6308500,6123040,7013052,9421110,4616990,2889470,3339626,2137854,3617350,Kochi,Ernakulam,9.917652552,76.27326456,0,3617350,3617350,3617350,3617350,3617350
INFRA ELEVATORS INDIA,"35/2265A, Infra House, BC Lane, Church Rd, Pallinada, Palarivattom, Kochi, Kerala 682025, India",Kerala,682025,13068,4853,4328,3842,215,500,1406,6399,4842,Ernakulam,Ernakulam,10.00037267,76.30783643,0,4842,4842,4842,4842,4842
INNO MOTION TECHNOLOGIES,"XVI/235, Choornikkara, Aluva, Kerala 683106, India",Kerala,683106,63308,56866,7702,16212,62461,87984,52318,96517,83799,Aluva,Ernakulam,10.08034449,76.34267442,0,83799,83799,83799,83799,83799
INTERCON WOOD INDUSTRIES,"Kanjirakkad, Perumbavoor, Kerala 683543, India",Kerala,683543,2887719,1544696,169110,0,0,0,0,481500,159500,Kunnathunad,Ernakulam,10.12285941,76.48358803,0,159500,159500,159500,159500,159500
K.K.R.AGRO MILLS P.LTD.,"10°08'13. 76°27'43.0""E, 3rd Cross Road, Vallom, Ezhattumugham, Chelamattom part, Kerala 683550, India",Kerala,683550,8635429,9888431,9083661,9597018,6839727,6335090,4600863,883185,888760,Kunnathunad,Ernakulam,10.1564586,76.44930727,0,888760,888760,888760,888760,888760
K.K.R.FOOD PRODUCTS,"5F22+6XR, opposite Reliance Petrol Pump, P.O, Okkal, Kalady, Ernakulam, Kerala 683550, India",Kerala,683550,564102,180933,0,69465,12900,0,0,0,0,Kunnathunad,Ernakulam,10.1564586,76.44930727,0,0,0,0,0,2.44E-10
KAIRALI GRANITES,"National Highway Bye Pass, Kannadi Kadu Service Rd, Adjacent to Hotel Wyte Fort, Jaya Nagar, Maradu, Kochi, Kerala 682304, India",Kerala,682304,91500,0,0,0,0,0,3512,0,0,Ernakulam,Ernakulam,9.938877707,76.32558968,0,0,0,0,0,0
KAISONS RUBBERS,"Kaipattoor, Mekalady, Kalady, Kerala 683574, India",Kerala,683574,2704046,3363651,2995149,2383377,2781048,2310279,3388887,2560743,2956370,Aluva,Ernakulam,10.18281716,76.45845345,0,2956370,2956370,2956370,2956370,2956370
KALATHIL EXPORTS&IMPORTS,"Door No. 39/1607, Maria Complex, Kannamthottathil Road, Valanjambalam, Eroor Rd, Kappattikavu, Eroor North, Eroor, Kochi, Kerala 682306, India",Kerala,682306,77705,0,0,0,0,0,0,0,0,Ernakulam,Ernakulam,9.968037123,76.33532464,0,0,1.21E-11,0,0,0
KAY CEE CORPORATION,"Basin Rd, Marine Drive, Ernakulam, Kochi, Kerala 682031, India",Kerala,682031,26000,0,0,0,0,0,5375,0,2649,Ernakulam,Ernakulam,9.99692354,76.27468644,0,2649,2649,2649,2649,2649
KAY KAY EXPORTS,"Chanthapallam, Cheriakadavu, Kannamaly, Kochi, Kerala 682008, India",Kerala,682008,1215732,954829,684578,1238760,1630071,1042113,1758820,1509776,1149296,Kochi,Ernakulam,9.869597658,76.26596289,0,1149296,1149296,1149296,1149296,1149296
KERALA CERAMICS LTD.,"Kerala, India",Kerala,682002,2000,0,0,0,0,0,0,0,0,Kochi,Ernakulam,9.957255233,76.25402237,0,0,8.54E-11,0,0,0
KERALA STATE CASHEW WORKERS APEX INDSTL.,"Kerala, India",Kerala,682002,229380,368772,165876,28874,32250,0,0,0,0,Kochi,Ernakulam,9.957255233,76.25402237,0,0,1.79E-10,2.97E-11,0,2.17E-10
KERALA SURGICAL EQUIPMENTS CO.,"28X9+FFJ, Salem-Ernakulam Highway, South Kalamassery, Kalamassery, Kochi, Kerala 682039, India",Kerala,682039,469,0,409,0,0,0,0,0,0,Ernakulam,Ernakulam,10.00464667,76.34727148,0,0,8.80E-11,0,0,0
KERALA VILLAGE CRAFTS,"Kerala, India",Kerala,682002,120,150,440,100,565,0,307,0,0,Kochi,Ernakulam,9.957255233,76.25402237,0,0,8.73E-11,0,0,0
KOCHI KICHEN EXPORTS,"ARWA-B-29, Vishwam Nagar, Palluruthy, Kochi, Kerala 682006, India",Kerala,682006,41307,8382,0,0,0,0,0,0,91745,Kochi,Ernakulam,9.917652552,76.27326456,0,91745,91745,91745,91745,91745
KODANDARAM ROLLER FLOUR MILLS PVT,"59M9+8X8, Angamaly South, Angamaly, Kerala 683573, India",Kerala,683573,366000,2131698,2208189,2501141,2982175,2086153,852645,0,0,Aluva,Ernakulam,10.18025557,76.38579883,0,1.05E-08,0,1.65E-09,1.10E-08,1.84E-09
KOHINOOR FLOORS P.LTD.,"No. 1/511-A, 47, Old NH17, Kundannoor, Maradu, Ernakulam, Kochi, Kerala 682304, India",Kerala,682304,1010,0,0,0,0,0,0,0,0,Ernakulam,Ernakulam,9.938877707,76.32558968,0,0,8.63E-11,0,0,0
KOTTACKAL AGRO FOODS,"mookkannoor, Angamaly, Mookkannoor, Kerala 683577, India",Kerala,683577,4200917,4479461,4863723,4750427,5183795,7112575,5603533,6150552,6254142,Aluva,Ernakulam,10.23616054,76.41592248,0,6254142,6254142,6254142,6254142,6254142
KURUWA ENTERPRISES,"18/24, Thoppumpady, Kochi, Kerala 682005, India",Kerala,682005,197584,149027,216662,127029,127900,230349,543061,262511,343751,Kochi,Ernakulam,9.940253061,76.25960161,0,343751,343751,343751,343751,343751
KUTTUKARAN TRADING VENTURES,"2853+PHQ Kuttukaran Centre, Mamangalam - Anchumana Temple Rd, Sonia Nagar, Edappally, Kochi, Kerala 682025, India",Kerala,682025,1483,1262,0,0,0,0,0,0,0,Ernakulam,Ernakulam,10.00037267,76.30783643,0,0,8.57E-11,0,0,0
LAWRENCE HANDICRAFTS,"Synagogue Ln, Jew Town, Kappalandimukku, Mattancherry, Kochi, Kerala 682002, India",Kerala,682002,80,0,0,1000,0,0,0,0,220,Kochi,Ernakulam,9.957255233,76.25402237,0,220,220,220,220,220
LEETHA INDUSTRIES,"Industrial Estate, South Kalamassery, Kalamassery, Industrial Estate, South Kalamassery, Kalamassery, Kochi, Kerala 683104, India",Kerala,683104,727282,846077,1361733,1111449,1298902,493469,942586,1145643,462341,Kanayannur,Ernakulam,10.05754296,76.31917809,0,462341,462341,462341,462341,462341
LULU INTERNATIONAL SHOPPING MALL,"34/1000, Old NH 47, Edappally Junction, Nethaji Nagar, Edappally, Kochi, Kerala 682024, India",Kerala,682024,70940,32147,0,0,0,0,0,0,0,Ernakulam,Ernakulam,10.01888763,76.3025345,0,0,1.51E-11,0,0,0
M.S.TECH ENGINEERING INDUSTRIES,"Jaihind Nagar Rd, Meprathupady, Vengola, Kerala 683556, India",Kerala,683556,9080,1720,0,0,0,0,2351,0,0,Kunnathunad,Ernakulam,10.08312596,76.47373216,0,0,7.60E-11,0,0,0
M.V. JOSEPH & SONS,"Old Market Rd, Angamaly, Kerala 683572, India",Kerala,683572,545667,483971,177675,42055,13350,0,0,0,0,Paravur,Ernakulam,10.19338331,76.38335939,0,0,0,1.97E-10,0,3.65E-10
M.V.J. FOODS (INDIA) P. LTD.,"HB-07, Panampilly Nagar Ave, Main Avenue, Panampilly Nagar, Ernakulam, Kochi, Kerala 682036, India",Kerala,682036,262085,0,0,0,0,0,0,0,0,Ernakulam,Ernakulam,9.959980296,76.29498357,0,0,0,0,0,0
MALAYA RUB-TECH INDUSTRIES,"38J8+87Q, Edayar, Kerala 683502, India",Kerala,683502,231200,575987,954640,0,403200,1046640,0,21050,1391046,Paravur,Ernakulam,10.08769256,76.30506273,0,1391046,1391046,1391046,1391046,1391046
MALAYALAM EXPORTS,"South Vellarappilly P O, Aluva, Thekkumbhagom, Kerala 683580, India",Kerala,683580,92456,161657,195178,396619,606407,522340,713840,435310,478272,Aluva,Ernakulam,10.13932176,76.40794164,0,478272,478272,478272,478272,478272
MAMPILLY PLYWOOD INDUSTRIES,"Mudickal Perumbavoor, Ernakulam, Marampally, Kerala 683547, India",Kerala,683547,233080,828362,809549,1277658,3719765,4195315,9549247,13545083,11048802,Kunnathunad,Ernakulam,10.09107643,76.43058616,0,11048802,11048802,11048802,11048802,11048802
MATHEWSONS FOOD SPECIALITIES(P)LTD.,"B-32 KINFRA Industries Park, Nellad, Mazhuvannoor, Kerala 686669, India",Kerala,686669,478285,515889,607347,309455,508459,461226,472197,505783,663694,Kunnathunad,Ernakulam,10.00734095,76.52786276,0,663694,663694,663694,663694,663694
MAYITHARA HOME DECOR P.LTD.,"Mayithara, Cherthala, Kerala, India",Kerala,682002,1279644,1286486,1355916,1105605,962039,936035,1172740,699569,729533,Kochi,Ernakulam,9.957255233,76.25402237,0,729533,729533,729533,729533,729533
MEMADATHIL EXPORTERS ,"2M5F+H2J, pulinthanam east-cheempara-mavudy Rd, Pothanicad, Kerala 686671, India",Kerala,686671,29914,116263,77303,103596,141954,326226,177608,219445,289287,Kothamangalam,Ernakulam,10.0079791,76.69387781,0,289287,289287,289287,289287,289287
METAL LAND INDUSTRIES,"2C5X+758, Engineering College Road, Kadayirippu, Kerala 682311, India",Kerala,682311,38599,45326,63251,33566,37190,30860,24962,9200,6384,Kunnathunad,Ernakulam,9.986131801,76.47020598,0,6384,6384,6384,6384,6384
METRO PACKAGING,"KINFRA Rd, Nellad, Mazhuvannoor, Kerala 686669, India",Kerala,686669,513,0,0,0,0,0,0,0,0,Kunnathunad,Ernakulam,10.00734095,76.52786276,0,0,8.68E-11,0,0,0
MEZHUKATTIL MILLS,"Oil Mill Road, Behind S&S Supermarket, SH 16 Erumathala P O, Chunangamveli Aluva, Aramanakkunnu, Edathala, Kochi, Kerala 683112, India",Kerala,683112,48258,706718,331919,677943,976934,802426,739899,852507,975018,Kunnathunad,Ernakulam,10.08974094,76.39621829,0,975018,975018,975018,975018,975018
MOBIL AB GLUE WORLD,"ENKE Chambers, Gopala Prabhu Rd, Near MG Road, Shenoys, Kochi, Kerala 682035, India",Kerala,682035,116,0,0,0,0,0,0,0,0,Ernakulam,Ernakulam,9.979283159,76.28271734,0,0,8.72E-11,0,0,0
MONARCH AGENCIES,"Tristen tower, Market Rd, Kombara, Kacheripady, Kochi, Kerala 682018, India",Kerala,682018,12894,0,0,0,0,0,0,0,0,Ernakulam,Ernakulam,9.991596464,76.28133009,0,0,7.48E-11,0,0,0
MRT ORGANIC GREEN PRUDCTS,"Azizi Junction, MRT House, Social Welfare Technical School Rd, Aluva, Kerala 683101, India",Kerala,683101,29843,20749,12360,1971,3854,3238,1740,2278,3147,Aluva,Ernakulam,10.09568078,76.36233782,0,3147,3147,3147,3147,3147
NAMBIYATTUKUDY AGRO INDUSTRIES,"Koovappady, Koodalapad, Perumbavoor, Koovappady, Kerala 683544, India",Kerala,683544,605800,484526,537040,432000,69000,0,0,0,0,Kunnathunad,Ernakulam,10.16667257,76.50774668,0,6.03E-10,1.63E-10,1.41E-10,0,0
NAMBIYATTUKUDY MODERN RICE MILL,"Pavizham Building, Koovappady, Kerala 683544, India",Kerala,683544,121090,70750,159220,113200,21000,0,0,0,0,Kunnathunad,Ernakulam,10.16667257,76.50774668,0,0,1.18E-10,0,0,0
NAVAB P.A.,"40/4607C, Basin Rd, Market, Kochi, Kerala 682035, India",Kerala,682035,109690,13263,0,0,0,0,0,0,0,Ernakulam,Ernakulam,9.979283159,76.28271734,0,0,0,0,0,0
NAVEEN EXIM TRADE ASSOCIATES,"NAVEEN EXIM TRADE ASSOCIATES, 18/1082-D, Manayil, E.S.I ROAD, E.S.I. Rd, Palluruthy, Kochi, Kerala 682006, India",Kerala,682006,6072,0,0,0,0,0,0,0,0,Kochi,Ernakulam,9.917652552,76.27326456,0,0,8.14E-11,0,0,0
NEDSPICE PROCESSING INDIA PVT LTD,"12/597, Jawahar Rd, Koovapadam, Chullickal, Kochi, Kerala 682002, India",Kerala,682002,2587186,1958329,2733357,2667153,2908113,3173146,3056842,3055216,3052674,Kochi,Ernakulam,9.957255233,76.25402237,0,3052674,3052674,3052674,3052674,3052674
NEW CASTLE GALLERY,"CC 6/704, Bazaar Rd, Mattancherry, Kochi, Kerala 682002, India",Kerala,682002,240,290,1570,95,350,0,0,0,0,Kochi,Ernakulam,9.957255233,76.25402237,0,0,9.08E-11,0,0,0
NILAMEL EXPORTS,"Nilamel, Kerala, India",Kerala,682024,486571,371211,422895,386440,437290,453558,627190,387335,453293,Ernakulam,Ernakulam,10.01888763,76.3025345,0,453293,453293,453293,453293,453293
ORIENTAL ANTIQURITE TAPISH,"X745+PW4, Synagogue Ln, Jew Town, Kappalandimukku, Mattancherry, Kochi, Kerala 682002, India",Kerala,682002,50,0,0,0,0,0,0,0,0,Kochi,Ernakulam,9.957255233,76.25402237,0,0,8.73E-11,0,0,0
OVERSEAS TIMBERS,"29Q4+XG6, Kangarappady, Kochi, Kerala 682021, India",Kerala,682021,27941,79517,21251,89745,84330,121844,166318,58108,60060,Ernakulam,Ernakulam,10.02923377,76.33530454,0,60060,60060,60060,60060,60060
PARACKAL AGRO MILLS,"4CXG+Q99, Kanjoor, Kerala 683575, India",Kerala,683575,147140,49000,50000,97000,0,49000,0,72000,122200,Aluva,Ernakulam,10.13899475,76.43064242,0,122200,122200,122200,122200,122200
PARAVOOR ENGINEERS,"N.H 17, Peruvaram Rd, near KALLARAKKAL TEMPLE, North Paravur, Kerala 683513, India",Kerala,683513,1000,7181,0,0,0,0,200,320,6754,Paravur,Ernakulam,10.13428537,76.23096863,0,6754,6754,6754,6754,6754
PENTA MAS SERVICES LLP,"W9RF+FRJ, Thiruvankulam - Chottanikkara Rd, Thrippunithura, Thiruvankulam, Kochi, Kerala 682305, India",Kerala,682305,962,628,0,0,0,0,0,0,0,Kanayannur,Ernakulam,9.939008105,76.3708771,0,0,8.63E-11,0,0,0
PRASAN SOLUTIONS (INDIA)P.LTD.,"Kinfra Hi-Tech Park Main Rd, HMT Colony, North Kalamassery, HMT Kalamassery, Kochi, Kerala 683503, India",Kerala,683503,400,12339,0,0,0,0,112,382,0,Kanayannur,Ernakulam,10.05828796,76.33715315,0,0,8.57E-11,0,0,0
PRIMUS GLOVES P.LTD.,"Plot No. 14 A, Cochin Special Economic Zone, Kakkanad, Thrikkakara, Vazhakkala, Kochi, Kakkanad, Kerala 680037, India",Kerala,680037,383626,294687,279734,393581,387094,270718,336364,534680,406264,Kakkanad,Ernakulam,10.0227055,76.3406328,0,406264,406264,406264,406264,406264
PROFAND VAYALAT MARINE EXPORTS,"23/1804, Binny Rd, Vishwam Nagar, Palluruthy, Kochi, Kerala 682006, India",Kerala,682006,9303787,9992181,10554448,7148675,7058930,7474790,8600290,10819126,9718780,Kochi,Ernakulam,9.917652552,76.27326456,0,9718780,9718780,9718780,9718780,9718780
PYARY PRODUCTS,"X83H+P32, SH15, Chambakkara, Upasana Nagar, Vyttila, Kochi, Kerala 682304, India",Kerala,682304,1122985,1793551,1477714,1280539,1670333,2258010,2123543,2601689,3299330,Ernakulam,Ernakulam,9.938877707,76.32558968,0,3299330,3299330,3299330,3299330,3299330
RABITHA EXPORTS,"VI/35, Jew Town, Kappalandimukku, Mattancherry, Kochi, Kerala 682002, India",Kerala,682002,52594,22906,0,20130,3543,58675,105514,79683,35298,Kochi,Ernakulam,9.957255233,76.25402237,0,35298,35298,35298,35298,35298
RAMLA MATCH WORKS,"4F2Q+7GR, Vattakattupady, Perumbavoor, Kerala 683542, India",Kerala,683542,132998,0,0,0,0,0,0,0,0,Kunnathunad,Ernakulam,10.11493741,76.47808056,0,0,0,0,0,0
ROOSTER TRADERS,"39PM+XQ2, Sanjo Gardens, Kulakkad, Kerala 683112, India",Kerala,683112,901,0,0,0,0,266,0,1470,0,Kunnathunad,Ernakulam,10.08974094,76.39621829,0,0,8.70E-11,0,0,0
RUBEK BALLOONS P.LTD.,"Airapuram, Kerala 683556, India",Kerala,683556,14944,12876,15159,9551,370,0,0,314,0,Kunnathunad,Ernakulam,10.08312596,76.47373216,0,0,9.06E-11,0,0,0
S.H.MARINE EXIM,"W74W+75F, Aroor Thoppumpady Rd, NH 47, Bakery, Edakochi, Kochi, Kerala 682010, India",Kerala,682010,1567621,1905730,3369463,3622660,1799020,2346509,2282224,1802456,1028350,Kochi,Ernakulam,9.9107678,76.29057866,0,1028350,1028350,1028350,1028350,1028350
S.L.S.EXPORTS P.LTD.,"22/1377, Old NH, Edakochi, Kochi, Kerala 682010, India",Kerala,682010,3276789,3764611,2787369,3324070,2813071,2052069,2663800,3156584,3384672,Kochi,Ernakulam,9.9107678,76.29057866,0,3384672,3384672,3384672,3384672,3384672
S.S.METALS,"Sai Buildings, Convent Road, T.D. Road, Convent Junction, Near Laboratory Junction, Shenoys, Kochi, Kerala 682011, India",Kerala,682011,8800,0,0,0,0,0,0,0,0,Ernakulam,Ernakulam,9.989242117,76.29452373,0,0,7.88E-11,0,0,0
SAFERA FOOD INTERNATIONAL,"V7P6+FFH, SH66, Cheriakadavu, Kannamaly, Chellanam, Kochi, Kerala 682008, India",Kerala,682008,1313123,1992971,1859392,1770897,1482300,1281479,2658913,2808754,2115464,Kochi,Ernakulam,9.869597658,76.26596289,0,2115464,2115464,2115464,2115464,2115464
SAIT EXIM CO.,"Vikas Rd, Karuvelipady, Thoppumpady, Kochi, Kerala 682002, India",Kerala,682002,558350,85601,165202,54000,0,0,224641,372830,483790,Kochi,Ernakulam,9.957255233,76.25402237,0,483790,483790,483790,483790,483790
SALFA CHEMICALS,"Binanipuram, Edayar, Dubai, Kerala 683502, India",Kerala,683502,315000,415500,618000,578169,692600,456335,716700,182300,413600,Paravur,Ernakulam,10.08769256,76.30506273,0,413600,413600,413600,413600,413600
SAMRAT MIDDLE EAST EXPORTS P. LTD.,"W7M8+3R3, Thoppumpady, Kochi, Kerala 682005, India",Kerala,682005,92036,328693,441864,492500,0,0,0,0,0,Kochi,Ernakulam,9.940253061,76.25960161,0,3.20E-10,2.03E-10,0,0,0
SARASWATHI METAL WORKS,"Pallichal Rd, parry junction, Thoppumpady, Kochi, Kerala 682005, India",Kerala,682005,1024,703,985,231,1485,10026,29747,22426,12208,Kochi,Ernakulam,9.940253061,76.25960161,0,12208,12208,12208,12208,12208
SEPACK INDIA PVT LTD,"XII/293, Off, Chithrappuzha-Ponjassery Rd, Kizhakkambalam, Ernakulam, Kerala 683562, India",Kerala,683562,5618,1597,5313,19577,16093,16944,34502,14031,17718,Aluva,Ernakulam,10.03416477,76.42900358,0,17718,17718,17718,17718,17718
SHARON INSUL INDIA LTD.,"Kakkanad, 7/838(B, Seaport - Airport Rd, Vidya Nagar Colony, Thrikkakara, Kochi, Kerala 682021, India",Kerala,682021,560,0,0,0,273,231,0,0,107,Ernakulam,Ernakulam,10.02923377,76.33530454,0,107,107,107,107,107
SHERATONE ANTIQARTS,"Door number VI, 26, Jew Town Rd, Jew Town, Kappalandimukku, Mattancherry, Kochi, Kerala 682002, India",Kerala,682002,1725,125,670,400,0,300,0,1000,450,Kochi,Ernakulam,9.957255233,76.25402237,0,450,450,450,450,450
SHERTALLAI COIR MATS & MATTING CO.,"Cherthala, Kerala, India",Kerala,682024,5910,4793,2465,1184,2013,1125,2077,0,0,Ernakulam,Ernakulam,10.01888763,76.3025345,0,0,8.03E-11,0,0,0
SIPCO CURIO,"6/207, AB Salem Rd, Jew Town, Kappalandimukku, Mattancherry, Kochi, Kerala 682002, India",Kerala,682002,100,0,0,40,0,0,0,0,0,Kochi,Ernakulam,9.957255233,76.25402237,0,0,8.71E-11,0,0,0
SMARTO PRODUCTS,"Perumanoor P.K.Road, Chacola Colony, Thevara, Kochi, Kerala 682015, India",Kerala,682015,4028,2649,9142,2902,0,0,438,0,0,Ernakulam,Ernakulam,9.948697108,76.29266132,0,0,1.01E-10,0,0,0
SOUTHERN CARBON AND CHEMICALS,"Vyloppilly Ln, Azad Road, Kaloor, Ernakulam, Kerala 682017, Kathrikadavu, Kaloor, Ernakulam, Kochi, Kerala 682017, India",Kerala,682017,100116,68200,367700,10000,70000,73200,0,0,0,Ernakulam,Ernakulam,9.994298566,76.2934562,0,4.23E-10,1.04E-09,2.50E-10,0,0
SPECTRA ORGANICS,"1572, S Thamaraparambu Rd, Thamaraparambu, Fort Kochi, Kochi, Kerala 682001, India",Kerala,682001,825,2483,0,0,0,0,0,0,0,Kochi,Ernakulam,9.961975513,76.24336774,0,0,8.62E-11,0,0,0
SREE SAKTHI PAPER MILLS,"X78M+P3P, Paliyam Rd, Pallimukku, Ernakulam, Kochi, Kerala 682016, India",Kerala,682016,318145,0,0,0,0,0,0,0,0,Ernakulam,Ernakulam,9.965396735,76.28713605,0,0,0,0,0,0
SUITMAN GARMENTS,"383G+HXF, Kairali Nagar, South Kalamassery, HMT Kalamassery, Kochi, Kerala 682022, India",Kerala,682022,750,0,0,0,0,0,0,0,0,Ernakulam,Ernakulam,10.04558227,76.34736526,0,0,8.66E-11,0,0,0
SUNRICE TRADERS,"Pandit Karuppan Rd, Mattummal Junction, Mattummal, Thevara, Kochi, Kerala 682013, India",Kerala,682013,24000,24000,121189,165500,106901,249922,193506,149773,145551,Ernakulam,Ernakulam,9.939321175,76.29993071,0,145551,145551,145551,145551,145551
SUPERIOR MAT HOUSE,"5FF3+V99, Mekalady, Kalady, Kerala 683574, India",Kerala,683574,172,0,0,0,0,0,0,0,0,Aluva,Ernakulam,10.18281716,76.45845345,0,0,8.71E-11,0,0,0
SYDA POLYLAMINATES,"3rd Floor, Syda Building,Kochi, Kaloor - Kadavanthara Rd, Kaloor, Ernakulam, Kochi, Kerala 682017, India",Kerala,682017,1280,0,0,141,0,0,0,0,0,Ernakulam,Ernakulam,9.994298566,76.2934562,0,0,8.58E-11,0,0,0
T.V.J MARKETING,"FIRST FLOOR, TVJ ESTATE, 1516E NHG LANE, LPS Rd, Ponnurunni, Vyttila, Kochi, Kerala 682019, India",Kerala,682019,712,0,0,0,0,0,0,0,0,Ernakulam,Ernakulam,9.96996996,76.31541059,0,0,8.66E-11,0,0,0
TAG CHEMICALS INDIA PVT LTD.,"Kinfra Biotechnology And Industrial Zone, Medical College - NAD Road, HMT Colony, North Kalamassery, Kalamassery, Kalamassery, Kochi, Kochi, Kerala 683503, India",Kerala,683503,9045,6983,30542,13025,44829,25315,27410,18390,14304,Kanayannur,Ernakulam,10.05828796,76.33715315,0,14304,14304,14304,14304,14304
TAJ PLYWOODS,"3GHV+626, Methala, Rayamangalam, Kerala 683545, India",Kerala,683545,129880,0,0,0,0,0,0,0,0,Kunnathunad,Ernakulam,10.10971996,76.52310977,0,0,0,0,0,0
TEA BREAK INTERNATIONAL,"X759+6R8, Willingdon Island, Kochi, Kerala 682003, India",Kerala,682003,3710,0,0,0,0,0,0,0,0,Kochi,Ernakulam,9.960447846,76.27093469,0,0,8.37E-11,0,0,0
TECHNOFLEX RUBBER PRODUCTS,"59RJ+3WP, Unnamed Road, Angamaly, Kerala 683572, India",Kerala,683572,131407,182779,427479,190173,340529,522543,379317,626531,598547,Paravur,Ernakulam,10.19338331,76.38335939,0,598547,598547,598547,598547,598547
TRANQUIL CASTLES HOTELS & RESPORTS,"2nd Floor, Cherupushpam Building, Near ICICI Bank, Opp M. G. Road, Shipyard Quarters Road, Cheriyakadavanthra, Atlantis, Ravipuram, Panampilly Nagar, Kochi, Kerala 682015, India",Kerala,682015,425,0,450,0,920,1385,3494,3420,2270,Ernakulam,Ernakulam,9.948697108,76.29266132,0,2270,2270,2270,2270,2270
UNITED NILGIRIS TEA ESTATE CO. LTD.,"Nilgiris, Tamil Nadu, India",Tamil Nadu,682024,1586992,1522188,1505972,1675317,789478,319758,894032,1711008,941099,Ernakulam,Ernakulam,10.01888763,76.3025345,0,941099,941099,941099,941099,941099
UNIVERSAL OLEORESINS,"VIII/946 Navaratna House Jawahar Road, Pandikudi Rd, Pandikudy, Shanthi Nagar Housing Colony, Mattancherry, Kochi, Kerala 682002, India",Kerala,682002,73404,41335,51732,87706,108687,124535,131198,155537,165229,Kochi,Ernakulam,9.957255233,76.25402237,0,165229,165229,165229,165229,165229
VESTA ENGINEERS,"5/124-B,Erumathala P.O, Nalamile, Edathala, Aluva, Kerala 683112, India",Kerala,683112,6350,9140,35081,6240,15868,6070,7050,18100,16806,Kunnathunad,Ernakulam,10.08974094,76.39621829,0,16806,16806,16806,16806,16806
VETTOOR POLYMERS,"Vettoor-cherunniyoor, Kerala, India",Kerala,682024,340849,291821,0,0,0,0,0,0,0,Ernakulam,Ernakulam,10.01888763,76.3025345,0,0,0,0,0,4.16E-10
VIMALA WELFARE CENTRE,"41/2797, Chittoor Rd, Kacheripady, Ernakulam, Kochi, Kerala 682018, India",Kerala,682018,279,80,352,0,195,0,0,2873,0,Ernakulam,Ernakulam,9.991596464,76.28133009,0,0,8.94E-11,0,0,0
WFB BAIRD & CO.(INDIA)P.LTD.,"Plot 45/25, MLA Rd, CSEZ, Kakkanad, Kochi, Kakkanad, Kerala 682037, India",Kerala,682037,398338,428133,436444,415314,324753,116034,140177,189853,246177,Ernakulam,Ernakulam,9.997384706,76.34072476,0,246177,246177,246177,246177,246177
ZEBA LAB FURNITURE,"Kinfra Park Kakkanad, Infopark Campus, Kochi, Kakkanad, Kerala 682042, India",Kerala,682042,76875,169975,169748,164344,118944,99585,121395,153467,98304,Kanayannur,Ernakulam,10.00990548,76.36255973,0,98304,98304,98304,98304,98304
ZEHRA TRADING CO.,"Zehra Trading Co, Jew Town Road, Kappalandimukku, Mattancherry, Kochi, Kerala, Marakkadavu, Kappalandimukku, Mattancherry, Kochi, Kerala 682002, India",Kerala,682002,46640,0,0,0,0,0,0,0,0,Kochi,Ernakulam,9.957255233,76.25402237,0,0,4.22E-11,0,0,0
2F WIND POWER COIMBATORE PVT LTD,"Coimbatore, Tamil Nadu, India",Tamil Nadu,682002,0,56978,8520,0,0,0,0,0,0,Kochi,Ernakulam,9.957255233,76.25402237,0,0,1.04E-10,0,0,2.48E-12
AARSHAVEDA WELLNESS PVT LTD,"IX/338, Bank Rd, Aluva, Kochi, Aluva, Kerala 683101, India",Kerala,683101,0,431,0,2008,0,1958,4958,3182,2811,Aluva,Ernakulam,10.09568078,76.36233782,0,2811,2811,2811,2811,2811
AEITS INTERNATIONAL,"VI/1017/22,47,EZHAVA SAMAJAM SHOPPING COMPLEX, North Paravur, Kerala 683513, India",Kerala,683513,0,500,0,0,0,0,0,0,0,Paravur,Ernakulam,10.13428537,76.23096863,0,0,8.73E-11,0,0,0
BESTPAK INDUSTRIES,"Nadakadavu Rd, Palluruthy, Kochi, Kerala 682006, India",Kerala,682006,0,9050,0,0,32300,4900,8750,0,0,Kochi,Ernakulam,9.917652552,76.27326456,0,0,4.52E-11,0,0,0
BHAVANI AUTO DISTRIBUTORS,"X7MW+PM5, Kathrikadavu, Kaloor, Ernakulam, Kochi, Kerala 682017, India",Kerala,682017,0,22028,0,0,0,0,2299,0,0,Ernakulam,Ernakulam,9.994298566,76.2934562,0,0,8.26E-11,0,0,0
CEE JEE LUBRICANTS,"Edayar, Aluva, Kerala 683502, India",Kerala,683502,0,29576,6897,0,0,0,0,0,0,Paravur,Ernakulam,10.08769256,76.30506273,0,0,1.03E-10,0,0,0
COCHIN SCIENTIFIC,"SAYED MOHAMED COMPLEX, 41/711A, C P Ummer Rd, Shenoys, Kochi, Kerala 682035, India",Kerala,682035,0,2476,0,0,0,0,0,0,0,Ernakulam,Ernakulam,9.979283159,76.28271734,0,0,8.70E-11,0,0,0
DAWA BOOKS,"Salafi Masjid Cultural Complex, Service Rd, NH Bye Pass, Vyttila, Ernakulam, Kochi, Kerala 682019, India",Kerala,682019,0,3030,0,3640,0,600,2000,2457,1636,Ernakulam,Ernakulam,9.96996996,76.31541059,0,1636,1636,1636,1636,1636
ECO GRINZ TRADING PVT LTD,"Door No 42, Ayyappan Kovil, 869, Chittoor Rd, Cemetery Junction, Kacheripady, Kochi, Kerala 682018, India",Kerala,682018,0,233100,51800,0,0,0,0,0,0,Ernakulam,Ernakulam,9.991596464,76.28133009,0,0,2.01E-10,0,0,2.15E-10
ENCILS GLOBAL BEVERAGES,"Ex. Carrit Moran building 2nd floor Near Ernakulam wharf main gate, AG Milne Rd, Willingdon Island, Kochi, Kerala 682003, India",Kerala,682003,0,1050,96010,85363,96722,0,0,0,0,Kochi,Ernakulam,9.960447846,76.27093469,0,0,6.84E-11,0,0,0
ERNAKULAM ARCHIDIOCESAN PUBLICATION TRUST,"Ernakulam, Kerala, India",Kerala,682002,0,6205,1597,0,0,0,300,0,0,Kochi,Ernakulam,9.957255233,76.25402237,0,0,9.06E-11,0,0,0
EVERFRESH EXPORTS,"1st Floor, Bank Junction, St. George Complex, Angamaly, Kerala 683572, India",Kerala,683572,0,325,2815,2551,835,3156,1168,48325,3671,Paravur,Ernakulam,10.19338331,76.38335939,0,3671,3671,3671,3671,3671
FLOOR TUFT INTERNATIONAL,"RCQ9+3VJ, Keecheri, Kerala 682315, India",Kerala,682315,0,126795,52903,0,0,0,0,0,0,Ernakulam,Ernakulam,9.858566191,76.40145339,0,0,2.16E-10,0,0,4.37E-11
GREENDAY EXPORTS AND FARMS PVT LTD,"41/2846, C2, 41, St Vincent Rd, Ernakulam North, Kacheripady, Ernakulam, Kochi, Kerala 682018, India",Kerala,682018,0,25600,67329,32701,11114,14750,27144,22590,59208,Ernakulam,Ernakulam,9.991596464,76.28133009,0,59208,59208,59208,59208,59208
GREENLAND PARTICLE BOARD P.LTD.,"#XIX/4, A12, Kareyeli Vallam Road, Vallom, Perumbavoor, Kerala 683542, India",Kerala,683542,0,865883,395180,34960,0,53000,54162,44825,55460,Kunnathunad,Ernakulam,10.11493741,76.47808056,0,55460,55460,55460,55460,55460
HAILEYBURIA TEA ESTATES LTD.,"Saraf House, Marar Rd, Willingdon Island, Kochi, Kerala 682003, India",Kerala,682003,0,500,0,0,0,0,0,0,0,Kochi,Ernakulam,9.960447846,76.27093469,0,0,8.73E-11,0,0,0
HAOMA HEALTH CARE PVT LTD,"Door No: 7165/32/817A, Ward 42, Garden Spring, South of Pipeline Jn, P.O, Erna, Palarivattom, Kochi, Kerala 682025, India",Kerala,682025,0,4500,0,74378,121728,0,10480,0,2825,Ernakulam,Ernakulam,10.00037267,76.30783643,0,2825,2825,2825,2825,2825
HAYAN EXPORTERS,"X78X+XRC, Kadavanthra Junction, Elamkulam, Kochi, Kerala 682020, India",Kerala,682020,0,5109,0,0,0,0,0,0,0,Ernakulam,Ernakulam,9.968617363,76.30114695,0,0,8.67E-11,0,0,0
J.LAWRENCE PRO AUDIO EQUIPMENTS PVT LTD,"udayamperoor, Kochupally, Udayamperoor, Thrippunithura, Ernakulam, Manakunnam, Kerala 682307, India",Kerala,682307,0,1186,0,0,2205,0,0,0,0,Kanayannur,Ernakulam,9.881252418,76.37517343,0,0,8.52E-11,0,0,0
KANNIKKAT TECHNOCRAFT,"Near private Bus stand , P.M State Highway, Muvattupuzha, XHHP+WC5, Kizhakkekara, Ernakulam, Muvattupuzha, Kerala 686661, India",Kerala,686661,0,100000,60000,84800,85930,200200,203430,2120,21200,Muvattupuzha,Ernakulam,9.979858823,76.58176287,0,21200,21200,21200,21200,21200
KENRICH OVERSEAS TRADING COMPANY,"Door No. 1, 1st Floor, Kanthy Arcade, Kottankavu - Arakkakadavu Rd, Arakkakadavu, Vennala, Kochi, Kakkanad, Kerala 682028, India",Kerala,682028,0,3565,0,2592,7128,210,4395,63408,107335,Ernakulam,Ernakulam,9.99670085,76.32102778,0,107335,107335,107335,107335,107335
KERALA KERAKARSHAKA FEDERATION LTD.,"Kerala, India",Kerala,682002,0,13200,0,0,0,0,0,0,0,Kochi,Ernakulam,9.957255233,76.25402237,0,0,8.58E-11,0,0,0
KOTTACKAL AYURVEDIC TRADING COMPANY,"Kottakkal, Kerala, India",Kerala,682024,0,9200,7052,0,0,0,0,0,0,Ernakulam,Ernakulam,10.01888763,76.3025345,0,0,1.05E-10,0,0,0
KOTTAKAL EXPORTS,"Kottakkal, Kerala, India",Kerala,682002,0,4500,0,0,2424,0,0,0,0,Kochi,Ernakulam,9.957255233,76.25402237,0,0,8.47E-11,0,0,0
LEENS EXPORTS,"6/92, Jew Town Rd, Jew Town, Kappalandimukku, Mattancherry, Kochi, Kerala 682002, India",Kerala,682002,0,275,6400,0,0,0,0,0,0,Kochi,Ernakulam,9.957255233,76.25402237,0,0,1.05E-10,0,0,0
M.O.PHILIPS INDUSTRIES,"38P4+R2F, Binanipuram, Edayar, Kochi, Kerala 683502, India",Kerala,683502,0,10350,5060,5255,0,0,0,0,0,Paravur,Ernakulam,10.08769256,76.30506273,0,0,8.80E-11,0,0,0
MAITHRI ADVERTISING WORKS P.LTD.,"1st Floor, X872+C56 Combine Centre, KP Vallon Rd, Kadavanthra Junction, Giri Nagar, Kadavanthra, Kochi, Kerala 682020, India",Kerala,682020,0,380,460,0,0,48612,27848,12097,22150,Ernakulam,Ernakulam,9.968617363,76.30114695,0,22150,22150,22150,22150,22150
MALAMPUZHA STEELS P.LTD.,"Malampuzha-I, Kerala, India",Kerala,682002,0,495,0,0,0,0,0,0,0,Kochi,Ernakulam,9.957255233,76.25402237,0,0,8.73E-11,0,0,0
METRO PLY AND BOARDS,"3HX6+XQJ, Asamannoor - Panichayam - Kottavathil Rd, Panichayam, Asamannoor, Kerala 683549, India",Kerala,683549,0,52300,0,0,0,0,0,0,0,Kunnathunad,Ernakulam,10.10500877,76.5479105,0,0,8.15E-11,0,0,8.48E-12
MR.LIGHT TECHNOLOGY,"40 / 2064-A, Mr. Light Tower Thozhuthinkal lane Anjumana Temple Road, Mamangalam - Anchumana Temple Rd, Sonia Nagar, Edappally, Kochi, Kerala 682024, India",Kerala,682024,0,7393,0,9975,78,0,0,0,0,Ernakulam,Ernakulam,10.01888763,76.3025345,0,0,6.39E-11,0,0,0
PKM FINE FOODS&SPICES P.LTD.,"XF9C+F5W, Aikaranad South, Kerala 682311, India",Kerala,682311,0,7466,4357,31888,38116,40774,45804,53912,41180,Kunnathunad,Ernakulam,9.986131801,76.47020598,0,41180,41180,41180,41180,41180
ROYAL RUBBERS,"22/327,IDA,Angamaly South.P.O, CK Colony, Angamaly South, Angamaly, Kerala 683573, India",Kerala,683573,0,21000,69000,80550,95200,90400,8150,0,0,Aluva,Ernakulam,10.18025557,76.38579883,0,0,0,0,0,0
SANTRO WOOD PRODUCTS,"3HX5+7HG, Odakkali Nedungapra Krariyely Rd, Odakkali, Kerala 683549, India",Kerala,683549,0,25100,0,0,0,0,0,0,0,Kunnathunad,Ernakulam,10.10500877,76.5479105,0,0,8.45E-11,0,0,0
ST.FRANCIS PRESS,"St Benedict Rd, Near North Railway Station, Kacheripady, Ernakulam, Kochi, Kerala 682018, India",Kerala,682018,0,1737,2291,1500,2221,1840,517,0,470,Ernakulam,Ernakulam,9.991596464,76.28133009,0,470,470,470,470,470
ST.MARYS MOTORS,"Mini Muthoottu Tech Tower, opposite Gokulam Park Inn Hotel, Kaloor, Ernakulam, Kochi, Kerala 682017, India",Kerala,682017,0,163,0,0,0,914,0,0,0,Ernakulam,Ernakulam,9.994298566,76.2934562,0,0,8.66E-11,0,0,0
T.M.V. AROMATICS P.LTD.,"S, Arattukadavu Rd., Industrial Estate, South Kalamassery, Kalamassery, Kochi, Kerala 683104, India",Kerala,683104,0,807,0,188,2972,3947,2240,0,2446,Kanayannur,Ernakulam,10.05754296,76.31917809,0,2446,2446,2446,2446,2446
TAMILNADU ENERGY SOLUTION,"Tamil Nadu, India",Tamil Nadu,682002,0,4808,0,0,0,36878,0,0,0,Kochi,Ernakulam,9.957255233,76.25402237,0,0,5.75E-11,0,0,0
TECHNO RUBBERS,"38Q8+6CR, Muppathadom, Edayar, Kerala 683110, India",Kerala,683110,0,11429,0,424,212,255,98852,34743,3600,Paravur,Ernakulam,10.10683063,76.3292302,0,3600,3600,3600,3600,3600
TRICHUR SURGICALS,"MES Building, Judges Ave, RBI Junction, Kaloor, Kochi, Kerala 682017, India",Kerala,682017,0,540,0,0,640,0,1300,0,0,Ernakulam,Ernakulam,9.994298566,76.2934562,0,0,8.54E-11,0,0,0
UBIO BIOTECHNOLOGY SYSTEMS PVT LTD,"15A, Biotechnology Zone, Kinfra Hi-Tech Park, HMT Colony, North Kalamassery, Kalamassery, Kochi, Kerala 683503, India",Kerala,683503,0,38,0,0,0,0,0,0,14248,Kanayannur,Ernakulam,10.05828796,76.33715315,0,14248,14248,14248,14248,14248
VECTOR SURGICAL DISPOSABLES,"Theatrumpady Road, 683545, Kuruppampady, Rayamangalam, Kerala 683545, India",Kerala,683545,0,10952,81286,17737,74139,66584,18431,10000,21164,Kunnathunad,Ernakulam,10.10971996,76.52310977,0,21164,21164,21164,21164,21164
A.P.K.METAL COOKWARES,"Civil Line Rd, Sonia Nagar, Palarivattom, Kochi, Kerala 682025, India",Kerala,682025,0,0,1361,0,0,0,0,0,0,Ernakulam,Ernakulam,10.00037267,76.30783643,0,0,9.10E-11,0,0,0
ANAKKARA FOOD PROCESSING & EXPORTS,"Anakkara, Kerala, India",Kerala,682024,0,0,77600,36584,0,0,0,0,0,Ernakulam,Ernakulam,10.01888763,76.3025345,0,0,2.14E-10,0,0,0
ANJALI HOTELS PVT LTD,"594R+3Q2, Nedumbassery, Kerala 683111, India",Kerala,683111,0,0,3400,0,0,0,0,0,0,Aluva,Ernakulam,10.15344529,76.3904808,0,0,9.65E-11,0,0,0
ANNA TRADE LINKS,"Ground Floor, Anna Building, Next to Benelli, Service Road West, NH 66, Old NH 47, Thykoodam, Vyttila, Ernakulam, Kochi, Kerala 682019, India",Kerala,682019,0,0,2210,1438,0,0,0,0,0,Ernakulam,Ernakulam,9.96996996,76.31541059,0,0,9.00E-11,0,0,0
AVL MARKETING,"No.40, 9603, Chittoor Rd, old mymoon cinema, Pullepady, Kochi, Kerala 682018, India",Kerala,682018,0,0,1610,92,0,0,0,0,0,Ernakulam,Ernakulam,9.991596464,76.28133009,0,0,9.14E-11,0,0,0
BETHLEHEM ART STUDIO,"Vattapparambu, Mallussery, Kerala 683579, India",Kerala,683579,0,0,1250,0,0,0,0,0,0,Paravur,Ernakulam,10.18044539,76.31635012,0,0,9.07E-11,0,0,0
C.K.K.M.PHARMACY,"Hill Palace Rd, near RCM EYE hospital, Thrippunithura, Ernakulam, Kochi, Kerala 682301, India",Kerala,682301,0,0,891,4110,53,252,0,19,0,Ernakulam,Ernakulam,9.946698107,76.34776634,0,0,8.02E-11,0,0,0
C.R.TEXTILES,"Near A.I.M.S, Ponekkara, Edappally, Kochi, Kerala 682041, India",Kerala,682041,0,0,2151,0,0,0,0,0,0,Kanayannur,Ernakulam,9.956063313,76.39185568,0,0,9.31E-11,0,0,0
"CHACKOS PLYWOOD MILLS(P)LTD.,","Rubber Park Industrial Estate Airapuram, Valayanchirangara, Kochi, Airapuram, Kerala 683556, India",Kerala,683556,0,0,301990,280650,18000,83200,468530,455000,2946320,Kunnathunad,Ernakulam,10.08312596,76.47373216,0,2946320,2946320,2946320,2946320,2946320
CHILTON REFREGERATION,"5th Floor, Chilton Towers, NH 47, Koonamthai, Edappally, Kochi, Kerala 682024, India",Kerala,682024,0,0,5670,15245,0,695,1100,0,4663,Ernakulam,Ernakulam,10.01888763,76.3025345,0,4663,4663,4663,4663,4663
DANAH FOOD PRODUCTS P.LTD.,"W1, 370, Sayed Mohammed Rd, Edavanakkad, Vypin, Kochi, Kerala 682502, India",Kerala,682502,0,0,55000,51820,0,0,0,0,0,Kochi,Ernakulam,10.09190782,76.20725102,0,0,1.19E-10,0,0,0
DESIRE KOCHI,"389C+89G, East Eloor, Travancore Cochin Chemicals Colony, Kalamassery, Kochi, Kerala 683501, India",Kerala,683501,0,0,1648,0,15673,70499,282760,407234,619506,Ernakulam,Ernakulam,10.06539608,76.305478,0,619506,619506,619506,619506,619506
DIWANIYA FURNISHINGS,"1st Floor, NH Bypass, near QRS, opp. Adidas, Sonia Nagar, Padivattom, Edappally, Kochi, Kerala 682024, India",Kerala,682024,0,0,9455,0,830,0,0,0,0,Ernakulam,Ernakulam,10.01888763,76.3025345,0,0,1.12E-10,0,0,0
EDATHALA POLYMERS P.LTD.,"Edathala, Aluva, Kerala, India",Kerala,682002,0,0,100000,0,29800,68295,147180,21100,0,Kochi,Ernakulam,9.957255233,76.25402237,0,0,1.42E-10,0,0,0
ELIXIR EXOTIC FOODS AND ALLIED PRODUCTS,"Peter's Modern Rice Mill, Angamaly South, Angamaly, Kerala 683573, India",Kerala,683573,0,0,300,334,147,389,0,0,0,Aluva,Ernakulam,10.18025557,76.38579883,0,0,8.69E-11,0,0,0
EXPIENT TECH LABS,"Blue bell Building, Kuzhikkattumoola - Nilampathinja Mughal Rd, Kalappurakkal, Kusumagiri, Kakkanad, Kerala 682030, India",Kerala,682030,0,0,1400,0,0,0,0,0,0,Ernakulam,Ernakulam,10.01507889,76.34669742,0,0,9.11E-11,0,0,0
FRESH CATCH EXPORTS,"D.No.6/1209, (Old 7, 324-A, Darusalam Rd, Panayapilly East, Kochangadi, Chullickal, Kochi, Kerala 682002, India",Kerala,682002,0,0,168000,0,0,0,0,26000,0,Kochi,Ernakulam,9.957255233,76.25402237,0,0,5.55E-10,0,0,0
HYDROMANTECH,"X755+W37, Star Junction, Mattancherry, Kochi, Kerala 682002, India",Kerala,682002,0,0,3200,5100,0,0,0,0,0,Kochi,Ernakulam,9.957255233,76.25402237,0,0,8.44E-11,0,0,0
INTERGROW BRANDS P.LTD.,"Leela Tower, 3rd Floor, Subhash Chandra Bose Road, Jawahar Nagar Ave, Ponnurunni, Vyttila, Ernakulam, Kochi, Kerala 682019, India",Kerala,682019,0,0,73023,378157,430480,750068,1408162,1304752,1627357,Ernakulam,Ernakulam,9.96996996,76.31541059,0,1627357,1627357,1627357,1627357,1627357
JITHA PLASTIC INDUSTRIES,"Vallom, Chelamattom part, Kerala 683550, India",Kerala,683550,0,0,4581,0,5848,0,0,0,0,Kunnathunad,Ernakulam,10.1564586,76.44930727,0,0,9.45E-11,0,0,0
KARUR K.C.P. PACKINGS LTD.,"Karur, Tamil Nadu, India",Tamil Nadu,682002,0,0,16863,0,0,0,0,0,0,Kochi,Ernakulam,9.957255233,76.25402237,0,0,1.33E-10,0,0,0
KERALA CONSTRUCTION SPECIALITIES,"Kerala, India",Kerala,682024,0,0,3600,0,0,0,0,0,0,Ernakulam,Ernakulam,10.01888763,76.3025345,0,0,9.70E-11,0,0,0
KOCHI BENNALE,"Kochi, Kerala, India",Kerala,682002,0,0,10778,0,0,0,0,0,0,Kochi,Ernakulam,9.957255233,76.25402237,0,0,1.16E-10,0,0,0
KOTTARAM TRADING CO.,"Kottaram Tower, Payyapilly Rd, Near MG Road, Kacheripady, Kochi, Kerala 682035, India",Kerala,682035,0,0,2522,7765,23327,9768,0,0,16980,Ernakulam,Ernakulam,9.979283159,76.28271734,0,16980,16980,16980,16980,16980
KOVAX ABRASIVES SOUTH ASIA P.LTD.,"Cm complex, 2826+4MQ, Kalavath Rd, Palarivattom, Kochi, Kerala 682025, India",Kerala,682025,0,0,2291,2070,2715,348,4884,1424,17328,Ernakulam,Ernakulam,10.00037267,76.30783643,0,17328,17328,17328,17328,17328
MAMBAD RUBBER AND AGRO MFG.LTD.,"Mampad, Kerala, India",Kerala,682024,0,0,230149,163372,105950,48501,24748,140614,85449,Ernakulam,Ernakulam,10.01888763,76.3025345,0,85449,85449,85449,85449,85449
NJAVALLIL LATEX P.LTD.,"Binanipuram Road, 38G4+V3P, Muppathadom, Edayar, Kerala 682020, India",Kerala,682020,0,0,2124810,81070,0,0,0,216231,0,Ernakulam,Ernakulam,9.968617363,76.30114695,0,7.93E-09,9.72E-09,4.76E-09,0,0
PELICAN MEDICAL SYSTEMS,"27WQ+M57, Chittoor - Cheranallur Rd, Amrita Nagar, Edappally, Ernakulam, Kochi, Kerala 682034, India",Kerala,682034,0,0,50080,1000,0,0,0,1842,0,Ernakulam,Ernakulam,10.05037023,76.29097818,0,0,2.21E-10,0,0,0
PRINCE POLYMERS,"MES Bus Stop, SH 16, Aluva, Kerala 683112, India",Kerala,683112,0,0,6750,0,0,0,0,0,0,Kunnathunad,Ernakulam,10.08974094,76.39621829,0,0,1.06E-10,0,0,0
PRM METAL CRAFTS,"Ground Floor, Indo Persian NJK Square, Valanjambalam, Sahodaran Ayyappan Rd, Ravipuram, Ernakulam South, Ernakulam, Kochi, Kerala 682036, India",Kerala,682036,0,0,224,0,0,0,0,0,0,Ernakulam,Ernakulam,9.959980296,76.29498357,0,0,8.79E-11,0,0,0
RABIA SEA FOODS,"20, 1007, Nambiapuram Rd, Palluruthy, Kochi, Kerala 682006, India",Kerala,682006,0,0,56000,0,0,299540,84180,26000,1269030,Kochi,Ernakulam,9.917652552,76.27326456,0,1269030,1269030,1269030,1269030,1269030
SPICE PLANTERS,"4CXG+C9C, Kanjoor, Kerala 683575, India",Kerala,683575,0,0,40000,58563,50796,25250,50220,25000,0,Aluva,Ernakulam,10.13899475,76.43064242,0,0,0,0,0,0
STERLING PRINT HOUSE P.LTD.,"Door No. 49, 1849, Cheranalllur Rd, Ponekkara, PO, Kochi, Kerala 682041, India",Kerala,682041,0,0,8887,8473,7962,0,0,1690,0,Kanayannur,Ernakulam,9.956063313,76.39185568,0,0,8.61E-11,0,0,0
THEKKADY AGRO PRODUCTS,"Thekkady, Kumily, Kerala, India",Kerala,682024,0,0,10880,7000,0,19121,17280,203092,25289,Ernakulam,Ernakulam,10.01888763,76.3025345,0,25289,25289,25289,25289,25289
TIRUPUR CITY STYLE COLLECTION,"Tiruppur, Tamil Nadu, India",Tamil Nadu,682002,0,0,8849,0,0,0,0,0,0,Kochi,Ernakulam,9.957255233,76.25402237,0,0,1.11E-10,0,0,0
TRAVANCORE POLYMERS P.LTD.,"Panthackal - Chirangara Road, Panthackal,, Paduapuram P.O, Angamaly, Kerala 683576, India",Kerala,683576,0,0,2000,60300,0,10100,20200,5050,0,Aluva,Ernakulam,10.22989034,76.37638655,0,0,0,0,0,0
TROPICAL BATH SOLUTIONS P.LTD.,"34/136 A,C,H Florence, NH Ln, Edappally, Kochi, Kerala 682024, India",Kerala,682024,0,0,4130,0,0,0,0,0,0,Ernakulam,Ernakulam,10.01888763,76.3025345,0,0,9.85E-11,0,0,0
WILMAX INDIA,"# Ponnurunni, Convent Road, X8F6+9FM, Near Bank of India, Vyttila, Ernakulam, Kochi, Kerala 682035, India",Kerala,682035,0,0,1179,730,260,0,0,0,0,Ernakulam,Ernakulam,9.979283159,76.28271734,0,0,8.86E-11,0,0,0
A TO Z PACKAGINGS,"Chennampilly Ln, Cheranallur, Kochi, Kerala 682034, India",Kerala,682034,0,0,0,574,0,392,0,229,0,Ernakulam,Ernakulam,10.05037023,76.29097818,0,0,8.58E-11,0,0,0
ABHEK LIFE STYLES,"385V+JCW, HMT Colony, North Kalamassery, HMT Kalamassery, Kochi, Kerala 683503, India",Kerala,683503,0,0,0,70,0,8386,0,0,0,Kanayannur,Ernakulam,10.05828796,76.33715315,0,0,8.05E-11,0,0,0
AFFORD EXIM,"XII/107F, K.K.Paraman memorial Building, Karimpadam Junction, Chennamagalam, Bharanimukku, North Paravur, Chendamangalam, Kerala 683512, India",Kerala,683512,0,0,0,10948,0,0,0,7130,0,Paravur,Ernakulam,10.17219863,76.23224746,0,0,6.65E-11,0,0,0
AL FOUZAN EXPORTS,"573R+R6P, Kunnukara, Kerala 683578, India",Kerala,683578,0,0,0,31340,700,28000,0,0,0,Paravur,Ernakulam,10.15519784,76.30713588,0,0,0,0,0,0
AL-HASANATH GLOBAL,"I-289/A,M.S. Lane Adivaram, N.A.D.P.O, Aluva - 683 563, Edathala, Kerala 683563, India",Kerala,683563,0,0,0,29908,101932,301558,355263,232707,0,Aluva,Ernakulam,10.07525406,76.36353904,0,0,0,0,0,0
ALEENA FOODS,"XC62+3W9, Ambalamugal, Kochi, Kerala 682302, India",Kerala,682302,0,0,0,2557,0,6496,0,0,0,Kunnathunad,Ernakulam,9.974506078,76.37953952,0,0,7.64E-11,0,0,0
APT GLOBAL MARINE ENGINEERING,"X78R+4XF, S Over Bridge, Ernakulam South, Kochi, Kerala 682016, India",Kerala,682016,0,0,0,22717,137919,3610,20000,7106,0,Ernakulam,Ernakulam,9.965396735,76.28713605,0,0,0,0,0,0
CALEX MARINE&INDUSTRIAL,"2nd Floor, Chirayath Building, Opp KUFOS UG Ladies Hostel, Vytila Aroor Bye Pass Road, Service Road West, NH 47, NH 66, Madavana, Panangad, Ernakulam, Kochi, Kerala 682506, India",Kerala,682506,0,0,0,5665,0,0,0,0,3151,Ernakulam,Ernakulam,9.90249192,76.31610951,0,3151,3151,3151,3151,3151
CAPITAL PLYBOARDS,"3FW2+WGG, Ponjassery, Kerala 683547, India",Kerala,683547,0,0,0,1101930,193000,0,0,0,0,Kunnathunad,Ernakulam,10.09107643,76.43058616,0,0,0,0,0,0
CHAITHANYA GRANITE&MARBLES,"Edappally, Kochi, Kerala 682024, India",Kerala,682024,0,0,0,9300,0,0,0,0,0,Ernakulam,Ernakulam,10.01888763,76.3025345,0,0,6.63E-11,0,0,0
COASTAL SHIPPING LINKS INDIA P.LTD.,"Door No: G 2102, Jawaharlal Nehru International Stadium, Jawaharlal Nehru International Stadium, Kaloor, Kochi, Kerala 682017, India",Kerala,682017,0,0,0,13660,0,0,0,0,0,Ernakulam,Ernakulam,9.994298566,76.2934562,0,0,5.65E-11,0,0,0
COCHIN DENTAL EQUIPMENTS,"67/977, North Park St Vincent Road, Kacheripadi Ernakulam, North, North Kaloor, Kacheripady, Kochi, Kerala 682018, India",Kerala,682018,0,0,0,785,2022,0,3123,225,0,Ernakulam,Ernakulam,9.991596464,76.28133009,0,0,8.08E-11,0,0,0
CORAL EXPORTS,"NETTIPADAM ROAD, X78P+RV9, Mahatma Gandhi Rd, Valanjambalam, Ernakulam, Kochi, Kerala 682016, India",Kerala,682016,0,0,0,9438,332600,170925,89069,799258,1760963,Ernakulam,Ernakulam,9.965396735,76.28713605,0,1760963,1760963,1760963,1760963,1760963
DENWUD EXIM  INDIA,"Pulluvazhi, 683541, XV/642, Thombra Road, Rayamangalam, Kerala 683547, India",Kerala,683541,0,0,0,510,0,0,0,0,0,Kunnathunad,Ernakulam,10.0473711,76.52621409,0,0,8.62E-11,0,0,0
INDUS TRADE LINKS,"Br:XLI/3842,Carmel Buildings, Banerji Rd, Kacheripady, Kochi, Kerala 682018, India",Kerala,682018,0,0,0,63000,0,60049,0,50000,0,Ernakulam,Ernakulam,9.991596464,76.28133009,0,0,0,0,0,0
JANITOR EXIM,"JANITOR EXIM, Bund road, Arakkakadavu, Vennala, Kochi, Kakkanad, Kerala 682028, India",Kerala,682028,0,0,0,224,0,0,0,0,0,Ernakulam,Ernakulam,9.99670085,76.32102778,0,0,8.68E-11,0,0,0
JOEL RUBBER INDUSTRIES,"Mini Industrial Estate, Mattoor, Kalady, Kerala 683574, India",Kerala,683574,0,0,0,10569,5660,0,2590,7630,9520,Aluva,Ernakulam,10.18281716,76.45845345,0,9520,9520,9520,9520,9520
KARNIZ PACKS LLP,"Perinagala, P.O, Pallikkara, Kochi, Kerala 683565, India",Kerala,683565,0,0,0,8690,8690,2226,0,0,0,Kunnathunad,Ernakulam,10.0167491,76.41687552,0,0,5.83E-11,0,0,0
KERALA PLANTATIONS,"Kerala, India",Kerala,682002,0,0,0,226740,0,0,0,0,0,Kochi,Ernakulam,9.957255233,76.25402237,0,0,0,0,0,0
KHUSHI INTERGROUP,"Bus Stop, Thodaparambu, Pooppani Rd, Perumbavoor, Kerala 683543, India",Kerala,683543,0,0,0,284000,321155,0,50000,50000,0,Kunnathunad,Ernakulam,10.12285941,76.48358803,0,0,0,0,0,0
KUNNATHAN WOOD PRODUCTS,"Panichayam Rd, Odakkali, Kerala 683549, India",Kerala,683549,0,0,0,104500,283970,528440,1598908,2596196,1847940,Kunnathunad,Ernakulam,10.10500877,76.5479105,0,1847940,1847940,1847940,1847940,1847940
LANDEX GREEN SOLUTIONS,"Building NO-41, 2371, Medical Centre Rd, Kochi, Chakkalakkal, Palarivattom, Ernakulam, Kochi, Kerala 682028, India",Kerala,682028,0,0,0,1450,5443,0,0,0,0,Ernakulam,Ernakulam,9.99670085,76.32102778,0,0,7.92E-11,0,0,0
MADURA MERCERISERS INDIA P.LTD.,"Madurai, Tamil Nadu, India",Tamil Nadu,682002,0,0,0,844,0,0,0,0,0,Kochi,Ernakulam,9.957255233,76.25402237,0,0,8.54E-11,0,0,0
MATHA TRADERS,"Canal Rd, near ST.James Church, Chambakkara, Poonithura, Maradu, Kochi, Kerala 682038, India",Kerala,682038,0,0,0,17420,44797,190210,52576,88941,150076,Ernakulam,Ernakulam,9.951825921,76.32976081,0,150076,150076,150076,150076,150076
METRO TRADING SYNDICATE,"VII/594, Jews St, Jew Town, Kappalandimukku, Mattancherry, Kochi, Kerala 682002, India",Kerala,682002,0,0,0,1064,0,0,0,0,0,Kochi,Ernakulam,9.957255233,76.25402237,0,0,8.49E-11,0,0,0
POSEIDON FOOD CO.,"688/1, 2nd Floor, Kunjalu's Place, PT Usha Rd, Shenoys, Kochi, Kerala 682011, India",Kerala,682011,0,0,0,19000,0,0,0,0,0,Ernakulam,Ernakulam,9.989242117,76.29452373,0,0,4.44E-11,0,0,0
PRECORE SOLUTIONS,"N, Meethiyans Tower, 4/361, North Kalamassery, Kalamassery, Kochi, Kerala 683104, India",Kerala,683104,0,0,0,27144,0,0,0,0,0,Kanayannur,Ernakulam,10.05754296,76.31917809,0,0,2.61E-11,0,0,0
PREMIER ENGINEERING PRODUCTS,"Kyomtha Seminary Rd, Thrippunithura, Kochi, Kerala 682305, India",Kerala,682305,0,0,0,10400,0,0,0,0,0,Kanayannur,Ernakulam,9.939008105,76.3708771,0,0,6.39E-11,0,0,0
SUPER GOLDEN FOODS,"Karukutty P.O,Angamaly,Cochin,Kerala-683576 (Near Sree Krishna Temple), Karukutty, Angamaly, Kerala 683576, India",Kerala,683576,0,0,0,4947,0,4777,0,7742,0,Aluva,Ernakulam,10.22989034,76.37638655,0,0,7.66E-11,0,0,0
SYMEGA FOOD INGREDIENTS,"Synthite Taste Park No. XI 312G, Pancode Near Kolenchery, Kochi, Aikaranad North, Kerala 682310, India",Kerala,682310,0,0,0,177483,854060,894458,1030545,1463539,1602252,Kunnathunad,Ernakulam,9.98790642,76.43015296,0,1602252,1602252,1602252,1602252,1602252
TALEM POWER SYSTEMS,"1428028, Kanjiramattom Thalayolaparambu Rd, Gama Junction, Kanjiramattom, Kerala 682315, India",Kerala,682315,0,0,0,27276,0,1600,0,0,0,Ernakulam,Ernakulam,9.858566191,76.40145339,0,0,2.45E-11,0,0,0
TANYA SPICES,"Gujarati Rd, opp: Santhi Lal sweet house, Nalumadam, Mattancherry, Kochi, Kerala 682002, India",Kerala,682002,0,0,0,15695,32080,15760,0,0,30000,Kochi,Ernakulam,9.957255233,76.25402237,0,30000,30000,30000,30000,30000
TEAM SUSTAIN,"1st floor, inQ Tower, Opp, EMC NH Bypass, Kesaveeyam, Palarivattom, Kochi, Kerala 682025, India",Kerala,682025,0,0,0,890,0,0,0,0,0,Ernakulam,Ernakulam,10.00037267,76.30783643,0,0,8.53E-11,0,0,0
USMANIYA WOOD PODUCTS,"XV/635, MALAMURY, PULLUVAZHI P. O, Perumbavoor, Kerala 683541, India",Kerala,683541,0,0,0,27750,0,0,0,235970,33700,Kunnathunad,Ernakulam,10.0473711,76.52621409,0,33700,33700,33700,33700,33700
V.J.TREADS,"W9WG+76J, Kochi - Madurai - Dhanushkodi Rd, Thiruvankulam, Thrippunithura, Kochi, Kerala 682305, India",Kerala,682305,0,0,0,2493,0,0,0,0,0,Kanayannur,Ernakulam,9.939008105,76.3708771,0,0,8.17E-11,0,0,0
VERVEMAGNUM GLOBAL IMPEX P.LTD.,"3933+743, Karippassery, North Kalamassery, Kalamassery, Kochi, Kerala 682033, India",Kerala,682033,0,0,0,14502,0,0,0,0,68025,Kanayannur,Ernakulam,10.04308069,76.31714246,0,68025,68025,68025,68025,68025
VICTORY WOOD INDUSTRIES,"Mudiclal Depot Road, Mudickal, Kerala 683547, India",Kerala,683547,0,0,0,87500,0,0,0,167700,0,Kunnathunad,Ernakulam,10.09107643,76.43058616,0,0,0,0,0,0
WAYANAD FOOD INC.,"Wayanad, Kerala, India",Kerala,682024,0,0,0,1000,0,19000,0,0,0,Ernakulam,Ernakulam,10.01888763,76.3025345,0,0,7.00E-11,0,0,0
WYANAD FOOD INCORPORATED,"Wayanad, Kerala, India",Kerala,682002,0,0,0,23068,0,26814,0,0,0,Kochi,Ernakulam,9.957255233,76.25402237,0,0,1.40E-11,0,0,0
ABM4 TRADES,"27CR+27P, Elamakkara, Kochi, Kerala 682026, India",Kerala,682026,0,0,0,0,72,6750,10821,24685,3703,Ernakulam,Ernakulam,10.01621267,76.28882021,0,3703,3703,3703,3703,3703
AISWRYA AGRO MILLS,"5CFM+HQH, Mattoor, Kalady, Kerala 683574, India",Kerala,683574,0,0,0,0,22000,0,0,0,0,Aluva,Ernakulam,10.18281716,76.45845345,0,0,6.79E-11,0,0,0
BMK INTERNATIONAL,"BMK international ,13/725 D pipeline road,Thoppil ,Thrikkakara ,Ernakulam, Pin, Marottichuvadu, Edappally, Kochi, Kerala code :682021, India",Kerala,682021,0,0,0,0,377,758,0,1836,0,Ernakulam,Ernakulam,10.02923377,76.33530454,0,0,8.74E-11,0,0,0
COCHIN MARINE ENGINEERING BOAT YARD,"Kochangadi Rd, Kochangadi, Chullickal, Kochi, Kerala 682002, India",Kerala,682002,0,0,0,0,8172,0,0,0,0,Kochi,Ernakulam,9.957255233,76.25402237,0,0,8.01E-11,0,0,0
FINE ART PLASTICS,"Kaloor - Kadavanthara Rd, Kathrikadavu, Kaloor, Kochi, Kerala 682017, India",Kerala,682017,0,0,0,0,220,0,0,0,0,Ernakulam,Ernakulam,9.994298566,76.2934562,0,0,8.71E-11,0,0,0
FROTUNE FLEXIPRINT PACK,"P.O, 1/508, Ponjassery, A M Thomas Rd, Perumbavoor, Ponjassery, Kerala 683547, India",Kerala,683547,0,0,0,0,912,0,0,0,0,Kunnathunad,Ernakulam,10.09107643,76.43058616,0,0,8.65E-11,0,0,0
G.H.ASSOCIATES,"Golden Plaza, Chittoor Rd, opp. Mymoon Theatre, Padma Junction, Kacheripady, Ernakulam, Kochi, Kerala 682018, India",Kerala,682018,0,0,0,0,3791,3981,0,751,2807,Ernakulam,Ernakulam,9.991596464,76.28133009,0,2807,2807,2807,2807,2807
GOLD WOOD INDUSTRIES,"2HG7+8XF, Pezhakkappilly, Kerala 686674, India",Kerala,686674,0,0,0,0,775070,1284350,0,885900,1436600,Pezhakkapilly,Ernakulam,10.01720788,76.56630881,0,1436600,1436600,1436600,1436600,1436600
GOLDEN SPENCER TRADING,"Okkal, Kalady, Chelamattom part, Kerala 683544, India",Kerala,683544,0,0,0,0,33678,80868,0,39607,0,Kunnathunad,Ernakulam,10.16667257,76.50774668,0,0,1.51E-11,0,0,0
INNOPOLIS BIO INNOVATIONS,"18/18, Near BPCL Petrol Pump Puthya Road, Vadagode P.O., Mundanpalam, Kollamkudimugal, Kangarappady, Kochi, Kakkanad, Kerala 682021, India",Kerala,682021,0,0,0,0,44762,73946,1142,900,0,Ernakulam,Ernakulam,10.02923377,76.33530454,0,0,0,0,0,0
JAGADAMBAN CONTAINES,"Factory at :18/789, Development Area, Binanipuram, Edayar, Kochi, Kerala 683502, India",Kerala,683502,0,0,0,0,820,0,0,0,0,Paravur,Ernakulam,10.08769256,76.30506273,0,0,8.66E-11,0,0,0
JEEVAGRAM,"VI/450, Manickamangalam, Kalady, Kerala 683574, India",Kerala,683574,0,0,0,0,1150,6164,3585,0,0,Aluva,Ernakulam,10.18281716,76.45845345,0,0,7.78E-11,0,0,0
KANAKA POLYPACK P.LTD.,"Rd, Ashokapuram, Edayapuram, Aluva, Kerala 683101, India",Kerala,683101,0,0,0,0,3579,1395,791,0,0,Aluva,Ernakulam,10.09568078,76.36233782,0,0,8.23E-11,0,0,0
LULU FLIGHT KITCHEN,"Nedumbassery, XI/300-B, VIP Road, opp. Cochin International Airport, Kochi, Nedumbassery, Kerala 683572, India",Kerala,683572,0,0,0,0,87834,323744,342257,419339,456037,Paravur,Ernakulam,10.19338331,76.38335939,0,456037,456037,456037,456037,456037
MAITHRI ADVERTISING WORKS P. LTD.,"1st Floor, X872+C56 Combine Centre, KP Vallon Rd, Kadavanthra Junction, Giri Nagar, Kadavanthra, Kochi, Kerala 682020, India",Kerala,682020,0,0,0,0,159,419,65094,79333,124008,Ernakulam,Ernakulam,9.968617363,76.30114695,0,124008,124008,124008,124008,124008
MATHA BOOK CENTRE,"Salem-Kanyakumari Highway, Service Rd, Karukutty, Angamaly, Kerala 683576, India",Kerala,683576,0,0,0,0,190,0,0,0,0,Aluva,Ernakulam,10.22989034,76.37638655,0,0,8.71E-11,0,0,0
MINERVA COMBINES,"W9VF+77R, Temple Road, opp. Public Library, Thrippunithura, Thiruvankulam, Kochi, Kerala 682305, India",Kerala,682305,0,0,0,0,1538,0,503,0,730,Kanayannur,Ernakulam,9.939008105,76.3708771,0,730,730,730,730,730
NEONA EMBEDDED LABZ,"41/1852, Veekshanam Rd, North Kaloor, Kacheripady, Kochi, Kerala 682018, India",Kerala,682018,0,0,0,0,226,0,0,0,0,Ernakulam,Ernakulam,9.991596464,76.28133009,0,0,8.71E-11,0,0,0
NILGIRIS EXPORTS,"Nilgiris, Tamil Nadu, India",Tamil Nadu,682002,0,0,0,0,13110,511,0,7955,3930,Kochi,Ernakulam,9.957255233,76.25402237,0,3930,3930,3930,3930,3930
PAZHANGADI OIL MILLS,"3CXM+XFV, Kerala 683547, India",Kerala,683547,0,0,0,0,8366,71669,195221,317836,975521,Kunnathunad,Ernakulam,10.09107643,76.43058616,0,975521,975521,975521,975521,975521
S.TOUGHEN GLASS,"Marottichode-Pothiyakkara, Mattoor, Kalady, Kerala 683574, India",Kerala,683574,0,0,0,0,25000,0,0,0,0,Aluva,Ernakulam,10.18281716,76.45845345,0,0,6.52E-11,0,0,0
SRI THIRUMAL EXPORTS,"# 368, 4, th cross, Vaiyapuri Nagar, Gandhi Puram, Karur, Tamil Nadu 2, India",Tamil Nadu,682002,0,0,0,0,83000,0,0,0,0,Kochi,Ernakulam,9.957255233,76.25402237,0,0,1.41E-11,0,0,0
TECWA GROUP,"15/58, Desom, Aluva, Kerala 683102, India",Kerala,683102,0,0,0,0,74,0,0,0,0,Aluva,Ernakulam,10.12071197,76.33862615,0,0,8.72E-11,0,0,0
THOMSON IMPEX,"Nediyuzhathil Tower, 1333 A, 40, Cannon Shed Rd, Shenoys, Kochi, Kerala 682011, India",Kerala,682011,0,0,0,0,14000,0,26001,0,0,Ernakulam,Ernakulam,9.989242117,76.29452373,0,0,4.91E-11,0,0,0
VALOOKKARAN MODERN RICE MILL,"5CVJ+3GV, Ezhattumugham, Kerala 683574, India",Kerala,683574,0,0,0,0,144000,829492,752398,285270,364960,Aluva,Ernakulam,10.18281716,76.45845345,0,364960,364960,364960,364960,364960
AGUS ENTERPRISES,"Pudussery Building, Kaloor, Kochi, Kerala 682017, India",Kerala,682017,0,0,0,0,0,250,0,0,0,Ernakulam,Ernakulam,9.994298566,76.2934562,0,0,8.71E-11,0,0,0
AMICUS COMMUNICATIONS,"THE BUILDING 9 degree N 76 degree E, Desabhimani Rd, Kaloor, Kochi, Kerala 682017, India",Kerala,682017,0,0,0,0,0,5335,24254,19597,3807,Ernakulam,Ernakulam,9.994298566,76.2934562,0,3807,3807,3807,3807,3807
ANNA FRIED MASALA,"Vithayathil Building, 10/563, Meleth Road, Vikas Nagar, Maradu, Kochi, Kerala 682304, India",Kerala,682304,0,0,0,0,0,165,4780,4450,8050,Ernakulam,Ernakulam,9.938877707,76.32558968,0,8050,8050,8050,8050,8050
ARAVIND EXPORTS,"8/1488 Hari Pai Compound, Gujarati Rd, Kappalandimukku, Mattancherry, Kochi, Kerala 682002, India",Kerala,682002,0,0,0,0,0,15859,512,0,0,Kochi,Ernakulam,9.957255233,76.25402237,0,0,7.42E-11,0,0,0
BULK LINER LOGISTICS,"39/6181, Alappatt Cross Road, Ravipuram, Ravipuram, Perumanoor, Kochi, Kerala 682015, India",Kerala,682015,0,0,0,0,0,9630,73928,88197,143739,Ernakulam,Ernakulam,9.948697108,76.29266132,0,143739,143739,143739,143739,143739
CHENNAI FORGE PRODUCTS P.LTD.,"Chennai, Tamil Nadu, India",Tamil Nadu,682024,0,0,0,0,0,6000,0,0,0,Ernakulam,Ernakulam,10.01888763,76.3025345,0,0,8.26E-11,0,0,0
CHENNAI RECLAIMATION(P)LTD.,"Chennai, Tamil Nadu, India",Tamil Nadu,682002,0,0,0,0,0,20000,20500,0,0,Kochi,Ernakulam,9.957255233,76.25402237,0,0,5.11E-11,0,0,0
COCHIN DRUG HOUSE,"Road, Mankuzhy, Nethaji Nagar, Edappally, Kochi, Kerala 682024, India",Kerala,682024,0,0,0,0,0,16338,0,0,0,Ernakulam,Ernakulam,10.01888763,76.3025345,0,0,7.44E-11,0,0,0
COCHIN PETROMINS,"4/147B Devikripa, Fact Road North Kalamassery Near To Ganapathy Temple, behind Bmart Supermarket, North Kalamassery, Kalamassery, Kochi, Kerala 683104, India",Kerala,683104,0,0,0,0,0,8968,0,0,0,Kanayannur,Ernakulam,10.05754296,76.31917809,0,0,8.02E-11,0,0,0
COCOHIN RESIDENCY P.LTD.,"Peeliyadu Road, near Amrita Hospital, Amrita Nagar, Edappally, Kochi, Kerala 682041, India",Kerala,682041,0,0,0,0,0,3460,0,0,0,Kanayannur,Ernakulam,9.956063313,76.39185568,0,0,8.46E-11,0,0,0
CYRIX HEALTHCARE,"30/641B, Vandipetta Road, near SBI Bank, Poonithura, Maradu, Ernakulam, Kochi, Kerala 682038, India",Kerala,682038,0,0,0,0,0,2500,0,0,0,Ernakulam,Ernakulam,9.951825921,76.32976081,0,0,8.53E-11,0,0,0
DOTS CARGO INDIA,"X7MR+XGG, Kathrikadavu, Kaloor, Ernakulam, Kochi, Kerala 682017, India",Kerala,682017,0,0,0,0,0,330222,143082,217694,409696,Ernakulam,Ernakulam,9.994298566,76.2934562,0,409696,409696,409696,409696,409696
ESTHAPANOSE SONS,"Lemon Grass Avenue, Syrian Church Rd, Kunnathery Thikavu, Aluva, Kerala 683101, India",Kerala,683101,0,0,0,0,0,393,0,0,0,Aluva,Ernakulam,10.09568078,76.36233782,0,0,8.70E-11,0,0,0
EUROFINE INTERNATIONAL INDIA,"Noah's Ark, Suit No. 189, NH47 Near Kochi International Airport Jn, Nedumbassery, Angamaly South, Kochi, Angamaly, Kerala 683573, India",Kerala,683573,0,0,0,0,0,149500,20956,0,0,Aluva,Ernakulam,10.18025557,76.38579883,0,0,0,0,0,0
GESCHMACK NATURELLE,"Geshmack Naturelle, PO, Pancode, Vadavucode, Aikaranad North, Kerala 682310, India",Kerala,682310,0,0,0,0,0,1332,0,5981,1140,Kunnathunad,Ernakulam,9.98790642,76.43015296,0,1140,1140,1140,1140,1140
J.R.UNIQUE PRINTERS,"T.B Junction, Angamaly, Angamaly, Kerala 683572, India",Kerala,683572,0,0,0,0,0,18900,0,0,0,Paravur,Ernakulam,10.19338331,76.38335939,0,0,7.23E-11,0,0,0
KAVONE AUTOMATION AND MACHINES,"3rd Floor ,V.E Arcade, Palarivattom JN., Sonia Nagar, Palarivattom, Kochi, Kerala 682020, India",Kerala,682020,0,0,0,0,0,76,0,0,0,Ernakulam,Ernakulam,9.968617363,76.30114695,0,0,8.73E-11,0,0,0
KAY ENN TRADING,"Kasmisons Arcade, Mahatma Gandhi Rd, near Padma, Mulavukad, Kochi, Kerala 682035, India",Kerala,682035,0,0,0,0,0,27635,671373,277012,0,Ernakulam,Ernakulam,9.979283159,76.28271734,0,0,0,0,0,0
KODUVAYOOR BALAKRISHNASREDHAR,"Koduvayur, Kerala, India",Kerala,682024,0,0,0,0,0,150,330,0,0,Ernakulam,Ernakulam,10.01888763,76.3025345,0,0,8.69E-11,0,0,0
KUNNATHAN POLYMERS P.LTD.,"Assamanoor, P.O, Odakkali Nedungapra Krariyely Rd, Perumbavoor, Kerala 683549, India",Kerala,683549,0,0,0,0,0,27500,55000,0,0,Kunnathunad,Ernakulam,10.10500877,76.5479105,0,0,1.08E-11,0,0,0
LIV LONG NUTRACUETICALS LTD.,"Bank Rd, Periyar Nagar, Aluva, Kerala 683101, India",Kerala,683101,0,0,0,0,0,9681,12564,0,0,Aluva,Ernakulam,10.09568078,76.36233782,0,0,6.71E-11,0,0,0
LUCIYA INDUSTRIES,"Industrial Development Plot, VI/188B, North Champannoor, Angamaly, Kerala 683573, India",Kerala,683573,0,0,0,0,0,34500,60240,0,0,Aluva,Ernakulam,10.18025557,76.38579883,0,0,3.27E-14,0,0,0
MADAVA PHARMACEUTICAL LABORATORIES,"Ground Floor, PNVM Arcade, North End, Madhava Pharmacy Junction, Providence Rd, Banerji Rd, Kacheripady, Ernakulam, Kochi, Kerala 682018, India",Kerala,682018,0,0,0,0,0,249,0,0,0,Ernakulam,Ernakulam,9.991596464,76.28133009,0,0,8.71E-11,0,0,0
MALABAR HERBS,"Airport Rd, Kochi, Nedumbassery, Kerala 683111, India",Kerala,683111,0,0,0,0,0,933,2019,0,0,Aluva,Ernakulam,10.15344529,76.3904808,0,0,8.46E-11,0,0,0
MALABAR TIMBER INDUSTRIES,"Malabar Timber Industries, Karimugal, Kerala 682303, India",Kerala,682303,0,0,0,0,0,63620,79840,26560,28962,Kunnathunad,Ernakulam,9.999956208,76.3969864,0,28962,28962,28962,28962,28962
MEDAMANA RUBBER INDUSTRIES,"Mulakulam North, Piravom, Kerala 686664, India",Kerala,686664,0,0,0,0,0,94286,181168,154665,109436,Muvattupuzha,Ernakulam,9.87667052,76.48430996,0,109436,109436,109436,109436,109436
MIRACLE RECLAIM RUBBER COIMBATORE P.LTD.,"Coimbatore, Tamil Nadu, India",Tamil Nadu,682024,0,0,0,0,0,24000,48000,48000,72000,Ernakulam,Ernakulam,10.01888763,76.3025345,0,72000,72000,72000,72000,72000
NAS AGENCIES,"NH544, Koonamthai, Edappally, Ernakulam, Kochi, Kerala 682024, India",Kerala,682024,0,0,0,0,0,2893,0,0,0,Ernakulam,Ernakulam,10.01888763,76.3025345,0,0,8.50E-11,0,0,0
NUCOMET ENTERPRISES,"13/751-2,Koikkara Building, Koikkara Lane Eden Lane, Marottichuvadu - Thoppil Rd, Thrikkakara, Edappally, Kochi, Kerala 682021, India",Kerala,682021,0,0,0,0,0,912,275,117031,184108,Ernakulam,Ernakulam,10.02923377,76.33530454,0,184108,184108,184108,184108,184108
PIO FOOD PRODUCTS,"WJGJ+GVP, Kerala 686672, India",Kerala,686672,0,0,0,0,0,30767,11802,0,9263,Muvattupuzha,Ernakulam,9.924969829,76.60258119,0,9263,9263,9263,9263,9263
PRABHA SPECIALITIES,"33/1784, Madathiparambil Building, B-2, Puthiya Road, P.O, Vennala, Kochi, Kerala 682028, India",Kerala,682028,0,0,0,0,0,200,0,12115,0,Ernakulam,Ernakulam,9.99670085,76.32102778,0,0,9.38E-11,0,0,0
PRIME LINKS GLOBAL,"2nd floor, Sunu Plaza, Mangayil School Road, Maradu, Kochi, Kerala 682304, India",Kerala,682304,0,0,0,0,0,11150,0,0,0,Ernakulam,Ernakulam,9.938877707,76.32558968,0,0,7.85E-11,0,0,0
RICE TECH AGRO MILLS,"Malabar rice mill, Mattoor, Kalady, Kerala 683574, India",Kerala,683574,0,0,0,0,0,514182,752878,893034,0,Aluva,Ernakulam,10.18281716,76.45845345,0,0,0,0,0,0
SALVIA EXPORTS,"NH. 17, 27/456, Toll Junction, Metro Pillar No. 386, near TecQ Mobiles, Edappally North, PO, Ernakulam, Alappuzha, Kerala 682024, India",Kerala,682024,0,0,0,0,0,2405,0,0,0,Ernakulam,Ernakulam,10.01888763,76.3025345,0,0,8.54E-11,0,0,0
TAG SECTOR,"XI/357, Kidagoor, Kerala 683572, India",Kerala,683572,0,0,0,0,0,850,0,0,0,Paravur,Ernakulam,10.19338331,76.38335939,0,0,8.66E-11,0,0,0
TCL CERAMICS LTD,"TCL Ceramics Limited, 26, CSEZ, Kakkanad, Kerala 682037, India",Kerala,682037,0,0,0,0,0,283321,928207,919363,613502,Ernakulam,Ernakulam,9.997384706,76.34072476,0,613502,613502,613502,613502,613502
24X7  COOLING SOLUTIONS,"29/1713, Bund Rd, Thykoodam, Vyttila, Ernakulam, Kochi, Kerala 682019, India",Kerala,682019,0,0,0,0,0,0,717,859,0,Ernakulam,Ernakulam,9.96996996,76.31541059,0,0,8.71E-11,0,0,0
AGROPINE FOOD PROCESSORS,"Pezhakkappilly, Kerala 686674, India",Kerala,686674,0,0,0,0,0,0,18000,13543,0,Pezhakkapilly,Ernakulam,10.01720788,76.56630881,0,0,7.68E-11,0,0,0
ALIMA TIMBER INDUSTRIES,"Old Muvattupuzha Rd, Perumbavoor, Kerala 683542, India",Kerala,683542,0,0,0,0,0,0,53200,0,0,Kunnathunad,Ernakulam,10.11493741,76.47808056,0,0,3.44E-11,0,0,0
ALTERSOFT INNOVATIONS INDIA P.LTD.,"Second Floor, Valiyaveetil Buildings, NH 544 (Old NH, 47, Kochi - Salem Hwy, Edappally Toll, Nethaji Nagar, Edappally, Ernakulam, Kochi, Kerala 682024, India",Kerala,682024,0,0,0,0,0,0,900,3000,0,Ernakulam,Ernakulam,10.01888763,76.3025345,0,0,8.81E-11,0,0,0
AMAL PLYWOOD,"35/2229/B, Vazhi, B1, Palli Pradakshina Rd, Pallinada, Palarivattom, Kochi, Kerala 682025, India",Kerala,682025,0,0,0,0,0,0,19179,0,0,Ernakulam,Ernakulam,10.00037267,76.30783643,0,0,6.82E-11,0,0,0
AMBITN LIFESCIENCES,"386X+V58, HMT Colony Rd, HMT Colony, North Kalamassery, Kalamassery, Ernakulam, Kochi, Kerala 683503, India",Kerala,683503,0,0,0,0,0,0,3040,13661,0,Kanayannur,Ernakulam,10.05828796,76.33715315,0,0,9.18E-11,0,0,0
AMENSCO MEDICAL TECHNOLOGIES,"KINFRA Road, Nellad, Mazhuvannoor, Kerala 686669, India",Kerala,686669,0,0,0,0,0,0,180,13400,0,Kunnathunad,Ernakulam,10.00734095,76.52786276,0,0,9.45E-11,0,0,0
AUTOGRADE INDUSTRIES,"6/49 - A2, Thrikkakara, Mundampalam, Kochi, Kakkanad, Kerala 682021, India",Kerala,682021,0,0,0,0,0,0,63000,0,0,Ernakulam,Ernakulam,10.02923377,76.33530454,0,0,2.47E-11,0,0,0
BONAFIDE SURGICALS,"X7JP+6FP, Adv Easwara Iyer Rd, Shenoys, Kochi, Kerala 682018, India",Kerala,682018,0,0,0,0,0,0,8,0,0,Ernakulam,Ernakulam,9.991596464,76.28133009,0,0,8.73E-11,0,0,0
CANNANORE TEX-STYLE INT'L.,"Kannur, Kerala, India",Kerala,682002,0,0,0,0,0,0,325,0,0,Kochi,Ernakulam,9.957255233,76.25402237,0,0,8.70E-11,0,0,0
COCHIN PLYWOOD,"4F5M+JG5, Perumbavoor, Kerala 683542, India",Kerala,683542,0,0,0,0,0,0,357900,279851,90887,Kunnathunad,Ernakulam,10.11493741,76.47808056,0,90887,90887,90887,90887,90887
COCHIN RESIDENCY P.LTD.,"Peeliyadu Road, near Amrita Hospital, Amrita Nagar, Edappally, Kochi, Kerala 682041, India",Kerala,682041,0,0,0,0,0,0,2818,0,0,Kanayannur,Ernakulam,9.956063313,76.39185568,0,0,8.45E-11,0,0,0
CORNIER P.LTD.,"Vrindavan Tower, 10/485-G, West Kadungalloor, Aluva, Kerala 683110, India",Kerala,683110,0,0,0,0,0,0,796,0,0,Paravur,Ernakulam,10.10683063,76.3292302,0,0,8.65E-11,0,0,0
DELCO ENGINEERING WORKS,"V7MQ+CV6, Joras (Market) Rd, North Kumbalangi, Kumbalangi, Kochi, Kerala 682007, India",Kerala,682007,0,0,0,0,0,0,5160,0,0,Kochi,Ernakulam,9.873862835,76.28911114,0,0,8.22E-11,0,0,0
EINSTEK-ENGINEERING INSULATION,"Metro Pillar 450, PO Bus Stop, 2nd Floor, National Residency Complex, Bank Jn, Bank Junction, Mamangalam, Edappally, Ernakulam, Kochi, Kerala 682024, India",Kerala,682024,0,0,0,0,0,0,400,0,0,Ernakulam,Ernakulam,10.01888763,76.3025345,0,0,8.69E-11,0,0,0
FRUCTUS INC.,"No. 6/858-M, 2nd Floor, Suite No. 552, Valamkottil Towers, Judgemukku, Thrikkakara, Kakkanad, Kochi, Kerala 682021, India",Kerala,682021,0,0,0,0,0,0,278562,1116977,88099,Ernakulam,Ernakulam,10.02923377,76.33530454,0,88099,88099,88099,88099,88099
GREEN MALABAR TRADING,"V/388C PIPELINE JUNCTION EDAPALLY, Edappally - Pukkattupady Rd, Thrikkakara, PO, Kochi, Kerala 682021, India",Kerala,682021,0,0,0,0,0,0,846,0,0,Ernakulam,Ernakulam,10.02923377,76.33530454,0,0,8.65E-11,0,0,0
HAIMA POLYMERS P.LTD.,"2FVR+QR2, Rubber Park Rd, Airapuram, Kerala 683556, India",Kerala,683556,0,0,0,0,0,0,90414,25700,0,Kunnathunad,Ernakulam,10.08312596,76.47373216,0,0,1.15E-11,0,0,0
IBIS MEDICAL EQUIPMENT,"45/279, Koothapady Road, Anjumuri, Thammanam, Anjumuri, Kuthappady, Thammanam, Kochi, Kerala 682032, India",Kerala,682032,0,0,0,0,0,0,1308,478,228228,Ernakulam,Ernakulam,9.983836255,76.31153564,0,228228,228228,228228,228228,228228
K.P.B. GLOBAL EXPORTERS PVT LTD,"48GC+GGX, Aluva - Paravoor Rd, Malikampeedika, Kerala 683511, India",Kerala,683511,0,0,0,0,0,0,2489167,4459171,6286343,Paravur,Ernakulam,10.11930699,76.29334001,0,6286343,6286343,6286343,6286343,6286343
KANGAYAM COIR CLUSTER P.LTD.,"Kangayam, Tamil Nadu, India",Tamil Nadu,682002,0,0,0,0,0,0,3753,0,12249,Kochi,Ernakulam,9.957255233,76.25402237,0,12249,12249,12249,12249,12249
KERA;LA MATCH INDUSTRIES,"2MC7+CW9, Paingottoor, Kerala 686671, India",Kerala,686671,0,0,0,0,0,0,25500,0,0,Kothamangalam,Ernakulam,10.0079791,76.69387781,0,0,6.19E-11,0,0,0
KERALA EXPORTS,"Kerala, India",Kerala,682024,0,0,0,0,0,0,6755,0,0,Ernakulam,Ernakulam,10.01888763,76.3025345,0,0,8.06E-11,0,0,0
MADATHIPARAMBIL OPTICALS,"Teejay Estate, Palarivattom Junction, Sonia Nagar, Palarivattom, Ernakulam, Kochi, Kerala 682025, India",Kerala,682025,0,0,0,0,0,0,17876,455,0,Ernakulam,Ernakulam,10.00037267,76.30783643,0,0,6.98E-11,0,0,0
MARWOOD APPARELS,"Payyal, JN, Nedungapra, Vengoor, Kerala 683545, India",Kerala,683545,0,0,0,0,0,0,1424,0,0,Kunnathunad,Ernakulam,10.10971996,76.52310977,0,0,8.59E-11,0,0,0
MERAKI LINKS,"67/5093, Door No. 17B, DD Oceano Mall, Marine Drive, Kochi, Kerala 682031, India",Kerala,682031,0,0,0,0,0,0,150,0,0,Ernakulam,Ernakulam,9.99692354,76.27468644,0,0,8.72E-11,0,0,0
NXT INNOVATIONS,"Door No 16 / 138 1st Floor, Karappillil Building Opp Margin Free Market, Pallithazham Junction, PO, Pallithazham, Mulanthuruthy, Kerala 682314, India",Kerala,682314,0,0,0,0,0,0,207,0,0,Ernakulam,Ernakulam,9.904187421,76.39910738,0,0,8.71E-11,0,0,0
PREMIUM FERRO ALLOYS LTD.,"Factory: Industrial Area, Binanipuram, Edayar, Binanipuram, Edayar, Aluva , Cochin, Kerala 683502, India",Kerala,683502,0,0,0,0,0,0,251020,195650,506790,Paravur,Ernakulam,10.08769256,76.30506273,0,506790,506790,506790,506790,506790
QUE-RICO EXIM P.LTD.,"Vengoor, P.O., Perumbavoor, Kochi, Kerala 683546, India",Kerala,683546,0,0,0,0,0,0,219565,297676,0,Kunnathunad,Ernakulam,10.1428569,76.52744881,0,0,3.19E-11,0,0,0
SEAWIND FISHERIES,"Choice Rd, near Choice company, Janatha Nagar, Palluruthy, Kochi, Kerala 682006, India",Kerala,682006,0,0,0,0,0,0,54000,0,0,Kochi,Ernakulam,9.917652552,76.27326456,0,0,3.36E-11,0,0,0
STAARLIGHT EXPORTERS,"175 2A2, Koolipalayam Ring Rd, Vigneshwara Nagar, po, Tiruppur, Tamil Nadu 2, India",Tamil Nadu,682002,0,0,0,0,0,0,391,15862,104984,Kochi,Ernakulam,9.957255233,76.25402237,0,104984,104984,104984,104984,104984
SYNTHITE INDUSTRIAL CHEMICALS LTD.,"Synthite Valley, Kadayiruppu, Kadayirippu - Pattimattom Rd, Kadayiruppu, Kadayirippu, Kerala 682311, India",Kerala,682311,0,0,0,0,0,0,23115,0,0,Kunnathunad,Ernakulam,9.986131801,76.47020598,0,0,6.43E-11,0,0,0
UNIVERSAL BIOSCIENCE,"Office no:6, Second floor, Ompalyil Building,Block Junction, Kolenchery, Kerala 682311, India",Kerala,682311,0,0,0,0,0,0,1455,0,324,Kunnathunad,Ernakulam,9.986131801,76.47020598,0,324,324,324,324,324
WINTER WOOD INTERIORS,"Edappally, Kochi, Kerala 682024, India",Kerala,682024,0,0,0,0,0,0,11300,0,0,Ernakulam,Ernakulam,10.01888763,76.3025345,0,0,7.61E-11,0,0,0
ABHILASH INDUSTRIES,"VXLI/826, Development Plot, Industrial Estate, South Kalamassery, Kalamassery, Kochi, Kerala 680104, India",Kerala,680104,0,0,0,0,0,0,0,23,9,Kalamassery,Ernakulam,10.59020143,76.05862394,3,8.999999999,9,8.999999999,8.999999998,8.999999999
AMCON TRADING INTERNATIONAL,"1st Floor, Fenster Arcade, Seaport Airport Road Vallathol Junction, Thrikkakara, Edapally, Kakkanad, Thrikkakara, Kochi, Kakkanad, Kerala 682021, India",Kerala,682021,0,0,0,0,0,0,0,137420,0,Ernakulam,Ernakulam,10.02923377,76.33530454,0,0,1.63E-10,0,0,0
ASIAN MARINE FOODS,"VI/1330, Old No. VII/464, Kochangadi, Chullickal, Kochi, Kerala 682002, India",Kerala,682002,0,0,0,0,0,0,0,493501,562066,Kochi,Ernakulam,9.957255233,76.25402237,0,562066,562066,562066,562066,562066
B.G.PACK,"Chungam, S Aduvassery Rd, North Paravur, Kunnukara, Kerala 683578, India",Kerala,683578,0,0,0,0,0,0,0,789989,2075573,Paravur,Ernakulam,10.15519784,76.30713588,0,2075573,2075573,2075573,2075573,2075573
BE FATHIMA ENTERPRISES,"3F2R+3X, Airapuram, Kerala 683556, India",Kerala,683556,0,0,0,0,0,0,0,90350,317696,Kunnathunad,Ernakulam,10.08312596,76.47373216,0,317696,317696,317696,317696,317696
BIC ASIA,"Kaprassery-Moozhiyal Rd, Nedumbassery, Kerala 683589, India",Kerala,683589,0,0,0,0,0,0,0,2720,0,Aluva,Ernakulam,10.16460714,76.36327252,0,0,8.88E-11,0,0,0
BIZZARO UNIFORMS,"G-3, National Residency Building, 449, Palarivattom - Edappally Rd, near Metro Pillar No, Bank Junction, Mamangalam, Edappally, Kochi, Kerala 682024, India",Kerala,682024,0,0,0,0,0,0,0,10774,11627,Ernakulam,Ernakulam,10.01888763,76.3025345,0,11627,11627,11627,11627,11627
BRENDOL LUBRICANTS,"59MC+9F3, Angamaly South, Angamaly, Kerala 683573, India",Kerala,683573,0,0,0,0,0,0,0,88091,291430,Aluva,Ernakulam,10.18025557,76.38579883,0,291430,291430,291430,291430,291430
BRIGHTECH INTERIORS&EXTERIORS,"Brightech interiors and exteriors pvt.ltd, Abhaya Matha Church, Vennala, Kochi, Kerala 682028, India",Kerala,682028,0,0,0,0,0,0,0,32915,51835,Ernakulam,Ernakulam,9.99670085,76.32102778,0,51835,51835,51835,51835,51835
CHANDRIKA PLYWOODS,"4C8V+QVH, Mudickal, Kerala 683547, India",Kerala,683547,0,0,0,0,0,0,0,338714,0,Kunnathunad,Ernakulam,10.09107643,76.43058616,0,0,2.73E-10,0,0,0
COASTAL CATCH LLP,"Flat No: 5I, Heera Cyber Views, Edachira, Kochi, Kakkanad, Kerala 682030, India",Kerala,682030,0,0,0,0,0,0,0,20000,34847,Ernakulam,Ernakulam,10.01507889,76.34669742,0,34847,34847,34847,34847,34847
ENVIRODESIGNS & EQUIPMENTS,"Janatha Junction, Eco Tower, Banerji Rd, Janatha, Palarivattom, Kochi, Kerala 682025, India",Kerala,682025,0,0,0,0,0,0,0,98000,12800,Ernakulam,Ernakulam,10.00037267,76.30783643,0,12800,12800,12800,12800,12800
EZY SERVE ENTERPRISES,"Eswara Seva Building, FACT Nagar, Thrippunithura, Ernakulam, Kochi, Kerala 682301, India",Kerala,682301,0,0,0,0,0,0,0,5829,0,Ernakulam,Ernakulam,9.946698107,76.34776634,0,0,9.05E-11,0,0,0
FATHIMA AGRO MILLS,"II/205 A30 A31, Kalappurakkal Building, VK Lane, Vazhakkala, Ernakulam, Vazhakkala, Kochi, Kakkanad, Kerala 682021, India",Kerala,682021,0,0,0,0,0,0,0,15500,152847,Ernakulam,Ernakulam,10.02923377,76.33530454,0,152847,152847,152847,152847,152847
FLOWMAX WATER,"Temple Rd, Eravipuram, Kottappuram, Kerala 683511, India",Kerala,683511,0,0,0,0,0,0,0,742,2640,Paravur,Ernakulam,10.11930699,76.29334001,0,2640,2640,2640,2640,2640
INDROYAL FURNITURE COMPANY P.LTD.,"GROUND FLOOR, METRO PILLER NO 293, Angels Arcade, 22, South Kalamassery, Kalamassery, Kochi, Kerala 682022, India",Kerala,682022,0,0,0,0,0,0,0,21905,0,Ernakulam,Ernakulam,10.04558227,76.34736526,0,0,9.93E-11,0,0,0
INNOVUS ENERGIEZ,"KRRA-6, Kannanthodath Road, Devankulangara, Mamangalam, Edappally, Kochi, Kerala 682024, India",Kerala,682024,0,0,0,0,0,0,0,4700,0,Ernakulam,Ernakulam,10.01888763,76.3025345,0,0,8.99E-11,0,0,0
JESMART P. LTD,"Pallithazham, Mulanthuruthy, Pallithazham, Kochi, Mulanthuruthy, Kerala 682314, India",Kerala,682314,0,0,0,0,0,0,0,84610,0,Ernakulam,Ernakulam,9.904187421,76.39910738,0,0,1.34E-10,0,0,0
JSK FASTENERS,"2C62+VV4, Chithrappuzha-Ponjassery Rd, Pallikkara, Kerala 682303, India",Kerala,682303,0,0,0,0,0,0,0,21190,22305,Kunnathunad,Ernakulam,9.999956208,76.3969864,0,22305,22305,22305,22305,22305
KALLUNGAL TRADERS,"Kallungal Ln, Periyar Nagar, Aluva, Kerala 683101, India",Kerala,683101,0,0,0,0,0,0,0,14967,36900,Aluva,Ernakulam,10.09568078,76.36233782,0,36900,36900,36900,36900,36900
KERALA IMPEX,"Kerala, India",Kerala,682024,0,0,0,0,0,0,0,54520,0,Ernakulam,Ernakulam,10.01888763,76.3025345,0,0,1.17E-10,0,0,0
KLEAN TRADE HYGENE,"Eco links Building, Ground Floor N.H.Bypass, Edappally, Kochi, Kerala 682024, India",Kerala,682024,0,0,0,0,0,0,0,48840,35432,Ernakulam,Ernakulam,10.01888763,76.3025345,0,35432,35432,35432,35432,35432
LENORE INDUSTRIES,"Adi Shankara TBI, Mattoor, Kalady, Kerala 683574, India",Kerala,683574,0,0,0,0,0,0,0,1500,0,Aluva,Ernakulam,10.18281716,76.45845345,0,0,8.81E-11,0,0,0
MADATHIL EXPORTS,"3JQ5+762, Thrikkariyoor, Kerala 686692, India",Kerala,686692,0,0,0,0,0,0,0,68062,101618,Kothamangalam,Ernakulam,10.10464985,76.5997529,0,101618,101618,101618,101618,101618
MEGAMALAI HOLDINGS,"Megamalai, Tamil Nadu, India",Tamil Nadu,682024,0,0,0,0,0,0,0,2046,0,Ernakulam,Ernakulam,10.01888763,76.3025345,0,0,8.84E-11,0,0,0
MISTY FROZEN FOODS,"63 3441, Valummel Rd, Valummel, Kochi, Kerala 682005, India",Kerala,682005,0,0,0,0,0,0,0,28000,776505,Kochi,Ernakulam,9.940253061,76.25960161,0,776505,776505,776505,776505,776505
MYSON TRADING,"Masjid Rd, Hidayath Nagar, Thrikkakara, Kalamassery, Kochi, Kerala 682032, India",Kerala,682032,0,0,0,0,0,0,0,615,14351,Ernakulam,Ernakulam,9.983836255,76.31153564,0,14351,14351,14351,14351,14351
NFENIX TOOLS LLP,"29, Unit 1, Kinfra Hi-Tech Park Main Rd, HMT Colony, North Kalamassery, Kalamassery, Kochi, Kerala 683503, India",Kerala,683503,0,0,0,0,0,0,0,694,2007,Kanayannur,Ernakulam,10.05828796,76.33715315,0,2007,2007,2007,2007,2007
ORVO EXPORTS P.LTD.,"Building No 22/A, M H Kavala Vengola,Ponjassery, Kochi, Vengola, Kerala 682037, India",Kerala,682037,0,0,0,0,0,0,0,54000,15000,Ernakulam,Ernakulam,9.997384706,76.34072476,0,15000,15000,15000,15000,15000
PAZINO INFOTECH P.LTD.,"2CGW+G3J, Kunnattunad, Kerala 683562, India",Kerala,683562,0,0,0,0,0,0,0,400,0,Aluva,Ernakulam,10.03416477,76.42900358,0,0,8.75E-11,0,0,0
PEBBLE OF TRADING,"VIII/554G, Thanikkamattom Building Kolenchery, Kochi, Kolenchery, Kerala 682311, India",Kerala,682311,0,0,0,0,0,0,0,548,0,Kunnathunad,Ernakulam,9.986131801,76.47020598,0,0,8.76E-11,0,0,0
PVM FRUITS AND VEGETABLES,"29, Market Rd, Convent Junction, Shenoys, Kochi, Kerala 682011, India",Kerala,682011,0,0,0,0,0,0,0,185,0,Ernakulam,Ernakulam,9.989242117,76.29452373,0,0,8.74E-11,0,0,0
REEFCO CONTAINER SERVICES,"PRA-43, Padivattom, Edappally, Kochi, Kerala 682024, India",Kerala,682024,0,0,0,0,0,0,0,87,0,Ernakulam,Ernakulam,10.01888763,76.3025345,0,0,8.74E-11,0,0,0
SAMSCO EXPORTS,"near Kunnathery Thikavu, Kunnathery Thikavu, Aluva, Kerala 683106, India",Kerala,683106,0,0,0,0,0,0,0,54138,197006,Aluva,Ernakulam,10.08034449,76.34267442,0,197006,197006,197006,197006,197006
SHIHAS HOLDING,"Door No.48/1258 A, near Rice Research Station, Ponnurunni, Vyttila, Kochi, Kerala 682019, India",Kerala,682019,0,0,0,0,0,0,0,23019,0,Ernakulam,Ernakulam,9.96996996,76.31541059,0,0,9.99E-11,0,0,0
SIEMEC EQUIPMENTS,"Binanipuram, Edayar, Kochi, Kerala 683502, India",Kerala,683502,0,0,0,0,0,0,0,2500,4891,Paravur,Ernakulam,10.08769256,76.30506273,0,4891,4891,4891,4891,4891
SIMPEX TRADING COMPANY,"GROUND FLOOR, PARAKKAT BUILDING, 69/908A, Sebastian Rd, Kaloor, Kochi, Kerala 682017, India",Kerala,682017,0,0,0,0,0,0,0,623,1084,Ernakulam,Ernakulam,9.994298566,76.2934562,0,1084,1084,1084,1084,1084
TEMPROZE BUSINESS ASSOICATES,"Door No. 5/202B, Chemanad, Varikoli, Post, Puthenkurish, Kochi, Thiruvaniyoor, Kerala 682308, India",Kerala,682308,0,0,0,0,0,0,0,19113,86450,Kunnathunad,Ernakulam,9.961002902,76.41611778,0,86450,86450,86450,86450,86450
TROPPY FOODS,"IX/235 - B, Manjapra P.O, Chandrapura, Manjapra, Kerala 683581, India",Kerala,683581,0,0,0,0,0,0,0,33994,38327,Aluva,Ernakulam,10.23640151,76.48074007,0,38327,38327,38327,38327,38327
UNIVERSAL PACKS,"V8V7+FCV, Kumbalam, Kochi, Kerala 682506, India",Kerala,682506,0,0,0,0,0,0,0,6006,2068,Ernakulam,Ernakulam,9.90249192,76.31610951,0,2068,2068,2068,2068,2068
VALGA COATS,"Plot no-27, sidco industrial Area, Angamaly, Kerala 683572, India",Kerala,683572,0,0,0,0,0,0,0,2880,0,Paravur,Ernakulam,10.19338331,76.38335939,0,0,8.89E-11,0,0,0
VICTORY SALES ASSOCIATES,"Sreekala Rd, Vennala, Ernakulam, Kochi, Kerala 682028, India",Kerala,682028,0,0,0,0,0,0,0,350,0,Ernakulam,Ernakulam,9.99670085,76.32102778,0,0,8.75E-11,0,0,0
WADAKKANCHERY SILK GARDEN P.LTD.,"Wadakkanchery, Kerala, India",Kerala,682002,0,0,0,0,0,0,0,185375,426300,Kochi,Ernakulam,9.957249312,76.25405361,0,426300,426300,426300,426300,426300
ZODIAC ADVERTISERS,"5TH FLOOR, Zodiac Square, Sahodaran Ayyappan Rd, near KADAVANTHRA JUNCTION, Kadavanthra, Kochi, Kerala 682020, India",Kerala,682020,0,0,0,0,0,0,0,100,0,Ernakulam,Ernakulam,9.968617363,76.30114695,0,0,8.74E-11,0,0,0
A.A. EXPORTS,"X772+4RX, Pullupalam Rd, Mattancherry, Kochi, Kerala 682002, India",Kerala,682002,0,0,0,0,0,0,0,0,28850,Kochi,Ernakulam,9.957249312,76.25405361,0,28850,28850,28850,28850,28850
AGUA ENGINEERING,"6985+4VH Agua Engineering, Peechanicadu, Angamaly, Kerala 683572, India",Kerala,683572,0,0,0,0,0,0,0,0,1660,Paravur,Ernakulam,10.19338331,76.38335939,0,1660,1660,1660,1660,1660
AL-HASANAATH GLOBAL,"I-289/A,M.S. Lane Adivaram, N.A.D.P.O, Aluva - 683 563, Edathala, Kerala 683563, India",Kerala,683563,0,0,0,0,0,0,0,0,528046,Aluva,Ernakulam,10.07525406,76.36353904,0,528046,528046,528046,528046,528046
AMK TRADERS,"4614, Market Rd, Shenoys, Kochi, Kerala 682031, India",Kerala,682031,0,0,0,0,0,0,0,0,17651,Ernakulam,Ernakulam,9.99692354,76.27468644,0,17651,17651,17651,17651,17651
AQUASTAR MARINE EXPORTS,"39-3633, E-1, 4th Landmark Enclave, Valanjambalam, Kochi, Kerala 682016, India",Kerala,682016,0,0,0,0,0,0,0,0,1125084,Ernakulam,Ernakulam,9.965478431,76.28734182,0,1125084,1125084,1125084,1125084,1125084
ARRIKAR FOODS P.LTD.,"Perumbavoor, 19/636, Koovappady, Kerala 683544, India",Kerala,683544,0,0,0,0,0,0,0,0,328972,Kunnathunad,Ernakulam,10.16667257,76.50774668,0,328972,328972,328972,328972,328972
AVANI AGRO MILLS,"6FHC+R8W, Kollakode, Ayyampuzha, Kerala 683581, India",Kerala,683581,0,0,0,0,0,0,0,0,78000,Aluva,Ernakulam,10.23640151,76.48074007,0,78000,78000,78000,78000,78000
BAY FILED FOOD INGRDIENTS P.LTD.,"XXV/578F1, 4th Floor, Pathicheril Enclave Kalamassery, Eranakulam, South Kalamassery, Edappally, Kochi, Kerala 682033, India",Kerala,682033,0,0,0,0,0,0,0,0,525,Kanayannur,Ernakulam,10.04308069,76.31714246,0,525,525,525,525,525
BLUE HAWK TRADING LLP,"Door no. 2, Padinjarechalil (H, 286, PBK Myna Rd, Vazhakkala, Kochi, Kakkanad, Kerala 682021, India",Kerala,682021,0,0,0,0,0,0,0,0,1768,Ernakulam,Ernakulam,10.02933084,76.33528702,0,1768,1768,1768,1768,1768
CADILLAC AUTOMATION&CONTROLS,"Cadillac Square,Ground Floor, Metro Pillar 333, August Nursing home road, behind Axis Bank, Changampuzha Nagar, P.O, Kalamassery, Ernakulam, Kochi, Kerala 682033, India",Kerala,682033,0,0,0,0,0,0,0,0,2825,Kanayannur,Ernakulam,10.04308069,76.31714246,0,2825,2825,2825,2825,2825
CONTINENTAL EXPORTS EMPIRE ,"5F84+HJQ, Kalady Cheranaloor Rd, Onampilly, Kerala 683544, India",Kerala,683544,0,0,0,0,0,0,0,0,7504,Kunnathunad,Ernakulam,10.16667257,76.50774668,0,7504,7504,7504,7504,7504
DITEYA EXPORTS,"Tharayil Building TC: 65/1873A Ground Floor Thekkumtala Road, PO, Kaloor, Ernakulam, Kochi, Kerala 682017, India",Kerala,682017,0,0,0,0,0,0,0,0,535,Ernakulam,Ernakulam,9.994298566,76.2934562,0,535,535,535,535,535
ELECTRO TRADING CORPORATION,"No:58, 9449, Narakathara Rd, off Mahatma Gandhi Road, opposite Shenoys, Shenoys Junction, Shenoys, Kochi, Kerala 682035, India",Kerala,682035,0,0,0,0,0,0,0,0,838,Ernakulam,Ernakulam,9.979283159,76.28271734,0,838,838,838,838,838
EURANAUS PLY AND BOARDS LLP   ,"Nooleli Rd, Odakkali, Kerala 683549, India",Kerala,683549,0,0,0,0,0,0,0,0,510500,Kunnathunad,Ernakulam,10.10500877,76.5479105,0,510500,510500,510500,510500,510500
EXOTIC WOOD ZONE INDIA,"Exotic Wood Zone India Ground Floor, 8/2549, Panakkal Building, MK Raghavan Rd, Pandikudy, Fort Kochi, Kochi, Kerala 682002, India",Kerala,682002,0,0,0,0,0,0,0,0,57000,Kochi,Ernakulam,9.957249312,76.25405361,0,57000,57000,57000,57000,57000
FABDEC INTERIORS,"28/60, Peechampilly Rd, P.O, Thrikkakara, Vazhakkala, Kochi, Kakkanad, Kerala 682021, India",Kerala,682021,0,0,0,0,0,0,0,0,51000,Ernakulam,Ernakulam,10.02933084,76.33528702,0,51000,51000,51000,51000,51000
FIRMER IMPEX ETERPRISES,"282G+MR3, Dr Ambedkar Rd, Vennala, Kochi, Kerala 682028, India",Kerala,682028,0,0,0,0,0,0,0,0,1905,Ernakulam,Ernakulam,9.99670085,76.32102778,0,1905,1905,1905,1905,1905
G.R.ACCOUSTICS P.LTD.,"147, PJ Antony Rd, Sonia Nagar, Palarivattom, Kochi, Kerala 682025, India",Kerala,682025,0,0,0,0,0,0,0,0,1292,Ernakulam,Ernakulam,10.00037267,76.30783643,0,1292,1292,1292,1292,1292
GRYND FRESH,"12/266, Kundannoor - Willingdon Island Rd, Maradu North, Maradu, Kochi, Kerala 682304, India",Kerala,682304,0,0,0,0,0,0,0,0,24398,Ernakulam,Ernakulam,9.938877707,76.32558968,0,24398,24398,24398,24398,24398
INFINITY TRADING COMPANY,"Triveni Courtt, Opp: Reliance Fresh, KP Vallon Rd, Giri Nagar, Kadavanthra, Kochi, Kerala 682020, India",Kerala,682020,0,0,0,0,0,0,0,0,5185,Ernakulam,Ernakulam,9.968617363,76.30114695,0,5185,5185,5185,5185,5185
J.J. POLYMERS,"p.o, Kuttamassery, Thottumugham, Aluva, Kerala 683105, India",Kerala,683105,0,0,0,0,0,0,0,0,12300,Kunnathunad,Ernakulam,10.09428854,76.41706858,0,12300,12300,12300,12300,12300
JASPER PHYTOEXTRACTS,"VII/109, VALLIKADA, BUILDING, Arakuzha Rd, Thottumkalpeedika, Muvattupuzha, Kerala 686673, India",Kerala,686673,0,0,0,0,0,0,0,0,13660,Muvattupuzha,Ernakulam,9.985828574,76.58100003,0,13660,13660,13660,13660,13660
KAVITHA POLY PACK,"Rayamangalam, Keezhillam - Kurichilacode Rd, Perumbavoor, Panikarambalam, Kerala 683545, India",Kerala,683545,0,0,0,0,0,0,0,0,2931,Kunnathunad,Ernakulam,10.10971889,76.52311181,0,2931,2931,2931,2931,2931
LUMEN SURGICALS,"X/135B, K N Krishnankutty Arcade, Vattakunnu, Chottanikkara, Ernakulam, Kerala 682312, India",Kerala,682312,0,0,0,0,0,0,0,0,20,Kanayannur,Ernakulam,9.931121969,76.39003445,0,20,20,20,20,20
MALAYALAM VEHICLES INDIA P.LTD.,"No 52/3171, 3172, Sharon Tower, opposite Salafi Masjid, Vyttila, Ernakulam, Kochi, Kerala 682019, India",Kerala,682019,0,0,0,0,0,0,0,0,290,Ernakulam,Ernakulam,9.96996996,76.31541059,0,290,290,290,290,290
MEGHA GRANITES,"2FVJ+XF8, Unnamed Road, Mazhuvannoor, Kerala 683556, India",Kerala,683556,0,0,0,0,0,0,0,0,81548,Kunnathunad,Ernakulam,10.08312596,76.47373216,0,81548,81548,81548,81548,81548
MR.COOK PRIME STORE,"49Q3+487, Kochi, Kerala 683102, India",Kerala,683102,0,0,0,0,0,0,0,0,7661,Aluva,Ernakulam,10.12071197,76.33862615,0,7661,7661,7661,7661,7661
NATURAL SPICES TRADING COMPANY,"387/ B KARIPUZA KARIPUZA MASJID, P.O, Panayikulam, Aluva, Kerala 683511, India",Kerala,683511,0,0,0,0,0,0,0,0,164200,Paravur,Ernakulam,10.11930699,76.29334001,0,164200,164200,164200,164200,164200
NEDIYAMALA BASMATI AND SPICES,"Masjid Road Market P O, near Central Juma Masjid, Muvattupuzha, Kerala 686673, India",Kerala,686673,0,0,0,0,0,0,0,0,71000,Muvattupuzha,Ernakulam,9.985828574,76.58100003,0,71000,71000,71000,71000,71000
NEDUMCHALIL PRINT GRAPHS,"Nedumchalil Near Beverages outlet, SH 1, opposite SBI, Muvattupuzha, Kerala 686669, India",Kerala,686669,0,0,0,0,0,0,0,0,377,Kunnathunad,Ernakulam,10.00732105,76.52791991,0,377,377,377,377,377
NILAMBUR FURNITURE,"SN Junction, 25, opp. ESAF Bank, Palarivattom, Kochi, Kerala 682025, India",Kerala,682025,0,0,0,0,0,0,0,0,21755,Ernakulam,Ernakulam,10.00037267,76.30783643,0,21755,21755,21755,21755,21755
NKA FRUITS,"Market Rd, Kacheripady, Ernakulam, Kochi, Kerala 682031, India",Kerala,682031,0,0,0,0,0,0,0,0,22000,Ernakulam,Ernakulam,9.99692354,76.27468644,0,22000,22000,22000,22000,22000
OOTY TEA COMPANY,"Ooty, Tamil Nadu, India",Tamil Nadu,682024,0,0,0,0,0,0,0,0,4240,Ernakulam,Ernakulam,10.01888763,76.3025345,0,4240,4240,4240,4240,4240
PACKMEN MACHINERIES P.LTD.,"683572, Karukutty – Moozhikulam Rd, Puliyanm, Kerala 683572, India",Kerala,683572,0,0,0,0,0,0,0,0,4575,Paravur,Ernakulam,10.19338331,76.38335939,0,4575,4575,4575,4575,4575
PARAKKADANS AGRO MILLS,"7CFP+J8J, Edalakadu Ezhattumugham Rd, Kerala 683581, India",Kerala,683581,0,0,0,0,0,0,0,0,74000,Aluva,Ernakulam,10.23640151,76.48074007,0,74000,74000,74000,74000,74000
PEEKAY IN STORE,"No. 9, Service Rd, Padivattom, Edappally, Kochi, Kerala 682024, India",Kerala,682024,0,0,0,0,0,0,0,0,142,Ernakulam,Ernakulam,10.01888763,76.3025345,0,142,142,142,142,142
PROSNOOKERS,"Pai Brothers Lane, Mahatma Gandhi Rd, Padma Junction, Shenoys, Ernakulam, Kochi, Kerala 682035, India",Kerala,682035,0,0,0,0,0,0,0,0,1775,Ernakulam,Ernakulam,9.979283159,76.28271734,0,1775,1775,1775,1775,1775
RED SHIPEX TECHNOLOGIES,"2nd floor, Sunu Plaza, Maradu, Ernakulam, Kochi, Kerala 682304, India",Kerala,682304,0,0,0,0,0,0,0,0,10479,Ernakulam,Ernakulam,9.938877707,76.32558968,0,10479,10479,10479,10479,10479
SURABHI INNOVATION,"SH 1, Vengoor, Angamaly, Kerala 683572, India",Kerala,683572,0,0,0,0,0,0,0,0,45000,Paravur,Ernakulam,10.19338331,76.38335939,0,45000,45000,45000,45000,45000
TATEZ FOODS ,"Kolenchery - Mazhuvannoor Road, Kadayirippu, Aikaranad North, Kerala 682311, India",Kerala,682311,0,0,0,0,0,0,0,0,393853,Kunnathunad,Ernakulam,9.986131801,76.47020598,0,393853,393853,393853,393853,393853
TATEZ FOODS,"Kolenchery - Mazhuvannoor Road, Kadayirippu, Aikaranad North, Kerala 682311, India",Kerala,682311,0,0,0,0,0,0,0,0,54704,Kunnathunad,Ernakulam,9.986131801,76.47020598,0,54704,54704,54704,54704,54704
UDAYA SAW MILLS AND TIMBER INDUSTRIES,"Mudickal - Vanchinadu Road, Mudickal, Kerala 683547, India",Kerala,683547,0,0,0,0,0,0,0,0,28300,Kunnathunad,Ernakulam,10.09107643,76.43058616,0,28300,28300,28300,28300,28300
