Exporter Name,Address,State,pin,2015,2016,2017,2018,2019,2020,2021,2022,2023,Taluk,District,Latitude,Longitude,Cluster,2024,2025,2026,2027,2028
A.M.FISHERIES,"98WW+WWQ, Valanjavazhy, Ambalapuzha, Kerala 688005, India",Kerala,688005,1374800,1961480,2034720,3308895,2385049,1697278,2512818,3724210,3315054,Ambalappuzha,Alappuzha,9.40768399,76.35170703,0,2788404.148,2571783.303,2683279.7,2802555.491,2814303.24
AAZRA MARINE INDUSTRIES,"Bharath Sea Foods Complex, Chandiroor, Alleppey, Kerala 688547, India",Kerala,688547,359290,154585,164533,374660,48000,0,0,0,0,Chandiroor,Alappuzha,9.765011083,76.36738138,0,2090.842258,1603.04136,0,1607.433927,1313.843156
ACCELERATED FREEZE DRYING CO LTD.,"Accelerated Freeze Drying Co. Ltd. (AFDC, R7CX+HQ6 P.O, Eramallur Ezhupunna Rd, Eramalloor, Ezhupunna, Kerala 688537, India",Kerala,688537,237764,397922,497486,1190201,1061663,655166,892804,1604885,1791322,Cherthala,Alappuzha,9.82172572,76.30522974,0,1691722.701,1743167.18,1741483.43,1756794.511,1754136.135
ALEX MACHINES,"P838+CP5, Kottaram Jn. Rd, Kadakkarappally, Kerala 688529, India",Kerala,688529,9500,0,0,0,0,0,0,0,0,Cherthala,Alappuzha,9.705020973,76.30966751,0,7.817164783,7.975534157,8.069322365,7.286311502,7.910320837
ALLAKKAT INTERNATIONAL,"P.O, Kommady, Thumpoly, Alappuzha, Aryad South, Kerala 688008, India",Kerala,688008,7312,25848,20712,108918,364857,267992,185969,145967,246893,Ambalapuzha,Alappuzha,9.521471733,76.3244164,0,242647.8778,244570.9967,245529.6707,245601.9312,244548.9293
ALLEPPEY CO. LTD.,"Alappuzha, Kerala, India",Kerala,688534,4420479,6209642,5164523,5699132,5264683,4868005,5257371,3189816,2040828,Cherthla,Alappuzha,9.871729377,76.30438504,0,3190987.195,3174382.721,3164507.477,3158490.75,3149631.471
ANCHUTHARA FOOD PRODUCTS,"MLA Rd, Poochakkal, Cherthala, Panavally, Kerala 688526, India",Kerala,688526,125309,148841,235584,133054,23109,194717,97182,76726,66718,Cherthala,Alappuzha,9.806103367,76.35243925,0,67027.44796,66899.85516,66746.42583,67157.58887,66975.70413
AQUA GENO EXIM,"V872+GG9, Keltron Rd, Aroor gram panchayat, Kochi, Kerala 688534, India",Kerala,688534,869736,1312747,1616572,1407420,586870,1100174,2182268,1430007,903955,Cherthla,Alappuzha,9.871729377,76.30438504,0,867432.0539,911995.2017,908335.033,905501.0322,900922.8833
ASHJOE COLD CHAIN ESTABLISHMENT,"Road, Aroor gram panchayat, Kochi, Kerala 688534, India",Kerala,688534,1883,0,0,0,0,0,0,0,0,Cherthla,Alappuzha,9.871729377,76.30438504,0,7.817164783,7.975534157,8.069322365,7.286311502,7.910320837
ATLANTIC CARE CHEMICALS,"Industrial development plot, Punnapra North, Alappuzha, Kerala 688003, India",Kerala,688003,1197608,1122836,1410666,919697,1150553,829772,1163489,1556112,1200961,Ambalapuzha,Alappuzha,9.468575348,76.33827431,0,1158182.005,1166968.864,1169282.91,1164948.144,1177539.323
BABU COIR WORKS,"Pathirappally Omanappuzha Road, Pattukalam, Alappuzha, Kerala 688522, India",Kerala,688522,952546,788299,930585,1134556,956257,1165199,1539315,1006202,1314481,Ambalapuzha,Alappuzha,9.572168203,76.32190507,0,1296305.05,1335214.487,1322099.707,1318394.408,1321762.432
BROS INDIA GROUP,"J9C6+WCC, Kayippuram, Muhamma, Kerala 688525, India",Kerala,688525,269601,281284,162195,146602,113391,241360,348723,365227,325570,Cherthala,Alappuzha,9.619357623,76.35883995,0,325732.85,323820.341,324304.847,324572.7474,324632.8835
BUSTHAN AL WATHANIYA,"P9V4+QVH, Pallipuram, Kerala 688541, India",Kerala,688541,1034734,1111428,1105461,818131,488107,507506,487014,527820,201081,Cherthala,Alappuzha,9.742432095,76.36193387,0,191930.7672,189090.1877,194255.8255,192200.8198,192942.1644
CAT COIR,"Coir park 1 Thiruvizha North Road, Post, Mayithara, Cherthala South, Kerala 688539, India",Kerala,688539,143863,0,0,0,0,0,0,0,0,Cherthala,Alappuzha,9.664282889,76.34121378,0,0,146.3177037,0,18.17851368,0
CHARANKATTU COIR MFG.CO.P.LTD.,"AS Road, J84M+GF5, Kanjikuzhy, Shertallay, Kerala 688524, India",Kerala,688524,891951,955612,1131406,1103900,1177853,945297,550028,520763,656219,Cherthala,Alappuzha,9.689101163,76.3328507,0,658919.7008,653046.7369,649037.8102,653930.9926,644811.4287
CHERUKATTU INDUSTRIES,"V8C7+3QX Cherukattu Industries, Aroor gram panchayat, Kochi, Kerala 688534, India",Kerala,688534,4773530,3710012,4801189,3224544,1616900,1333679,1467950,758625,556020,Cherthla,Alappuzha,9.871729377,76.30438504,0,755649.3847,644778.8468,627206.7807,583491.1335,612495.5854
CLASSIC COIR FACTORY,"IV/833, MSP, Valavanad, Pollethai, Alappuzha, Kerala 688522, India",Kerala,688522,1141146,1153699,2037420,1963471,2912157,1792341,4643823,1473757,1759857,Ambalapuzha,Alappuzha,9.572168203,76.32190507,0,1762486.202,1669575.531,1686525.264,1738696.162,1712320.577
COCHIN COSMOS FOODS LTD.,"Kochi, Kerala, India",Kerala,688524,131200,178220,64000,63000,122600,50000,103000,56125,75000,Cherthala,Alappuzha,9.689101163,76.3328507,0,74734.43314,74811.73337,74787.27316,74935.25073,75025.3778
COCHIN FROZEN FOOD EXPORTS P. LTD.,"Kochi, Kerala, India",Kerala,688534,1459122,1655089,2573128,2995866,1846186,1520098,825194,322699,49492,Cherthla,Alappuzha,9.871729377,76.30438504,0,168879.4045,131151.1841,86176.37209,86371.34032,124245.363
COCO  FIBRE TEX,"G83H+F9Q, Aarattuvazhi, Kanjiramchira, Aryad South, Alappuzha, Kerala 688007, India",Kerala,688007,2935736,3410310,3501333,3392388,4147347,2929253,5330246,3877303,5084111,Ambalapuzh A,Alappuzha,9.510326071,76.32687786,0,7768747.381,7750214.064,7803923.292,7788314.268,7772347.464
COIR FLEX,"Building No.X11, Pattanakkad, Cherthala, Pattanakkad, Kerala 688531, India",Kerala,688531,734777,748190,851413,730777,749965,770176,1124961,842077,787539,Cherthala,Alappuzha,9.725622914,76.31563822,0,792812.5148,791314.6021,791400.9144,781648.374,785148.9946
COIR FLOOR FURNISHING CO.,"Kalyan Villa, Vellakinar Rd, Vellakkinar, Alappuzha, Kerala 688001, India",Kerala,688001,9908,6800,12800,7489,6107,0,9100,3506,6158,Ambalapuzha,Alappuzha,9.496383919,76.33209265,0,6146.098691,6143.581864,6092.739153,6157.991951,6155.167027
COIR MATES INDIA,"TP-12/498K, Varanad PO, Cherthala, Pin: 688539, Alappuzha, Cherthala, Kerala 688524, India",Kerala,688539,128449,132356,137397,203908,213406,187355,175846,191626,116995,Cherthala,Alappuzha,9.664282889,76.34121378,0,117999.9358,117411.4032,118010.8534,117411.0009,117020.062
COMET EXPORTS,"J88R+699, Kanjikuzhy, Kanjikkuzhi, Kerala 688525, India",Kerala,688525,668449,390157,305216,362471,268197,228331,320840,229223,217167,Cherthala,Alappuzha,9.619357623,76.35883995,0,211213.411,210988.9023,212322.9413,211479.9726,211196.078
D.C. MILLS,"Valavanadu, Kalavoor P.O., Kanjikuzhy, Ward 1, Alappuzha, Kerala 688522, India",Kerala,688522,327255,206232,105008,50151,29687,43837,0,0,0,Ambalapuzha,Alappuzha,9.572168203,76.32190507,0,1433.324569,840.6036165,304.0750923,246.390582,961.4022319
DREAMS EXPORTS,"7G3C+5GX, Thattarambalam, Mavelikara, Kannamangalam North, Kerala 690103, India",Kerala,690103,63634,0,0,20661,0,8240,6425,0,15636,Mavelikkara,Alappuzha,9.250708,76.51850396,0,15330.77161,15558.72823,15534.93525,15552.58791,15523.36699
EASTERN RUG MILLS,"CCSB Rd, Civil Station Ward, Alappuzha, Kerala 688001, India",Kerala,688001,139500,189521,122600,97521,125718,72676,158641,58391,47641,Ambalapuzha,Alappuzha,9.496383919,76.33209265,0,47693.2891,47561.84602,47273.97891,47366.5279,47181.05495
FEBIN MARINE FOODS,"Eramalloor,, Chandiroor, Alappuzha, Kerala 688537, India",Kerala,688537,1025711,1191635,1975858,2177302,1603077,1925676,1713297,1968917,1931880,Cherthala,Alappuzha,9.82172572,76.30522974,0,1951640.146,1893712.772,1898880.475,1938712.75,1932814.058
FIBER WONDERS,"M899+27Q Perumpara Juction, Po, Kuruppan Kulangara, Cherthala, Cherthala South, Kerala 688539, India",Kerala,688539,607660,631654,640570,1145128,1222181,1291428,1088561,940280,1466591,Cherthala,Alappuzha,9.664282889,76.34121378,0,1473203.995,1447424.676,1460399.644,1472212.229,1475849.698
FIBRE WORLD,"S.N.V. Road, Kannadikavala, Aryakara, Muhamma, Kerala 688525, India",Kerala,688525,5319908,5890454,6303410,6034021,7056345,5459040,7295257,8110817,8914568,Cherthala,Alappuzha,9.619357623,76.35883995,0,10514985.95,10536703.59,10541340.08,10542771.34,10539794.51
FOAM MATTINGS INDIA LTD.,"beach, Civil Station Ward, Alappuzha, Kerala 688012, India",Kerala,688012,21414,45613,7571,0,7497,0,8161,0,0,Ambalapuzha,Alappuzha,9.490780479,76.32486257,0,8.929050757,7.975534157,9.132408295,7.286311502,7.910320837
FOODCO DELICASIES INDIA P.LTD.,"R8MQ+C3G, Cherthala - Arookutty Rd, Panavally, Kerala 688526, India",Kerala,688526,886832,1146108,1041544,449007,116411,0,0,0,177573,Cherthala,Alappuzha,9.806103367,76.35243925,0,176028.557,183848.9049,181283.9512,180647.3342,176463.0449
FRIENDS MARINE INDUSTRIES,"R8C3+Q4R Between konkery bridge and Railway cross, Vattathara, Ezhupunna, Kerala 688537, India",Kerala,688537,356920,325700,421164,368550,250700,160372,621494,733560,511870,Cherthala,Alappuzha,9.82172572,76.30522974,0,513655.0424,515031.0256,515687.4514,516385.9274,517076.7
G.K.S BUSINESS ASSOCIATES,"GKS COMPLEX, 4/450 , AROOKUTTY FERRY ROAD , AROOR 688534, Aroor gram panchayat, Kochi, Kerala 688534, India",Kerala,688534,2079372,1709738,1532460,1493552,1720703,4568320,3250417,3518061,2290801,Cherthla,Alappuzha,9.871729377,76.30438504,0,1833394.946,1919257.965,1907562.482,1879918.965,1843569.666
GRAND MARINE FOODS,"II/750A, Industrial Development Area, Aroor gram panchayat, Kochi, Kerala 688534, India",Kerala,688534,2555566,3384406,4562248,3752211,3049601,2050189,2992720,2872575,2119800,Cherthla,Alappuzha,9.871729377,76.30438504,0,1548059.486,1626772.805,1676443.742,1698741.022,1735458.697
HIC-ABF SPECIAL FOODS P.LTD.,"Project Colony Road, Industrial Development Area, Aroor, Aroor gram panchayat, Kochi, Kerala 688534, India",Kerala,688534,649689,511180,777811,795113,1079221,537258,416524,865475,1156318,Cherthla,Alappuzha,9.871729377,76.30438504,0,1115428.418,1142139.801,1142284.626,1138918.277,1152485.174
HIGH SEAS EXIM,"National Highway 47, Chandiroor, Kerala 688535, India",Kerala,688535,1912818,1509293,2075214,2523085,1897481,1779017,1269460,1267645,802583,Cherthala,Alappuzha,9.8564922,76.32294532,0,922551.1338,941235.1555,957223.3967,940000.5275,928130.0235
INTEGRATED RUBIAN EXPORTS LTD.,"V8P2+375, Aroor gram panchayat, Kochi, Kerala 688534, India",Kerala,688534,554490,93270,21934,0,0,0,0,0,0,Cherthla,Alappuzha,9.871729377,76.30438504,0,0,493.5985864,236.637397,1779.32431,687.4568262
J.B.C. INTERNATIONAL,"SN Junction , Kayal Road Muhamma, J988+P9V, Post, Aryakara, Alappuzha, Muhamma, Kerala 688525, India",Kerala,688525,147911,217221,223286,411215,603350,563298,692253,1006174,998514,Cherthala,Alappuzha,9.619357623,76.35883995,0,994520.6677,1003743.092,1003612.573,998624.451,998837.2145
JANATHA POLYMERS,"6HWM+972, Kochalummoodu, Vettiyar, Mavelikara, Kerala 690108, India",Kerala,690108,34655,2050,51549,18,315,367,47112,48237,2850,Mavelikkara,Alappuzha,9.249809575,76.57720714,0,3039.775385,2978.608567,2985.136994,3008.982522,3149.641216
JANSONS BALERS,"F8PQ+R47, Municipal Stadium Ward, Vellakkinar, Alappuzha, Kerala 688011, India",Kerala,688011,1823229,1616034,1505947,1353415,1006784,1035027,1139326,1202181,1163916,Ambalapuzha,Alappuzha,9.494271705,76.34375953,0,1148046.951,1143075.127,1166130.644,1167707.448,1184421.058
JAYAKRISHNA COIRS,"Kalavamkodam Post Office, Thankey Jn. - Saktheeshwaram, Alappuzha, Kerala 688524, India",Kerala,688524,41500,47472,0,12224,15031,62795,197411,219496,316618,Cherthala,Alappuzha,9.689101163,76.3328507,0,317110.1208,316816.1958,314308.032,316346.0866,316658.5605
JAYASREE COIR MILLS,"Thanneermukkom Alleppey, Verungumchuvad, Cherthala, Thanneermukkom, Kerala 688527, India",Kerala,688527,33430,122287,93955,132669,323700,466774,195372,183061,85578,Cherthala,Alappuzha,9.663949955,76.37130391,0,85299.63728,84975.52495,85717.32363,86150.22427,85213.16937
JEMSONS STARCH AND DERIVATIVES ,"V7PW+VQF, Aroor gram panchayat, Kochi, Kerala 688534, India",Kerala,688534,46090,25000,18000,36000,54000,0,12058,0,0,Cherthla,Alappuzha,9.871729377,76.30438504,0,6.976642146,19.21311014,17.06661403,1.181771179,1.304587614
JR EXPORT INDUSTRIES,"CCSB Rd, Kodiveedu, Alappuzha, Kerala 688001, India",Kerala,688001,140718,154254,110080,257481,150239,71067,168270,67006,24094,Ambalapuzha,Alappuzha,9.496383919,76.33209265,0,23693.41571,24293.79852,24107.44486,24283.61046,24266.5754
KALPAKA EXPORTS,"C942+67H, Neerkunnam, Vandanam, Kerala 688005, India",Kerala,688005,378399,294032,141736,67000,105148,0,0,0,0,Ambalappuzha,Alappuzha,9.40768399,76.35170703,0,0,0,0,0,2242.731621
KALYAN SILKS TRICHUR P.LTD.,"Thrissur, Kerala, India",Kerala,688534,771,0,0,51544,37271,37548,80766,74978,73173,Cherthla,Alappuzha,9.871729377,76.30438504,0,73227.74371,73284.75897,73219.20698,73035.07796,73074.60681
KEMTECH EXPORTS,"M8QW+X2C, Nedumbrakkad, Alleppey, Cherthala, Kerala 688524, India",Kerala,688524,65837,66154,178771,223551,287862,259480,350621,299515,153132,Cherthala,Alappuzha,9.689101163,76.3328507,0,153532.6899,153916.3072,153113.1948,154029.5681,153547.4062
KERA PALM CREATIONS,"Poonthope Ward, Rahul Nivas, Kommady, Alappuzha, Aryad South, Kerala 688006, India",Kerala,688006,80611,70680,60460,64450,75895,48361,82390,70385,79722,Ambalapuzha,Alappuzha,9.525584704,76.33896854,0,79272.77793,79331.0196,79632.97269,79576.59041,79626.24037
KERALA AGRO MACHINERY CORPN. LTD.,"Kerala, India",Kerala,688524,44100,0,38000,6000,41480,41550,32590,0,0,Cherthala,Alappuzha,9.689101163,76.3328507,0,46.64775649,12.92942142,10.84512154,0.770018223,3.620929223
KERALA BALERS LTD.,"G89H+M6C, Kommady, Kaichoondi, Alappuzha, Aryad South, Kerala 688008, India",Kerala,688008,4826055,4118452,4466996,5303235,4398811,4264842,4961695,3123138,3063591,Ambalapuzha,Alappuzha,9.521471733,76.3244164,0,4366991.889,4263987.012,4253351.873,4244247.184,4276074.369
KERALA CARDAMOM PROCESSING & MKTG.CO.LTD,"Kerala, India",Kerala,688534,200000,64000,86250,73160,0,29920,129215,146541,115394,Cherthla,Alappuzha,9.871729377,76.30438504,0,114376.6353,114506.8172,114654.771,115141.6571,114740.4128
KERALA DINESH BEEDI WORKERS,"Kerala, India",Kerala,688534,7547,9075,6750,5102,9823,0,0,7591,5948,Cherthla,Alappuzha,9.871729377,76.30438504,0,6144.986805,6127.189765,6091.676067,6130.942539,6087.489599
KERALA HOME FOOD STUFF EXPORT,"Kerala, India",Kerala,688534,627655,632635,392616,507897,306565,257160,180734,203756,222465,Cherthla,Alappuzha,9.871729377,76.30438504,0,220783.5029,222940.3926,221859.4041,220411.344,217698.1825
KERALA MINERALS & METALS LTD.,"Kerala, India",Kerala,688534,1596980,2807800,2747992,4154057,2578227,2621102,2615108,2328060,2061400,Cherthla,Alappuzha,9.871729377,76.30438504,0,2569527.865,2472220.153,2497079.918,2513732.041,2445840.994
KERALA RUBBER & RECLAIMS LTD.,"Kerala, India",Kerala,688524,28000,0,0,0,0,0,0,0,0,Cherthala,Alappuzha,9.689101163,76.3328507,0,7.817164783,8.855354979,4.865923782,5.904511567,1.304587614
KERALA STATE CO-OP.RUBBER MKT.FED.LTD.,"Kerala, India",Kerala,688534,5664,0,0,0,0,0,0,0,0,Cherthla,Alappuzha,9.871729377,76.30438504,0,7.817164783,7.975534157,8.069322365,7.286311502,7.910320837
KERALA STATE COIR CORPN.LTD.,"F8WJ+464, CCNB Rd, Market Ward, Alappuzha, Kerala 688001, India",Kerala,688001,226044,922870,865017,795278,977976,1665167,1847586,1725224,1034388,Ambalapuzha,Alappuzha,9.496383919,76.33209265,0,1107075.849,1084935.995,1082865.577,1064791.632,1101140.881
KOTTAKKAL AYUR THERAPIES P.LTD.,"Kottakkal, Kerala, India",Kerala,688534,25000,0,0,0,0,0,0,0,0,Cherthla,Alappuzha,9.871729377,76.30438504,0,7.817164783,7.829671223,4.865923782,5.904511567,1.304587614
KUTHIATHODE COIR MATS&MATTING CO-OP.SOCIETY LTD.,"Kuthiathodu, Kodamthuruth, Kerala, India",Kerala,688534,18823,40511,61665,16000,0,0,0,0,0,Cherthla,Alappuzha,9.871729377,76.30438504,0,7.164756432,6.618337457,5.022974254,6.489821057,6.327025466
KUTTANADU COIR&RUBBER PRODUCTS,"Kuttanad, Kuttanad Taluk, Kerala",Kerala,688534,272143,13258,66560,0,0,0,0,0,0,Cherthla,Alappuzha,9.871729377,76.30438504,0,1999.907116,290.6433193,350.3116999,299.1716384,321.1183524
LORDS EXPORTS,"CMC-3/79H, Madakkan's Building, North of Manorama Junction, Cherthala, Velorvattom, Alappuzha, Cherthala, Kerala 688524, India",Kerala,688524,55510,99735,48342,34531,89081,139792,204358,59524,141719,Cherthala,Alappuzha,9.689101163,76.3328507,0,142042.8548,142015.7816,142050.576,141636.1285,141986.0592
MAK PLYWOOD INDUSTRIES PVT LTD,"QV5R+P72, Thalapady JHC, Kinya, Kerala 575023, India",Kerala,688524,36300,0,0,0,0,97,0,0,0,Cherthala,Alappuzha,9.689101163,76.3328507,0,7.817164783,8.855354979,4.865923782,5.904511567,1.304587614
MAROTTIKKAL COIR WORKS,"Cherthala - Arookutty Rd, South, Poochakkal, Kerala 688526, India",Kerala,688526,186300,13250,0,0,21417,73059,207176,65824,139005,Cherthala,Alappuzha,9.806103367,76.35243925,0,139148.9185,139225.3432,138834.2936,139049.6526,139027.6896
MATS N MORE,"IV/446A, Valavanadu, Pollathtai P.O, Kalavoor, Alappuzha, Kerala 688522, India",Kerala,688522,250043,490751,1355063,1392430,1641619,2478498,2502489,2863753,2786338,Ambalapuzha,Alappuzha,9.572168203,76.32190507,0,2673003.242,2769106.947,2836484.245,2790992.519,2751617.41
META CLASSICS FIBRES,"Varanam ,Puthanangadi, Krishnakripa, Cherthala, Kerala 688524, India",Kerala,688524,294145,296432,374551,439873,471038,622109,939326,440334,504008,Cherthala,Alappuzha,9.689101163,76.3328507,0,514327.3916,510859.3328,503917.7717,503969.9257,511312.6888
N.C. JOHN & SONS LTD.,"G8RH+V3F, National Highway 47, Pathirappally, Poomkavu, Alappuzha, Kerala 688521, India",Kerala,688521,5192613,6579939,7004422,6250518,6322462,5981225,5508730,3632929,1206918,Ambalapuzha,Alappuzha,9.534986122,76.3284427,0,2664360.748,2647954.507,2637408.091,2634473.546,2629423.872
NATIONAL COIR MILLS,"near, Vazhicherry Rd, Vazhicherry Ward, Sea View Ward, Alappuzha, Kerala 688001, India",Kerala,688001,132695,107690,110303,129670,162079,97626,145191,106370,135162,Ambalapuzha,Alappuzha,9.496383919,76.33209265,0,134280.6104,134388.703,134394.2825,134391.6656,134341.6128
OCEAN WEALTH EXPORTS,"EP 9/92, 93, Lakshan Veedu Rd, Eramalloor, Ezhupunna, Kerala 688537, India",Kerala,688537,1035058,1586699,1525008,1844837,1304133,1017932,2086254,2370411,1687617,Cherthala,Alappuzha,9.82172572,76.30522974,0,1697680.414,1687340.905,1691344.686,1711071.371,1736306.589
P.K.GOVINDAN CO.,"A. S. Road, Kommady, Kaichoondi, Alappuzha, Aryad South, Kerala 688007, India",Kerala,688007,150,4090,123320,11550,12010,0,0,0,0,Ambalapuzh A,Alappuzha,9.510326071,76.32687786,0,0,29.60989,0,12.75625347,48.2464055
PALM FIBRE(INDIA)P.LTD.,"East of NH, Pathirappally, Aikyabharatham, Alappuzha, Kerala 688521, India",Kerala,688521,4703477,6271032,7122657,7212334,7033722,7886369,10828727,6948222,6436127,Ambalapuzha,Alappuzha,9.534986122,76.3284427,0,10514985.95,10536703.59,10541340.08,10542771.34,10539794.51
PARAYIL FOOD PRODUCTS P.LTD.,"Kochi,, V7PW+8X2, Aroor gram panchayat, Kochi, Kerala 688534, India",Kerala,688534,1052558,1653885,1957655,2134671,2846558,2186741,4507946,5303099,7220327,Cherthla,Alappuzha,9.871729377,76.30438504,0,7911237.826,7773993.728,7744752.078,7745270.807,7769107.7
POBJI EMPORIUM,"Valavanadu, P.O, Kalavoor, Alappuzha, Kerala 688522, India",Kerala,688522,1086007,1434545,1285699,1551734,1562623,1210061,1761393,1606980,1746482,Ambalapuzha,Alappuzha,9.572168203,76.32190507,0,1679258.07,1712841.033,1720673.422,1743111.429,1750902.554
POOPPALLY COIR MILLS,"AS Road, 688 007, Kommady, Thumpoly, Alappuzha, Aryad South, Kerala 688008, India",Kerala,688008,1363760,1292062,1080234,1632823,1551727,1717956,1795928,1847814,1699906,Ambalapuzha,Alappuzha,9.521471733,76.3244164,0,1714027.633,1635483.692,1681747.191,1687436.492,1691375.246
PREMIER EXPORTS INTERNATIONAL,"R8Q5+8HG, Salem - Kochi Hwy, Chandiroor, Kerala 688535, India",Kerala,688535,1413628,1513289,1470294,2172345,1716353,1044550,1314147,1157217,1292564,Cherthala,Alappuzha,9.8564922,76.32294532,0,1320007.359,1286806.688,1300150.249,1304994.268,1315506.452
PREMIER INNOVATIVE FOODS,"Pallipuram p.o, Pallippuram Thycattussery Road, Pallipuram, Kerala 688541, India",Kerala,688541,128000,89180,88944,0,0,0,0,0,0,Cherthala,Alappuzha,9.742432095,76.36193387,0,0,2.132174622,0,14.64905419,0
PREMIER MARINE ENTERPRISES,"R8F4+6MQ, Rd, Neendakara, Eramalloor, Ezhupunna, Kerala 688537, India",Kerala,688537,206000,357500,322000,568300,155180,202489,513597,767808,470336,Cherthala,Alappuzha,9.82172572,76.30522974,0,468585.7511,467338.441,465734.7552,467386.6635,470724.564
PREMIER MARINE FOODS,"Premier Marine Foods, V835+8C7, National Highway 47, Chandiroor, Kochi, Kerala 688535, India",Kerala,688535,3353830,3962064,4902574,3988860,4185712,3831341,4744141,4174005,4586459,Cherthala,Alappuzha,9.8564922,76.32294532,0,8384424.128,8326783.426,8385762.908,8346023.794,8372577.545
R.F. EXPORTS,"Eramalloor,, Chandiroor, Alappuzha, Kerala 688537, India",Kerala,688537,2071952,2653742,2549390,3401208,3306954,3614404,4385239,4046554,2562877,Cherthala,Alappuzha,9.82172572,76.30522974,0,2781824.157,2464627.526,2471610.495,2585771.181,2609460.118
R.S.A MARINES,"Old, NH road, Chandiroor, Cherthala, Kerala 688547, India",Kerala,688547,283158,1131940,2035158,1444591,998632,1188645,1152740,365500,363000,Cherthala,Alappuzha,9.765011083,76.36738138,0,406548.4509,391448.3616,399085.7234,416794.9216,405207.5481
RAJ EXIM,"No: 3, Balaji Street Bypass Road, M.M.C.Colony, MGM Nagar, Avaniyapuram, Tamil Nadu 12, India",Tamil Nadu,688524,12126,12600,19200,0,199,0,0,9657,0,Cherthala,Alappuzha,9.689101163,76.3328507,0,7.817164783,7.975534157,8.069322365,7.286311502,7.910320837
RAM BAHADUR THAKUR KERALA P. LTD.,"Kerala, India",Kerala,688534,825,0,0,0,0,0,0,0,0,Cherthla,Alappuzha,9.871729377,76.30438504,0,7.817164783,7.975534157,8.069322365,7.286311502,7.910320837
RAM COIR MILLS,"271/CMC 5, Nedumprakkad, P85X+MC8, Cherthala, Kerala 688524, India",Kerala,688524,4763871,5457897,6629300,7195080,4168988,4509927,4977764,3216635,1922972,Cherthala,Alappuzha,9.689101163,76.3328507,0,3190987.195,3174382.721,3164507.477,3158490.75,3149631.471
RELISH CUSTOM FOOD,"Beach Road, Valanjavazhy, Kerala 688005, India",Kerala,688005,131534,0,79000,52000,55000,49516,90563,77574,28624,Ambalappuzha,Alappuzha,9.40768399,76.35170703,0,28694.39971,28694.05914,28676.66595,28610.19339,28454.76404
ROYAL MARINE EXPORTS,"R8V5+M94, Chandiroor, Kerala 688535, India",Kerala,688535,19000,0,0,0,0,0,0,0,1143740,Cherthala,Alappuzha,9.8564922,76.32294532,0,1205423.07,1173930.693,1166062.658,1167338.49,1161754.061
RURAL COIR INDUSTRIES,"Mattathil Muhamma, Aryakara, Alappuzha, Muhamma, Kerala 688525, India",Kerala,688525,35768,11666,0,8364,27632,19917,21338,21412,17444,Cherthala,Alappuzha,9.619357623,76.35883995,0,17439.82167,17472.77751,17480.21737,17473.75982,17489.85609
S.P.V.DESIGNS,"G8CJ+JX3, Thalavady, Thiruvilak, Vyasapuram, Alappuzha, Aryad South, Kerala 688008, India",Kerala,688008,160735,86007,115920,46371,46508,14535,33942,7502,51270,Ambalapuzha,Alappuzha,9.521471733,76.3244164,0,51482.24441,51619.5994,51632.66633,51455.63619,51325.7912
SAMUDRA SHIPYARD P.LTD.,"Aroor gram panchayat, Kochi, Kerala 688534, India",Kerala,688534,365,0,0,0,0,0,2712,0,0,Cherthla,Alappuzha,9.871729377,76.30438504,0,7.817164783,7.975534157,8.069322365,7.286311502,7.910320837
SARK SPICE PRODUCTS P. LTD.,"Neelamperoor - Kavalam Rd, Kavalam, Eara, Kerala 686534, India",Kerala,686534,114360,65456,51212,15151,18517,0,0,0,0,Kuttanad,Alappuzha,9.499139,76.50628866,0,15.88783093,0,0,101.9346255,281.6722691
SEASON COIR EXPORTS,"CHINGOLI, P.O,KARTHIKAPALLY, Haripad, Karthikapally, Kerala 690532, India",Kerala,690532,684500,864350,1381875,1856433,1203571,1912359,1759803,2883676,6377557,Karthikappally,Alappuzha,9.244080327,76.45276534,0,6307364.016,6313326.759,6292866.561,6347949.824,6332659.052
SILVER STAR SEAFOODS LTD.,"V834+2GJ, Chandiroor, Kerala 688535, India",Kerala,688535,54700,0,0,102300,0,0,0,0,0,Cherthala,Alappuzha,9.8564922,76.32294532,0,35.43140758,0,178.9320555,26.60271596,66.38425574
SOUTHERN COIR MILLS,"P.O. Cherthala, S.N.Puram, Cherthala, Kanjikkuzhi, Kerala 688582, India",Kerala,688582,54,885,2888,13509,1416,5071,3864,5201,2975,Cherthala,Alappuzha,9.632050252,76.31478024,0,3029.802253,3009.417543,3030.599822,3026.851482,3064.582859
T.G.POLYMERS&COMPANY,"Aryakara, Muhamma, Kerala 688525, India",Kerala,688525,9900,0,3250,3425,4224,0,5100,0,11641,Cherthala,Alappuzha,9.619357623,76.35883995,0,11649.28157,11639.58905,11638.7092,11638.2374,11607.50703
TAJ COIR MILLS,"Thalavady Rd, Thalavady, Aikyabharatham, Alappuzha, Aryad South, Kerala 688006, India",Kerala,688006,307766,829096,513278,586945,1078464,1153519,1955028,1424013,751116,Ambalapuzha,Alappuzha,9.525584704,76.33896854,0,752166.1389,757749.4145,777648.8774,786155.0269,789650.9105
TAMILNADU NEWSPRINT & PAPERS LTD.,"Tamil Nadu, India",Tamil Nadu,688534,8636864,22539379,28722169,26076051,26198011,20965251,39244921,18055354,15740204,Cherthla,Alappuzha,9.871729377,76.30438504,0,10514985.95,10536703.59,10541340.08,10542771.34,10539794.51
TECHNO EXPORTS,"Pattanakad, P.O, Cherthala, Pattanakkad, Kerala 688531, India",Kerala,688531,3692047,5397167,4814087,5875746,5177574,4538721,4690267,1553437,3898220,Cherthala,Alappuzha,9.725622914,76.31563822,0,4960555.678,5120441.245,5112893.04,5170279.077,5177019.284
THAHIRA CHEMICALS,"V7QW+9J8, Aroor gram panchayat, Kochi, Kerala 688534, India",Kerala,688534,29840,213260,138990,153895,0,0,0,0,0,Cherthla,Alappuzha,9.871729377,76.30438504,0,0,0,872.421422,697.1280343,1870.391769
THREE STAR MARINE EXPORTS,"R8P3+PJM Aroor gram panchayat, Chandiroor, Kochi, Kerala 688534, India",Kerala,688534,574480,975208,607800,907605,772600,597462,1182754,2111904,1402964,Cherthla,Alappuzha,9.871729377,76.30438504,0,1404335.862,1362701.936,1402205.338,1373075.469,1384547.494
TRAVANCORE COCOTUFT P.LTD.,"Coir Park, Thiruvizha North Road, Mayithara, Cherthala, Cherthala South, Kerala 688539, India",Kerala,688539,6250051,5898398,7673256,8978701,8222807,7210501,9768512,7390829,6899830,Cherthala,Alappuzha,9.664282889,76.34121378,0,10514985.95,10536703.59,10541340.08,10542771.34,10539794.51
UNITED COIR FACTORIES,"A.S Road, Kommady, Alappuzha, Aryad South, Kerala 688007, India",Kerala,688007,2085608,2524282,2756071,3427047,3855425,3175198,5718530,4382075,5561369,Ambalapuzh A,Alappuzha,9.510326071,76.32687786,0,7711769.962,7636794.305,7692985.096,7680852.516,7671651.515
VASUNDHARALAYAM COIR WORKS,"P.O,Pin-688525, Muhamma, Kerala 688538, India",Kerala,688525,370131,270800,463908,282058,302362,554003,923747,735650,687269,Cherthala,Alappuzha,9.619357623,76.35883995,0,678474.8639,687780.6167,686293.3552,680767.7001,681926.6201
WILTON WEAVERS P.LTD.,"Kalavamkodam, Cherthala, Cherthala, Kerala 688536, India",Kerala,688536,122162,166777,177341,142746,213570,252707,641619,798592,510438,Cherthala,Alappuzha,9.717896142,76.33624802,0,502681.8159,503597.8667,502049.5156,500625.1815,505755.8842
ARBEE AQUATIC PROTEINS P.LTD.,"Aroor Industrial Estate, NH 47, Aroor gram panchayat, Kochi, Kerala 688534, India",Kerala,688534,0,293856,366500,1106750,421000,508090,987425,2916482,5469820,Cherthla,Alappuzha,9.871729377,76.30438504,0,6125756.812,6217391.16,6236295.368,6219184.484,6195088.122
BATHSHA MARINE EXPORTS,"Kochi,, V7MW+MJ2, Aroor gram panchayat, Kochi, Kerala 688534, India",Kerala,688534,0,299128,769527,1195144,1125376,224860,268200,151000,658500,Cherthla,Alappuzha,9.871729377,76.30438504,0,635382.196,642295.8625,642526.0949,645295.8862,647797.098
COCHIN TRADING,"Kochi, Kerala, India",Kerala,688524,0,5240,1379,0,0,0,0,0,0,Cherthala,Alappuzha,9.689101163,76.3328507,0,7.817164783,7.975534157,8.069322365,7.286311502,7.910320837
EZZED BAGS,"Duro flex, opp. Fire Station, Chungam, Alappuzha, Kerala 688011, India",Kerala,688011,0,21983,20050,20540,0,21399,0,0,0,Ambalapuzha,Alappuzha,9.494271705,76.34375953,0,22.01526751,7.975534157,8.069322365,7.286311502,7.916726959
KERALA ELECTRICAL&ALLIED ENGG.CO.LTD.,"Kerala, India",Kerala,688524,0,13400,0,0,0,0,0,0,0,Cherthala,Alappuzha,9.689101163,76.3328507,0,7.817164783,7.975534157,8.069322365,7.286311502,7.910320837
KOCHI IMPEX,"Kochi, Kerala, India",Kerala,688534,0,440,0,429,0,0,0,480,0,Cherthla,Alappuzha,9.871729377,76.30438504,0,7.817164783,7.975534157,8.069322365,7.286311502,7.910320837
MEENAKSHI COIR WORKS,"Charamangalam Mayithara.P.O, Kanjikuzhy, Cherthala, Kerala 688539, India",Kerala,688539,0,46929,182793,157081,28800,0,0,0,0,Cherthala,Alappuzha,9.664282889,76.34121378,0,328.1936554,488.1661748,130.3877134,0,109.944812
MOON FISHERY (INDIA)P.LTD.,"Plant II/722/D,, Industrial Estate, Aroor, Aroor gram panchayat, Alleppey, Kochi, Kerala 688534, India",Kerala,688534,0,96824,299500,26000,0,0,0,0,0,Cherthla,Alappuzha,9.871729377,76.30438504,0,127.0661755,0,0,0,0
N.V.JOSEPH EXPORTS,"X ray junction, M8GR+FGG, Chakkarakulam, Cherthala, Kerala 688524, India",Kerala,688524,0,1002774,1660497,1103894,1428531,1455597,916298,1189983,855602,Cherthala,Alappuzha,9.689101163,76.3328507,0,871582.3987,871653.3148,872788.7953,859569.903,875094.5035
PROTECH ORGANO FOODS P. LTD.,"PLOT NO.19&20 KSIDC MAGA, INDUSTRIAL GROWTH CENTRE, Food Park Road, Pallipuram, Kerala 688541, India",Kerala,688541,0,135000,0,0,0,0,0,0,1729611,Cherthala,Alappuzha,9.742432095,76.36193387,0,1778669.465,1701291.71,1717713.616,1718701.049,1718732.192
SOFINE DECORS P.LTD.,"Industrial Estate, Mayithara, Cherthala, Alappuzha, J8XP+FGH, 11th Mile, Mayithara, Alappuzha, Cherthala South, Kerala 688536, India",Kerala,688536,0,37271,0,0,0,0,0,0,0,Cherthala,Alappuzha,9.717896142,76.33624802,0,7.817164783,7.975534157,8.069322365,7.286311502,7.910320837
ALEXANDER COIR WORKS,"Chetticadu, Pathirappally, P O, Thumpoly, Alappuzha, Aryad South, Kerala 688521, India",Kerala,688521,0,0,14800,27300,9400,0,870,0,7700,Ambalapuzha,Alappuzha,9.534986122,76.3284427,0,7607.768461,7622.223675,7606.835801,7626.810698,7615.899138
ASSA SEA FOODS,"Valanjavazhy, Ambalapuzha, Kerala 688005, India",Kerala,688005,0,0,93000,292000,17000,50280,159000,389500,26000,Ambalappuzha,Alappuzha,9.40768399,76.35170703,0,22888.82534,26313.20961,25258.32765,26208.13214,25875.20248
COCO PLANETE,"Stadium 33/343, Vellakinar, Ward Rd, Vellakkinar, Alappuzha, Kerala 688001, India",Kerala,688001,0,0,143800,28975,0,0,0,0,975,Ambalapuzha,Alappuzha,9.496383919,76.33209265,0,1037.599431,979.4304601,949.7407011,1048.445286,958.462876
GLOBAL EXIM INDIA P.LTD.,"Power House Rd, Cherthala, Kerala 688524, India",Kerala,688524,0,0,67350,54000,39075,197244,280727,121504,268209,Cherthala,Alappuzha,9.689101163,76.3328507,0,268415.5167,267784.2351,267346.4034,267878.3445,267575.45
GRAND PEARL EXPORTS,"Door No: 16/275, Aroor gram panchayat, Kochi, Kerala 688537, India",Kerala,688537,0,0,223400,750523,476233,160575,291010,179082,0,Cherthala,Alappuzha,9.82172572,76.30522974,0,666.9343152,148.4139812,1241.09107,1143.308891,1514.553122
JOECE ENTERPRISES,"KUNCHARATH, POOCHAKKAL P.O, Cherthala - Arookutty Rd, Poochakkal, Panavally, Kerala 688526, India",Kerala,688526,0,0,42484,101206,204831,331989,374958,219115,344717,Cherthala,Alappuzha,9.806103367,76.35243925,0,345412.0351,346205.6228,346739.6601,346793.0044,345941.2487
KADAVIL CHEMICALS,"Kalarcode, Punnapra North, Alappuzha, Kerala 688003, India",Kerala,688003,0,0,72960,0,0,0,0,0,0,Ambalapuzha,Alappuzha,9.468575348,76.33827431,0,24.63901816,6.618337457,0,6.489821057,15.84460163
PALLICKAL FOOD PRODUCTS,"Pallickal, Kerala, India",Kerala,688524,0,0,41380,0,0,0,0,0,0,Cherthala,Alappuzha,9.689101163,76.3328507,0,7.164756432,7.975534157,8.069322365,6.489821057,6.327025466
SAANVI EXPORTS,"11/390A Vishakapuram, Mangalapuram, PO, Kanjikuzhy, Thamarachal, Muhamma, Kerala 688525, India",Kerala,688525,0,0,26370,250549,220789,85817,173515,220164,308198,Cherthala,Alappuzha,9.619357623,76.35883995,0,305679.0757,306215.0897,305736.0071,305436.2164,306569.6926
SAINA EXPORTS,"P. H WARD, AS ROAD, Kommady, Alappuzha, Aryad South, Kerala 688001, India",Kerala,688001,0,0,45718,84429,182534,169426,117705,87131,177408,Ambalapuzha,Alappuzha,9.496383919,76.33209265,0,177740.8486,176947.7484,177018.8625,176105.5163,176700.2544
ALCO ALUMINIUM PRODUCTS,"Chengannur, Kerala 689124, India",Kerala,689124,0,0,0,9224,0,0,0,0,0,Chengannur,Alappuzha,9.335987914,76.59384023,0,7.817164783,7.975534157,8.069322365,7.286311502,7.910320837
AMALGAM FROZEN FOODS,"V7PX+W8H, Aroor - Thoppumpady Rd, Aroor gram panchayat, Kochi, Kerala 688534, India",Kerala,688534,0,0,0,11000,51572,64216,24582,269637,293948,Cherthla,Alappuzha,9.871729377,76.30438504,0,293787.1976,294043.7089,292351.5218,292842.0441,293241.2324
ANNAPOORNESWARI EXIM P.LTD.,"Erakari Road Vayalar 7/528 A KALYANI, Vayalar, Kerala 688524, India",Kerala,688524,0,0,0,14592,54353,86571,89897,32113,35395,Cherthala,Alappuzha,9.689101163,76.3328507,0,35450.55264,35402.50169,35393.09444,35379.47793,35193.08538
COIR DUST INC.,"PARSA'S, Building No 828A, PO, opp. Central Coir Research Institute, Kalavoor, Alappuzha, Kerala 688522, India",Kerala,688522,0,0,0,50130,0,0,0,0,0,Ambalapuzha,Alappuzha,9.572168203,76.32190507,0,11.92747564,7.975534157,8.069322365,7.286311502,7.910320837
DIVINE RUBBER PRODUCTS,"FFRV+436, Kurichy - Eara - Kavalam Rd, Eara, Kerala 686534, India",Kerala,686534,0,0,0,169400,429122,638610,931639,832150,799700,Kuttanad,Alappuzha,9.499139,76.50628866,0,818589.6114,822028.5484,812932.3402,814776.1707,805265.4178
FOUSIA TIMBER INDUSTRIES,"M8PJ+6X8, Nedumbrakkad, Cherthala, Kerala 688524, India",Kerala,688524,0,0,0,6635,0,0,43891,21236,24340,Cherthala,Alappuzha,9.689101163,76.3328507,0,24208.07843,24250.9458,24090.66553,24058.48114,24224.49888
KERALA STATE INDSTL.ENTERPRISES,"Kerala, India",Kerala,688534,0,0,0,10840,10840,3900,457,0,0,Cherthla,Alappuzha,9.871729377,76.30438504,0,7.817164783,7.975534157,8.069322365,7.286311502,7.910320837
COCHIN CHEMICALS & RUBBER PRODUCTS,"Kochi, Kerala, India",Kerala,688524,0,0,0,0,63645,1599,29251,75952,94874,Cherthala,Alappuzha,9.689101163,76.3328507,0,94953.68407,95151.62291,95074.91651,94961.23216,94922.02513
COIR YARN TEX,"Kaichoondi, Alappuzha, Aryad South, Kerala 688006, India",Kerala,688006,0,0,0,0,138527,339326,431041,456423,733740,Ambalapuzha,Alappuzha,9.525584704,76.33896854,0,713798.4221,724206.2631,725260.3413,726739.2077,722011.4125
EVERSHINE CHEMICAL INDUSTRIES,"Pallippuram P. O., Cherthala, Kelamangalam, Alleppey, Kerala 688541, India",Kerala,688541,0,0,0,0,1025,2920,0,0,0,Cherthala,Alappuzha,9.742432095,76.36193387,0,7.817164783,7.975534157,8.069322365,7.286311502,7.910320837
KALPAKA PROCESSING CO.,"TAK-Industrial Complex Eara, North P.O, Neelamperoor, Kerala 68653, India",Kerala,688534,0,0,0,0,26575,0,18243,8640,21115,Cherthla,Alappuzha,9.871729377,76.30438504,0,21073.27784,21035.16663,21170.33447,21081.33847,21128.79444
KERALA SEA FOODS,"Kerala, India",Kerala,688524,0,0,0,0,21000,0,0,0,0,Cherthala,Alappuzha,9.689101163,76.3328507,0,7.817164783,7.975534157,11.06002359,7.286311502,7.910320837
MACHINGAL MARKETING AGENCIES,"Machingal, Down Hill, Malappuram, Kerala, India",Kerala,688534,0,0,0,0,4305,4507,15734,26462,4105,Cherthla,Alappuzha,9.871729377,76.30438504,0,4205.749785,4216.514432,4199.637087,4200.44966,4180.96222
NAS FOOD EXIM,"Cherthala, plot no:36, KSIDC Mega Food Park, Industrial growth centre, Pallipuram, Kerala 688541, India",Kerala,688541,0,0,0,0,134500,421276,643318,1047681,1834493,Cherthala,Alappuzha,9.742432095,76.36193387,0,1777882.843,1804665.07,1825826.449,1827849.356,1808991.758
NIVENIA INTERNATIONAL,"Q8CV+H94, Thycattussery, Kerala 688528, India",Kerala,688528,0,0,0,0,314115,240343,389277,245792,330834,Cherthala,Alappuzha,9.776579569,76.34386003,0,329042.0424,327877.9102,329333.9228,329888.2507,329011.4958
PRAYAG EXPORTS,"AP/XII-157,Chandiroor P O, 688537, Chandiroor, Cherthala, Kerala 688537, India",Kerala,688537,0,0,0,0,215140,780500,1217401,821000,776000,Cherthala,Alappuzha,9.82172572,76.30522974,0,766044.1341,780845.0587,788577.8101,772286.8803,769785.3169
PROTECH ORGAN FOODS,"PLOT NO.19&20 KSIDC MAGA, INDUSTRIAL GROWTH CENTRE, Food Park Road, Pallipuram, Kerala 688541, India",Kerala,688541,0,0,0,0,193900,949827,2208125,2413622,0,Cherthala,Alappuzha,9.742432095,76.36193387,0,0,54594.9365,61320.14844,54978.64072,49497.88968
ACHUTHARA FOOD PRODUCTS,"MLA Rd, Poochakkal, Cherthala, Panavally, Kerala 688526, India",Kerala,688526,0,0,0,0,0,14701,4138,0,13748,Cherthala,Alappuzha,9.806103367,76.35243925,0,13636.86497,13629.65074,13626.21739,13624.10861,13628.26376
ADIF MAT EXPORTS,"MGP 7, 674, Shanmukhavilasam Road, North, Komalapuram, Aaryad, Mannanchery, Alappuzha, Kerala 688538, India",Kerala,688538,0,0,0,0,0,37642,40196,16350,23957,Mararikulam,Alappuzha,9.570886509,76.34889932,0,23719.53872,23726.05619,23916.54798,23664.74687,23742.06326
CENTRAL COIR MILLS,"F8XM+CFC, Vazhicherry Ward, Sea View Ward, Alappuzha, Kerala 688001, India",Kerala,688001,0,0,0,0,0,160,179,0,14622,Ambalapuzha,Alappuzha,9.496383919,76.33209265,0,14848.31785,14758.49429,14751.38018,14775.83032,14760.3237
CHERUSSERIKALAM GROUP,"20/150, neelamperoor, p.o, Kurichy, Chingavanam, Kerala 686534, India",Kerala,686534,0,0,0,0,0,395923,1677399,1407338,1834013,Kuttanad,Alappuzha,9.499139,76.50628866,0,1780027.092,1820980.167,1821310.389,1815238.839,1811971.446
COIMBATORE SUPER ALLOYS P.LTD.,"Coimbatore, Tamil Nadu, India",Tamil Nadu,688534,0,0,0,0,0,14227,1098,16686,8470,Cherthla,Alappuzha,9.871729377,76.30438504,0,8480.89885,8522.915236,8505.829238,8468.081069,8473.609355
GREEN COIR HUB,"J8WQ+93V, Post Office Rd, Charamangalam, Mayithara, Cherthala, Kerala 688539, India",Kerala,688539,0,0,0,0,0,134140,370520,841653,739055,Cherthala,Alappuzha,9.664282889,76.34121378,0,708782.2748,712439.9311,723076.2711,719487.1427,730665.6832
KOLUTHARA EXPORTS LTD.,"Postal Box, No. 7, Keltron Rd, Aroor gram panchayat, Kochi, Kerala 688534, India",Kerala,688534,0,0,0,0,0,10500,0,0,0,Cherthla,Alappuzha,9.871729377,76.30438504,0,7.817164783,7.975534157,8.069322365,7.286311502,7.916726959
PKG FIBRES,"18/341A, MADATHIVELIYIL, Kalavoor, Alappuzha, Kerala 688522, India",Kerala,688522,0,0,0,0,0,30050,35168,19357,13450,Ambalapuzha,Alappuzha,9.572168203,76.32190507,0,13643.03748,13642.32824,13618.704,13644.11906,13641.38943
SHAVUOT AGRIC,"Shavuot Agric Building No XII /667-B Valanjandakku road, Olakettiambalam, Perungala, Kerala 690510, India",Kerala,690510,0,0,0,0,0,90730,24000,0,0,Chengannur,Alappuzha,9.20028885,76.53534655,0,39.33978528,0,0,22.46371512,0
V.TEX GARMENTS,"TD Rd, Thuravoor, Thuravoor Thekku, Kerala 688540, India",Kerala,688540,0,0,0,0,0,11979,27917,10195,22380,Cherthala,Alappuzha,9.773458593,76.30215857,0,22233.58396,22284.31992,22167.10401,22278.69099,22306.05784
ADS APPARELS,"101, Rajdhani Towers, Workshop St, Sirupooluvapatti, Khaderpet, Rayapuram, Tiruppur, Tamil Nadu 641 60, India",Tamil Nadu,688524,0,0,0,0,0,0,9755,39202,20784,Cherthala,Alappuzha,9.689101163,76.3328507,0,20446.13014,20463.50827,20557.34165,20611.97644,20665.64969
DRISHYA ENGINEERING,"KOLLPPALLY, KALAVAMKODAM P O CHERTHALA, ALAPPUZHA DIST, Kerala 688524, India",Kerala,688524,0,0,0,0,0,0,485,0,0,Cherthala,Alappuzha,9.689101163,76.3328507,0,7.817164783,7.975534157,8.069322365,7.286311502,7.910320837
MARINOS EXPORTS,"XII/240,Hemadri Building, Thirunalloor, P.O, Cherthala, Thirunallur, Kerala 688541, India",Kerala,688541,0,0,0,0,0,0,27950,84650,0,Cherthala,Alappuzha,9.742432095,76.36193387,0,0,51.29651024,0,17.04473393,63.41240832
S.K.COCO INTERNATIONAL,"3/254 C Pallipuram, P.O, Pin:688541, Cherthala, Pallipuram, Kerala 688541, India",Kerala,688541,0,0,0,0,0,0,14880,0,0,Cherthala,Alappuzha,9.742432095,76.36193387,0,8.929050757,7.975534157,9.132408295,7.180527008,7.910320837
TIRUPUR STYLE,"Tiruppur, Tamil Nadu, India",Tamil Nadu,688524,0,0,0,0,0,0,7077,0,0,Cherthala,Alappuzha,9.689101163,76.3328507,0,8.929050757,7.975534157,9.132408295,7.286311502,7.910320837
AI MARINE PRODUCTS INDIA P.LTD.,"KSIDC Mega Food Park Pallippuram, Cherthala, Pallipuram, Kerala 688541, India",Kerala,688541,0,0,0,0,0,0,0,660124,1276701,Cherthala,Alappuzha,9.742432095,76.36193387,0,1270960.934,1276857.729,1272638.777,1266628.038,1264083.906
ALLEPPEY DIESEL SERVICES,"Near Rotary Womens Hostel X-Ray Bypass Junction, CMC-17, Cherthala Rd, Choice Nagar, Cherthala, Kerala 688524, India",Kerala,688524,0,0,0,0,0,0,0,390,0,Cherthala,Alappuzha,9.689101163,76.3328507,0,7.817164783,7.975534157,8.069322365,7.286311502,7.910320837
BRISCOZ,"GMMG+M3Q, Kangazha, Kerala, India",Kerala,688524,0,0,0,0,0,0,0,97500,0,Cherthala,Alappuzha,9.689101163,76.3328507,0,0,0,62.97266195,0,159.0363748
CAPSERVO GLOBAL,"CMC 24/227, Kuruppan Kulangara, Cherthala, Kerala 688524, India",Kerala,688524,0,0,0,0,0,0,0,3493,0,Cherthala,Alappuzha,9.689101163,76.3328507,0,7.817164783,7.975534157,8.069322365,7.286311502,7.910320837
COCHIN CHITIN COMPANY,"22/825 A,B,C, Chemical Industrial Area, Aroor gram panchayat, Kochi, Kerala 688534, India",Kerala,688534,0,0,0,0,0,0,0,399552,330872,Cherthla,Alappuzha,9.871729377,76.30438504,0,330146.8169,334393.8614,333639.8268,336479.4737,333467.8429
GHAN MARINE EXIM,"P9V4+PCP, Pallipuram, Kerala 688541, India",Kerala,688541,0,0,0,0,0,0,0,243350,1409550,Cherthala,Alappuzha,9.742432095,76.36193387,0,1465051.044,1434930.405,1426703.712,1422825.81,1428269.198
JOHNS UMBRELLA MART,"CCNB Rd, Erezha, Mullakkal, Alappuzha, Kerala 688011, India",Kerala,688011,0,0,0,0,0,0,0,7586,0,Ambalapuzha,Alappuzha,9.494271705,76.34375953,0,7.817164783,7.975534157,8.069322365,7.286311502,7.910320837
KASHMIR FRUIT BAZAR,"Vettuveni Rd, NAGAR, Haripad, Kerala 690514, India",Kerala,690514,0,0,0,0,0,0,0,47700,0,Karthikappally,Alappuzha,9.289124556,76.45218776,0,8.521852788,45.02696294,0,11.7360337,17.427897
MAJEED CARPET HOUSE,"F8XM+HH4, Vazhicherry Rd, Vazhicherry Ward, Sea View Ward, Alappuzha, Kerala 688001, India",Kerala,688001,0,0,0,0,0,0,0,11678,56050,Ambalapuzha,Alappuzha,9.496383919,76.33209265,0,55944.35288,55970.89384,55902.05867,55954.99191,55912.67627
MOM SEA FRESH FISH,"Poojappura Temple, Road, Aroor gram panchayat, Kochi, Kerala 688534, India",Kerala,688534,0,0,0,0,0,0,0,96260,13000,Cherthla,Alappuzha,9.871729377,76.30438504,0,12739.08069,12743.95283,12769.39801,12872.02152,12782.73816
MUKKAM MUILL STORES P.LD.,"Mukkam, Kerala, India",Kerala,688524,0,0,0,0,0,0,0,784,0,Cherthala,Alappuzha,9.689101163,76.3328507,0,7.817164783,7.975534157,8.069322365,7.286311502,7.910320837
NANDINI COIR WORKS,"Kattoor, Church Road, Pattukalam, Alappuzha, Kerala 688522, India",Kerala,688522,0,0,0,0,0,0,0,37630,35200,Ambalapuzha,Alappuzha,9.572168203,76.32190507,0,35217.78888,35229.27224,35316.36242,35263.36002,35230.12011
S.K. COCO INTERNATIONAL,"3/254 C Pallipuram, P.O, Pin:688541, Cherthala, Pallipuram, Kerala 688541, India",Kerala,688541,0,0,0,0,0,0,0,4752,0,Cherthala,Alappuzha,9.742432095,76.36193387,0,7.817164783,7.975534157,8.069322365,7.286311502,7.910320837
T.R.PACKING PRODUCTS,"Punnapra North, Alappuzha, Kerala 688003, India",Kerala,688003,0,0,0,0,0,0,0,4998,9451,Ambalapuzha,Alappuzha,9.468575348,76.33827431,0,9578.149745,9570.487034,9563.418667,9484.713493,9543.101596
AAVEES FLOOR COVERING,"near Iron Bridge, Pullurithakary, Cherthala, Kerala 688524, India",Kerala,688524,0,0,0,0,0,0,0,0,2586,Cherthala,Alappuzha,9.689307596,76.33268506,0,2558.01552,2603.807919,2560.698631,2560.279108,2597.666821
AUTOKAST LTD.,"SN Puram Post Salem, State Highway 66, Kanjikuzhy, Cherthala South, Kerala 688530, India",Kerala,688530,0,0,0,0,0,0,0,0,6518,Cherthala,Alappuzha,9.646816892,76.30059679,0,6534.534582,6545.470195,6571.075874,6568.424717,6528.146444
"COCHIN FOOD TECH P. LTD,","Kochi, Kerala, India",Kerala,688524,0,0,0,0,0,0,0,0,26881,Cherthala,Alappuzha,9.689307596,76.33268506,0,26552.38818,26579.9749,26658.70401,26648.47495,26540.67177
COGENT EXPORTS,"Rose Villa, Aarattuvazhi, Kanjiramchira, Alappuzha, Aryad South, Kerala 688006, India",Kerala,688006,0,0,0,0,0,0,0,0,198412,Ambalapuzha,Alappuzha,9.525584704,76.33896854,0,197059.5243,197254.6831,198462.5429,197644.161,197346.5336
DRONA ENGINEERING,"Opp.Lee fibre Factory, P.O, CMC-21, Cherthala, Nedumprakkad, Kerala 688524, India",Kerala,688524,0,0,0,0,0,0,0,0,27020,Cherthala,Alappuzha,9.689307596,76.33268506,0,27120.77288,27086.89887,27144.01563,27168.87105,27003.98632
JUNGLE FRUITS THIRUVANNAMALAI LLP,"Tiruvannamalai, Tamil Nadu, India",Tamil Nadu,688534,0,0,0,0,0,0,0,0,84290,Cherthla,Alappuzha,9.871729377,76.30438504,0,83616.72884,83790.88139,83790.19302,83689.26529,83836.54363
KATTUKULAM EXPORTING AD IMPORTING,"Kattukulam, Kerala, India",Kerala,688534,0,0,0,0,0,0,0,0,8547,Cherthla,Alappuzha,9.871729377,76.30438504,0,8480.89885,8522.915236,8505.829238,8477.410306,8473.602949
LEE MARINE EXPORTS,"V826+55H, Chandiroor, Kerala 688535, India",Kerala,688535,0,0,0,0,0,0,0,0,56000,Cherthala,Alappuzha,9.8564922,76.32294532,0,55826.7743,55862.85112,55831.47459,55885.95372,55881.57089
ONEIRO COLLECTIONS,"Mannar, Kerala 689622, India",Kerala,689622,0,0,0,0,0,0,0,0,5,Chengannur,Alappuzha,9.314519676,76.53582117,0,24.53113298,23.17715712,11.15997303,16.04070575,7.910320837
PANICKERS GRANITES,"M.C.Road, Kozhippalam - Karakkad Rd, Chengannur, Mulakuzha, Kerala 689504, India",Kerala,689504,0,0,0,0,0,0,0,0,14000,Chengannur,Alappuzha,9.28720845,76.65541803,0,14015.82533,14022.80352,14011.22772,14014.86426,14021.80163
ROTARY CLUB OF TIRUPUR NORTH,"Tiruppur North, Tamil Nadu, India",Tamil Nadu,688534,0,0,0,0,0,0,0,0,12425,Cherthla,Alappuzha,9.871729377,76.30438504,0,12465.78856,12468.89949,12471.82798,12443.59739,12416.32275
SC EXPORTS,"Bismillah Trade Centre, 24/1056, St George St, Erezha, Sea View Ward, Alappuzha, Kerala 688001, India",Kerala,688001,0,0,0,0,0,0,0,0,31069,Ambalapuzha,Alappuzha,9.496383919,76.33209265,0,31478.70143,31433.09363,31250.86748,31335.98891,31475.5759
TIRUPUR KNITWEAR EXPORTS PVT LTD,"Tiruppur, Tamil Nadu, India",Tamil Nadu,688534,0,0,0,0,0,0,0,0,14822,Cherthla,Alappuzha,9.871729377,76.30438504,0,14848.31785,14758.49429,14751.38018,14775.83032,14760.3237
